{"type": "FeatureCollection", "features": [{"type": "Feature", "properties": {"hours": 69.0}, "geometry": {"type": "LineString", "coordinates": [[-122.3, 36.6], [-122.30104, 36.60172], [-122.30158, 36.60355], [-122.30162, 36.6055], [-122.30117, 36.60759], [-122.30024, 36.60985], [-122.29882, 36.61229], [-122.29697, 36.61495], [-122.29514, 36.61738], [-122.29332, 36.61958], [-122.29151, 36.62151], [-122.28974, 36.62322], [-122.28799, 36.62468], [-122.28623, 36.6259], [-122.28444, 36.62684], [-122.28261, 36.62751], [-122.2807, 36.62789], [-122.2787, 36.62799], [-122.27659, 36.62778], [-122.27435, 36.62729], [-122.27212, 36.62689], [-122.26993, 36.6266], [-122.26777, 36.62642], [-122.26565, 36.62635], [-122.26357, 36.6264], [-122.26154, 36.62656], [-122.25956, 36.62685], [-122.25764, 36.62727], [-122.25575, 36.62782], [-122.25392, 36.6285], [-122.25213, 36.62932], [-122.25041, 36.63028], [-122.24875, 36.63137], [-122.24716, 36.63259], [-122.24566, 36.63395], [-122.24423, 36.63543], [-122.2429, 36.63705], [-122.24166, 36.63879], [-122.24052, 36.64065], [-122.23949, 36.64263], [-122.23856, 36.64472], [-122.23775, 36.64692], [-122.23705, 36.64922], [-122.23647, 36.65162], [-122.23602, 36.65401], [-122.2357, 36.65638], [-122.23551, 36.65874], [-122.23544, 36.66106], [-122.23549, 36.66335], [-122.23567, 36.66558], [-122.23596, 36.66774], [-122.23636, 36.66984], [-122.23687, 36.67186], [-122.23748, 36.6738], [-122.23818, 36.67565], [-122.23898, 36.67741], [-122.23985, 36.67907], [-122.2408, 36.68063], [-122.24182, 36.68209], [-122.24291, 36.68343], [-122.24407, 36.68466], [-122.24528, 36.68576], [-122.24654, 36.68674], [-122.24785, 36.6876], [-122.2492, 36.68832], [-122.25059, 36.6889], [-122.25201, 36.68934], [-122.25346, 36.68963], [-122.2549, 36.68982], [-122.25632, 36.68988], [-122.25773, 36.68984], [-122.25912, 36.68968], [-122.26048, 36.68941], [-122.26181, 36.68902], [-122.26308, 36.68851], [-122.26431, 36.68789], [-122.26547, 36.68716], [-122.26659, 36.68631], [-122.26764, 36.68535], [-122.26863, 36.68428], [-122.26957, 36.68309], [-122.27044, 36.68179], [-122.27126, 36.68037], [-122.27202, 36.67884], [-122.27272, 36.67719], [-122.27336, 36.67542], [-122.27394, 36.67354], [-122.27447, 36.67154], [-122.27494, 36.66942], [-122.27535, 36.66717], [-122.27572, 36.66481], [-122.27603, 36.66231], [-122.2763, 36.65977], [-122.27654, 36.65717], [-122.27676, 36.65449], [-122.27694, 36.65174], [-122.27711, 36.6489], [-122.27725, 36.64598], [-122.27737, 36.64298], [-122.27748, 36.63989], [-122.27756, 36.63671], [-122.27763, 36.63344], [-122.27769, 36.63007], [-122.27772, 36.6266], [-122.27775, 36.62303], [-122.27777, 36.61935], [-122.27778, 36.61559], [-122.27783, 36.61182], [-122.27791, 36.60805], [-122.27802, 36.60427], [-122.27818, 36.60049], [-122.27836, 36.59669], [-122.27858, 36.59288], [-122.27884, 36.58906], [-122.27912, 36.58522], [-122.27945, 36.58136], [-122.27977, 36.57758], [-122.2801, 36.57387], [-122.28045, 36.57024], [-122.2808, 36.5667], [-122.28115, 36.56324], [-122.28151, 36.55989], [-122.28186, 36.55663], [-122.2822, 36.55349], [-122.28253, 36.55045], [-122.28284, 36.54753], [-122.28314, 36.54473], [-122.28341, 36.54206], [-122.28366, 36.53953], [-122.28387, 36.53714], [-122.28403, 36.53498], [-122.28415, 36.53302], [-122.2842, 36.53128], [-122.2842, 36.52974], [-122.28415, 36.5284], [-122.28403, 36.52725], [-122.28386, 36.52628], [-122.28363, 36.5255], [-122.28335, 36.5249]]}}, {"type": "Feature", "properties": {"hours": 69.0}, "geometry": {"type": "LineString", "coordinates": [[-122.22, 36.6], [-122.22384, 36.60354], [-122.22722, 36.60735], [-122.23014, 36.61147], [-122.2326, 36.61589], [-122.23462, 36.62066], [-122.2362, 36.6258], [-122.23745, 36.6314], [-122.23859, 36.63677], [-122.23963, 36.64188], [-122.24054, 36.64672], [-122.24131, 36.65127], [-122.24192, 36.6555], [-122.24237, 36.6594], [-122.24263, 36.66295], [-122.24263, 36.66609], [-122.24237, 36.66883], [-122.24183, 36.67116], [-122.24102, 36.67311], [-122.23992, 36.67468], [-122.23889, 36.67634], [-122.23794, 36.67809], [-122.23708, 36.67991], [-122.23631, 36.68182], [-122.23563, 36.6838], [-122.23505, 36.68585], [-122.23459, 36.68798], [-122.23423, 36.69016], [-122.234, 36.69241], [-122.23388, 36.69472], [-122.2339, 36.69708], [-122.23406, 36.69949], [-122.23435, 36.70194], [-122.23482, 36.70443], [-122.23546, 36.70695], [-122.2363, 36.70949], [-122.23733, 36.71206], [-122.23857, 36.71465], [-122.24002, 36.71726], [-122.24169, 36.71988], [-122.24358, 36.72251], [-122.2457, 36.72515], [-122.24803, 36.7278], [-122.25058, 36.73045], [-122.25322, 36.73296], [-122.25592, 36.7353], [-122.25866, 36.73748], [-122.26144, 36.73949], [-122.26425, 36.74133], [-122.2671, 36.74303], [-122.26997, 36.74458], [-122.27287, 36.74597], [-122.27579, 36.74719], [-122.27871, 36.74825], [-122.28163, 36.74912], [-122.28454, 36.74981], [-122.28745, 36.75031], [-122.29034, 36.75061], [-122.29321, 36.75072], [-122.29606, 36.75062], [-122.29888, 36.75032], [-122.30166, 36.74981], [-122.30442, 36.74907], [-122.30713, 36.7481], [-122.3098, 36.74688], [-122.31242, 36.74542], [-122.315, 36.74372], [-122.31753, 36.74178], [-122.31995, 36.73974], [-122.32226, 36.73761], [-122.3244, 36.73537], [-122.32638, 36.73302], [-122.3282, 36.73057], [-122.32985, 36.72801], [-122.33134, 36.72535], [-122.33267, 36.72259], [-122.33383, 36.71974], [-122.33484, 36.71679], [-122.33569, 36.71374], [-122.33639, 36.7106], [-122.33695, 36.70737], [-122.33736, 36.70403], [-122.33764, 36.70059], [-122.33778, 36.69704], [-122.33779, 36.69339], [-122.3377, 36.68961], [-122.33749, 36.68572], [-122.33718, 36.6817], [-122.33677, 36.67756], [-122.33628, 36.67329], [-122.33571, 36.66888], [-122.33506, 36.66433], [-122.33437, 36.65968], [-122.33366, 36.65492], [-122.33297, 36.65007], [-122.33231, 36.64515], [-122.33168, 36.64014], [-122.33106, 36.63503], [-122.33047, 36.62983], [-122.3299, 36.62452], [-122.32936, 36.61909], [-122.32884, 36.61357], [-122.32841, 36.60804], [-122.32806, 36.6025], [-122.32777, 36.59696], [-122.32756, 36.59141], [-122.32741, 36.58584], [-122.32732, 36.58026], [-122.32728, 36.57465], [-122.32732, 36.56905], [-122.32745, 36.56345], [-122.32765, 36.55785], [-122.32793, 36.55223], [-122.32829, 36.54661], [-122.32872, 36.54096], [-122.32922, 36.53529], [-122.32974, 36.52986], [-122.33027, 36.52467], [-122.3308, 36.51973], [-122.33133, 36.51503], [-122.33185, 36.51057], [-122.33235, 36.50634], [-122.33283, 36.50235], [-122.33328, 36.49859], [-122.33368, 36.49507], [-122.33402, 36.49181], [-122.33429, 36.48881], [-122.33448, 36.48606], [-122.33459, 36.48355], [-122.33463, 36.48127], [-122.33458, 36.47922], [-122.33444, 36.47739], [-122.33422, 36.47577], [-122.3339, 36.47436], [-122.3335, 36.47315], [-122.33299, 36.47215], [-122.33239, 36.47133], [-122.33169, 36.47071], [-122.3309, 36.47028]]}}, {"type": "Feature", "properties": {"hours": 69.0}, "geometry": {"type": "LineString", "coordinates": [[-122.14, 36.6], [-122.14414, 36.60444], [-122.14805, 36.60925], [-122.15171, 36.61443], [-122.1551, 36.62002], [-122.15821, 36.62604], [-122.16099, 36.63251], [-122.16343, 36.63945], [-122.16561, 36.64616], [-122.16752, 36.65262], [-122.16917, 36.6588], [-122.17057, 36.6647], [-122.17166, 36.67028], [-122.17243, 36.67554], [-122.17291, 36.68049], [-122.17311, 36.68512], [-122.17305, 36.68943], [-122.17274, 36.69343], [-122.17221, 36.69711], [-122.17145, 36.70049], [-122.17086, 36.70391], [-122.1704, 36.70733], [-122.1701, 36.71075], [-122.16995, 36.71418], [-122.16998, 36.71761], [-122.17019, 36.72104], [-122.17058, 36.72447], [-122.17117, 36.7279], [-122.17197, 36.73133], [-122.17299, 36.73476], [-122.17423, 36.7382], [-122.17572, 36.74164], [-122.17744, 36.74509], [-122.17939, 36.74855], [-122.18159, 36.75203], [-122.18403, 36.75553], [-122.18672, 36.75902], [-122.18968, 36.76253], [-122.19289, 36.76606], [-122.19639, 36.76961], [-122.20016, 36.77318], [-122.20423, 36.77679], [-122.2086, 36.78043], [-122.21327, 36.78413], [-122.21792, 36.7877], [-122.22255, 36.79113], [-122.22715, 36.7944], [-122.23171, 36.79747], [-122.23624, 36.80033], [-122.24074, 36.80299], [-122.24522, 36.80542], [-122.24968, 36.80761], [-122.25413, 36.80956], [-122.25856, 36.81127], [-122.26298, 36.81272], [-122.26737, 36.81393], [-122.27173, 36.81488], [-122.27606, 36.81557], [-122.28036, 36.816], [-122.28462, 36.81616], [-122.28884, 36.81606], [-122.29301, 36.81568], [-122.29714, 36.81502], [-122.30121, 36.81409], [-122.30522, 36.81288], [-122.30917, 36.81144], [-122.31307, 36.80976], [-122.3169, 36.80784], [-122.32064, 36.80589], [-122.3243, 36.80393], [-122.32786, 36.80193], [-122.33131, 36.79989], [-122.33467, 36.79782], [-122.33792, 36.7957], [-122.34105, 36.79353], [-122.34407, 36.79131], [-122.34696, 36.78905], [-122.34973, 36.78674], [-122.35237, 36.7844], [-122.35489, 36.78201], [-122.35729, 36.77958], [-122.35957, 36.77711], [-122.36172, 36.7746], [-122.36376, 36.77207], [-122.36568, 36.76951], [-122.3675, 36.76691], [-122.36921, 36.76427], [-122.37082, 36.76159], [-122.37234, 36.75887], [-122.37377, 36.7561], [-122.37511, 36.75329], [-122.37637, 36.75042], [-122.37762, 36.74746], [-122.37885, 36.7444], [-122.38006, 36.74125], [-122.38126, 36.73798], [-122.38241, 36.73458], [-122.38352, 36.73101], [-122.38458, 36.72727], [-122.38559, 36.72336], [-122.38655, 36.71928], [-122.38746, 36.71502], [-122.38833, 36.71058], [-122.38914, 36.70595], [-122.38991, 36.70113], [-122.39062, 36.69612], [-122.39128, 36.69098], [-122.39188, 36.68575], [-122.3924, 36.68041], [-122.39287, 36.67497], [-122.39326, 36.66942], [-122.39358, 36.66376], [-122.39384, 36.658], [-122.39404, 36.65212], [-122.39421, 36.64615], [-122.39437, 36.64008], [-122.3944, 36.63404], [-122.3943, 36.62805], [-122.39409, 36.6221], [-122.39375, 36.61622], [-122.39333, 36.61043], [-122.39285, 36.60477], [-122.39229, 36.59925], [-122.39167, 36.59386], [-122.39099, 36.58861], [-122.39025, 36.5835], [-122.38945, 36.57854], [-122.38861, 36.57373], [-122.38778, 36.5691], [-122.38696, 36.56464], [-122.38614, 36.56036], [-122.38532, 36.55627], [-122.3845, 36.55235], [-122.38367, 36.54861], [-122.38284, 36.54506], [-122.382, 36.54169], [-122.38116, 36.5385], [-122.3803, 36.53552], [-122.37942, 36.53276]]}}, {"type": "Feature", "properties": {"hours": 69.0}, "geometry": {"type": "LineString", "coordinates": [[-122.06, 36.6], [-122.0639, 36.60326], [-122.06754, 36.60697], [-122.07089, 36.61111], [-122.07396, 36.61566], [-122.07673, 36.62063], [-122.07919, 36.62601], [-122.08124, 36.63188], [-122.08303, 36.63771], [-122.08458, 36.64348], [-122.08588, 36.64916], [-122.08694, 36.65474], [-122.08776, 36.66021], [-122.08834, 36.66554], [-122.08861, 36.67072], [-122.08858, 36.67573], [-122.08827, 36.68057], [-122.08769, 36.6852], [-122.08687, 36.68963], [-122.0858, 36.69384], [-122.08483, 36.69803], [-122.08395, 36.70221], [-122.08318, 36.70631], [-122.08253, 36.71029], [-122.08201, 36.71417], [-122.08162, 36.71796], [-122.08137, 36.72165], [-122.08128, 36.72526], [-122.08134, 36.72879], [-122.08158, 36.73226], [-122.08199, 36.73567], [-122.0826, 36.73902], [-122.08341, 36.74234], [-122.08442, 36.74566], [-122.08565, 36.74901], [-122.0871, 36.75237], [-122.08878, 36.75578], [-122.09072, 36.75922], [-122.09292, 36.76271], [-122.0954, 36.76625], [-122.09819, 36.76986], [-122.1013, 36.77355], [-122.10474, 36.77731], [-122.10846, 36.78112], [-122.11218, 36.78491], [-122.11583, 36.78867], [-122.11943, 36.79241], [-122.12298, 36.79612], [-122.12649, 36.79979], [-122.12999, 36.80342], [-122.13347, 36.80702], [-122.13696, 36.81058], [-122.14046, 36.81408], [-122.14399, 36.81754], [-122.14751, 36.8209], [-122.15104, 36.82415], [-122.15461, 36.82728], [-122.15823, 36.83027], [-122.1619, 36.83312], [-122.16564, 36.83581], [-122.16945, 36.83833], [-122.17336, 36.84068], [-122.17737, 36.84283], [-122.1815, 36.84478], [-122.18573, 36.84652], [-122.19003, 36.84802], [-122.19442, 36.8493], [-122.19888, 36.85034], [-122.20344, 36.85137], [-122.20807, 36.85237], [-122.21278, 36.85337], [-122.21757, 36.85435], [-122.22243, 36.85531], [-122.22732, 36.85626], [-122.23223, 36.85719], [-122.23714, 36.85808], [-122.24206, 36.85895], [-122.24697, 36.85979], [-122.25189, 36.8606], [-122.25679, 36.86137], [-122.26168, 36.86212], [-122.26654, 36.86282], [-122.27132, 36.86346], [-122.27604, 36.86405], [-122.28069, 36.86457], [-122.28526, 36.86504], [-122.28976, 36.86545], [-122.29418, 36.8658], [-122.29852, 36.8661], [-122.30278, 36.86634], [-122.30695, 36.86655], [-122.31103, 36.86675], [-122.31502, 36.86691], [-122.31893, 36.86703], [-122.32277, 36.86712], [-122.32654, 36.86716], [-122.33025, 36.86715], [-122.33389, 36.8671], [-122.33748, 36.867], [-122.34101, 36.86684], [-122.34451, 36.86664], [-122.34798, 36.86642], [-122.35144, 36.86619], [-122.35488, 36.86592], [-122.35832, 36.86563], [-122.36175, 36.86531], [-122.36517, 36.86495], [-122.3686, 36.86455], [-122.37202, 36.86411], [-122.37546, 36.86363], [-122.3789, 36.86309], [-122.38235, 36.8625], [-122.38583, 36.86185], [-122.38936, 36.86112], [-122.39294, 36.86031], [-122.39656, 36.85943], [-122.40016, 36.8585], [-122.40371, 36.85753], [-122.4072, 36.85652], [-122.41063, 36.85547], [-122.41399, 36.85436], [-122.41727, 36.85319], [-122.42046, 36.85196], [-122.42352, 36.85067], [-122.42637, 36.8493], [-122.42898, 36.84786], [-122.43136, 36.84636], [-122.4335, 36.84481], [-122.43541, 36.84322], [-122.43708, 36.8416], [-122.43853, 36.83996], [-122.43975, 36.8383], [-122.44075, 36.83663], [-122.44153, 36.83497], [-122.44212, 36.83331], [-122.4425, 36.83167], [-122.4427, 36.83004], [-122.44273, 36.82844], [-122.44258, 36.82686]]}}, {"type": "Feature", "properties": {"hours": 47.5}, "geometry": {"type": "LineString", "coordinates": [[-121.98, 36.6], [-121.98193, 36.60074], [-121.98392, 36.60187], [-121.98595, 36.6034], [-121.988, 36.60533], [-121.99001, 36.60767], [-121.99194, 36.61043], [-121.99371, 36.6136], [-121.9953, 36.61681], [-121.99669, 36.62006], [-121.99784, 36.62334], [-121.99882, 36.62666], [-121.99959, 36.62999], [-122.00014, 36.63332], [-122.00045, 36.63663], [-122.00051, 36.63992], [-122.00029, 36.64315], [-121.99979, 36.64632], [-121.99897, 36.64942], [-121.99784, 36.65241], [-121.99669, 36.65524], [-121.99552, 36.6579], [-121.99432, 36.6604], [-121.99311, 36.66273], [-121.99191, 36.66491], [-121.99072, 36.66696], [-121.98953, 36.66886], [-121.98834, 36.67061], [-121.98714, 36.67223], [-121.98592, 36.6737], [-121.98467, 36.67502], [-121.98339, 36.6762], [-121.98207, 36.67723], [-121.9807, 36.6781], [-121.97927, 36.67881], [-121.9778, 36.67936], [-121.9763, 36.67977], [-121.97477, 36.68004], [-121.9732, 36.68015], [-121.97159, 36.6801], [-121.96993, 36.6799], [-121.96822, 36.67953], [-121.96644, 36.67899], [-121.96461, 36.67828], [-121.9628, 36.67747], [-121.96101, 36.67657], [-121.95923, 36.67558], [-121.95748, 36.6745], [-121.95574, 36.67334], [-121.95402, 36.67209], [-121.95232, 36.67076], [-121.95063, 36.66935], [-121.94896, 36.66787], [-121.9473, 36.66631], [-121.94564, 36.66469], [-121.94399, 36.66301], [-121.94235, 36.66127], [-121.94071, 36.65947], [-121.93907, 36.65764], [-121.93746, 36.65587], [-121.93587, 36.65419], [-121.93429, 36.65261], [-121.93272, 36.65111], [-121.93116, 36.64969], [-121.9296, 36.64835], [-121.92803, 36.64708], [-121.92646, 36.64587], [-121.92487, 36.64473], [-121.92336, 36.64362], [-121.92193, 36.64252], [-121.92057, 36.64145], [-121.91928, 36.6404], [-121.91805, 36.63937], [-121.91689, 36.63836], [-121.91578, 36.63736], [-121.91474, 36.63638], [-121.91375, 36.63541], [-121.91281, 36.63446], [-121.91193, 36.63353], [-121.91109, 36.63261], [-121.91031, 36.6317], [-121.90958, 36.63081], [-121.9089, 36.62993], [-121.90826, 36.62906], [-121.90768, 36.62821], [-121.90714, 36.62737], [-121.90665, 36.62654], [-121.9062, 36.62573], [-121.90581, 36.62492], [-121.90546, 36.62413], [-121.90516, 36.62335], [-121.90491, 36.62259], [-121.90468, 36.62184], [-121.90447, 36.62112], [-121.90428, 36.62043], [-121.90411, 36.61975]]}}, {"type": "Feature", "properties": {"hours": 0.0}, "geometry": {"type": "LineString", "coordinates": [[-121.9, 36.6]]}}, {"type": "Feature", "properties": {"hours": 69.0}, "geometry": {"type": "LineString", "coordinates": [[-122.3, 36.68], [-122.30451, 36.68287], [-122.30842, 36.68598], [-122.31174, 36.68931], [-122.3145, 36.69289], [-122.31673, 36.69673], [-122.31843, 36.70085], [-122.31963, 36.70527], [-122.32085, 36.70925], [-122.32205, 36.7128], [-122.32321, 36.71591], [-122.32431, 36.71859], [-122.32533, 36.72082], [-122.32624, 36.72262], [-122.32705, 36.72397], [-122.32772, 36.72487], [-122.32825, 36.72533], [-122.32864, 36.72532], [-122.32888, 36.72485], [-122.32896, 36.72391], [-122.32906, 36.723], [-122.32918, 36.72212], [-122.32931, 36.72127], [-122.32946, 36.72046], [-122.32961, 36.71967], [-122.32977, 36.71891], [-122.32993, 36.71818], [-122.33009, 36.71749], [-122.33024, 36.71682], [-122.33039, 36.71617], [-122.33053, 36.71556], [-122.33065, 36.71498], [-122.33077, 36.71443], [-122.33087, 36.71391], [-122.33095, 36.71343], [-122.33102, 36.71297], [-122.33106, 36.71256], [-122.3311, 36.71217], [-122.33111, 36.71183], [-122.33111, 36.71152], [-122.33109, 36.71126], [-122.33106, 36.71103], [-122.33101, 36.71085], [-122.33096, 36.71072], [-122.33094, 36.71047], [-122.33094, 36.71009], [-122.33096, 36.70959], [-122.331, 36.70895], [-122.33103, 36.70817], [-122.33106, 36.70724], [-122.33108, 36.70618], [-122.33108, 36.70496], [-122.33105, 36.7036], [-122.33098, 36.7021], [-122.33088, 36.70044], [-122.33074, 36.69864], [-122.33055, 36.6967], [-122.33033, 36.69462], [-122.33007, 36.69239], [-122.32975, 36.69004], [-122.32939, 36.68755], [-122.32897, 36.68492], [-122.32849, 36.68217], [-122.32794, 36.6793], [-122.32734, 36.6763], [-122.32667, 36.6732], [-122.32594, 36.66999], [-122.32514, 36.66668], [-122.32423, 36.66331], [-122.32323, 36.65988], [-122.32213, 36.65639], [-122.32101, 36.65279], [-122.31986, 36.64909], [-122.31869, 36.64528], [-122.31749, 36.64136], [-122.31627, 36.63732], [-122.31503, 36.63317], [-122.31377, 36.6289], [-122.3125, 36.62451], [-122.3112, 36.61999], [-122.30989, 36.61536], [-122.30866, 36.61071], [-122.3075, 36.60606], [-122.30642, 36.60141], [-122.30542, 36.59675], [-122.30449, 36.59209], [-122.30363, 36.58742], [-122.30285, 36.58274], [-122.30215, 36.57806], [-122.30152, 36.57336], [-122.30098, 36.56865], [-122.30052, 36.56394], [-122.30015, 36.55924], [-122.29984, 36.55454], [-122.29961, 36.54983], [-122.29946, 36.54512], [-122.29938, 36.54039], [-122.29938, 36.53565], [-122.29944, 36.53103], [-122.29957, 36.52652], [-122.29977, 36.52213], [-122.30005, 36.51784], [-122.30039, 36.51364], [-122.30081, 36.50954], [-122.30131, 36.50553], [-122.30189, 36.50161], [-122.30254, 36.49776], [-122.30326, 36.49401], [-122.30401, 36.49036], [-122.3048, 36.48682], [-122.30565, 36.48337], [-122.30654, 36.48], [-122.30747, 36.47671], [-122.30846, 36.4735], [-122.3095, 36.47036], [-122.3106, 36.46727], [-122.31162, 36.46442], [-122.31254, 36.46178], [-122.31338, 36.45935], [-122.31411, 36.45712], [-122.31472, 36.45501], [-122.3152, 36.45305], [-122.31555, 36.45123], [-122.31578, 36.44955], [-122.31588, 36.44803], [-122.31586, 36.44667], [-122.31571, 36.44546], [-122.31543, 36.44441], [-122.31502, 36.44352], [-122.31448, 36.4428], [-122.31382, 36.44225], [-122.31302, 36.44186], [-122.3121, 36.44165], [-122.31104, 36.44161], [-122.30985, 36.44174], [-122.30853, 36.44205], [-122.30709, 36.44253], [-122.30552, 36.44319], [-122.30382, 36.44403]]}}, {"type": "Feature", "properties": {"hours": 69.0}, "geometry": {"type": "LineString", "coordinates": [[-122.22, 36.68], [-122.22587, 36.68388], [-122.23128, 36.68819], [-122.23621, 36.69294], [-122.24069, 36.69813], [-122.24472, 36.70377], [-122.24831, 36.70983], [-122.25144, 36.7163], [-122.25431, 36.72226], [-122.25695, 36.72772], [-122.25935, 36.73268], [-122.26151, 36.73717], [-122.2634, 36.74121], [-122.26501, 36.7448], [-122.26629, 36.74796], [-122.26726, 36.75072], [-122.26792, 36.75307], [-122.26827, 36.75503], [-122.26831, 36.75661], [-122.26805, 36.75782], [-122.26794, 36.7591], [-122.26799, 36.76046], [-122.2682, 36.7619], [-122.26859, 36.76341], [-122.26916, 36.76499], [-122.26991, 36.76664], [-122.27084, 36.76837], [-122.27197, 36.77016], [-122.2733, 36.77201], [-122.27483, 36.77393], [-122.27657, 36.77591], [-122.27852, 36.77796], [-122.28068, 36.78006], [-122.28306, 36.78221], [-122.28562, 36.7844], [-122.28836, 36.78663], [-122.29128, 36.7889], [-122.29438, 36.7912], [-122.29765, 36.79354], [-122.3011, 36.79591], [-122.30472, 36.79832], [-122.30853, 36.80078], [-122.31253, 36.80331], [-122.31672, 36.80591], [-122.32091, 36.80832], [-122.32511, 36.81055], [-122.32932, 36.81259], [-122.33353, 36.81444], [-122.33774, 36.81611], [-122.34196, 36.81758], [-122.34616, 36.81885], [-122.35034, 36.81988], [-122.3545, 36.82068], [-122.35863, 36.82124], [-122.36271, 36.82155], [-122.36676, 36.82161], [-122.37077, 36.82141], [-122.37474, 36.82095], [-122.37865, 36.82022], [-122.38252, 36.81922], [-122.3863, 36.8179], [-122.38996, 36.81624], [-122.39349, 36.81424], [-122.39689, 36.8119], [-122.40015, 36.80922], [-122.40326, 36.8062], [-122.40623, 36.80285], [-122.40903, 36.79916], [-122.41163, 36.79541], [-122.41405, 36.7916], [-122.41629, 36.78773], [-122.41834, 36.78379], [-122.42022, 36.7798], [-122.42194, 36.77574], [-122.42347, 36.77167], [-122.42483, 36.76757], [-122.426, 36.76344], [-122.42701, 36.75927], [-122.42784, 36.75505], [-122.42851, 36.75078], [-122.42902, 36.74645], [-122.42937, 36.74204], [-122.42956, 36.73756], [-122.42963, 36.733], [-122.42961, 36.72838], [-122.4295, 36.72369], [-122.42931, 36.71893], [-122.42904, 36.71409], [-122.42871, 36.70917], [-122.42831, 36.70416], [-122.42786, 36.69905], [-122.42735, 36.69385], [-122.42678, 36.68861], [-122.42615, 36.68332], [-122.42545, 36.67798], [-122.42468, 36.67257], [-122.42384, 36.66709], [-122.42293, 36.66153], [-122.42193, 36.65588], [-122.42094, 36.65017], [-122.41997, 36.6444], [-122.41902, 36.63856], [-122.41809, 36.63268], [-122.41717, 36.62675], [-122.41627, 36.62075], [-122.41538, 36.61469], [-122.41455, 36.60861], [-122.41378, 36.60251], [-122.41306, 36.5964], [-122.4124, 36.59026], [-122.41179, 36.58409], [-122.41122, 36.57788], [-122.41072, 36.57164], [-122.41034, 36.56539], [-122.41008, 36.55911], [-122.40994, 36.55282], [-122.40985, 36.54671], [-122.40979, 36.5408], [-122.40977, 36.53507], [-122.40982, 36.5296], [-122.40992, 36.52439], [-122.41009, 36.51944], [-122.4103, 36.51474], [-122.41056, 36.51029], [-122.41085, 36.50609], [-122.41117, 36.50212], [-122.41151, 36.49839], [-122.41186, 36.49488], [-122.41219, 36.49157], [-122.4125, 36.48847], [-122.41279, 36.48556], [-122.41304, 36.48284], [-122.41326, 36.48032], [-122.41344, 36.47797], [-122.41358, 36.4758], [-122.41368, 36.47381], [-122.41373, 36.472], [-122.41372, 36.47035], [-122.41367, 36.46888]]}}, {"type": "Feature", "properties": {"hours": 69.0}, "geometry": {"type": "LineString", "coordinates": [[-122.14, 36.68], [-122.14443, 36.68466], [-122.14846, 36.68972], [-122.15207, 36.69518], [-122.15524, 36.70108], [-122.15796, 36.7074], [-122.16024, 36.7141], [-122.16204, 36.72118], [-122.16361, 36.72788], [-122.16497, 36.7342], [-122.16612, 36.74014], [-122.16706, 36.7457], [-122.16784, 36.75082], [-122.16846, 36.75552], [-122.16891, 36.75981], [-122.1692, 36.7637], [-122.16932, 36.76721], [-122.16926, 36.77033], [-122.16905, 36.77308], [-122.16866, 36.77547], [-122.16848, 36.77789], [-122.16852, 36.78033], [-122.16877, 36.78281], [-122.16927, 36.78535], [-122.16999, 36.78794], [-122.17095, 36.79058], [-122.17214, 36.79328], [-122.17355, 36.79605], [-122.17519, 36.79887], [-122.17705, 36.80176], [-122.17912, 36.80472], [-122.18141, 36.80774], [-122.18392, 36.81084], [-122.18662, 36.81401], [-122.18953, 36.81725], [-122.19263, 36.82057], [-122.19593, 36.82397], [-122.19943, 36.82747], [-122.2031, 36.83108], [-122.20695, 36.83478], [-122.21094, 36.83858], [-122.21507, 36.84249], [-122.21932, 36.84649], [-122.22369, 36.85058], [-122.22805, 36.8545], [-122.23242, 36.85823], [-122.23681, 36.86178], [-122.24124, 36.86511], [-122.24574, 36.86821], [-122.25031, 36.8711], [-122.25496, 36.87376], [-122.25967, 36.87622], [-122.26446, 36.87847], [-122.26932, 36.88054], [-122.27425, 36.88244], [-122.27925, 36.88416], [-122.28431, 36.88571], [-122.28944, 36.88709], [-122.29464, 36.88829], [-122.29991, 36.88932], [-122.30523, 36.89016], [-122.31056, 36.8908], [-122.31588, 36.89121], [-122.32116, 36.89137], [-122.32641, 36.89127], [-122.3316, 36.89089], [-122.33672, 36.8902], [-122.34176, 36.88919], [-122.34669, 36.88812], [-122.35155, 36.88702], [-122.35633, 36.88592], [-122.36102, 36.88479], [-122.36564, 36.88364], [-122.37017, 36.88248], [-122.37461, 36.8813], [-122.37895, 36.88011], [-122.3832, 36.8789], [-122.38738, 36.87766], [-122.39147, 36.87639], [-122.3955, 36.87508], [-122.39945, 36.87376], [-122.40332, 36.87242], [-122.40713, 36.87107], [-122.41086, 36.86972], [-122.41452, 36.86838], [-122.41811, 36.86706], [-122.42163, 36.86575], [-122.42505, 36.86445], [-122.42835, 36.86311], [-122.43151, 36.86174], [-122.43454, 36.86034], [-122.43745, 36.85893], [-122.44031, 36.85738], [-122.44313, 36.85571], [-122.4459, 36.85391], [-122.44862, 36.85198], [-122.45129, 36.84992], [-122.45391, 36.84775], [-122.45647, 36.84544], [-122.45897, 36.84302], [-122.46141, 36.84048], [-122.46377, 36.83785], [-122.466, 36.83513], [-122.46811, 36.83234], [-122.4701, 36.82948], [-122.47195, 36.82654], [-122.47366, 36.82354], [-122.47523, 36.82047], [-122.47666, 36.81734], [-122.47797, 36.81414], [-122.47917, 36.81086], [-122.48027, 36.8075], [-122.48126, 36.80409], [-122.48217, 36.80061], [-122.48298, 36.79707], [-122.48371, 36.79347], [-122.48417, 36.78992], [-122.48439, 36.78641], [-122.48437, 36.78294], [-122.48413, 36.77952], [-122.48367, 36.77613], [-122.48299, 36.77281], [-122.48209, 36.76955], [-122.48099, 36.76635], [-122.4797, 36.76319], [-122.47824, 36.76009], [-122.4766, 36.75703], [-122.4748, 36.754], [-122.47285, 36.751], [-122.47076, 36.74803], [-122.46852, 36.74507], [-122.46615, 36.74212], [-122.46364, 36.73917], [-122.46102, 36.73621], [-122.45832, 36.73325], [-122.4556, 36.7303], [-122.45288, 36.72737], [-122.45018, 36.72447], [-122.4475, 36.72159]]}}, {"type": "Feature", "properties": {"hours": 69.0}, "geometry": {"type": "LineString", "coordinates": [[-122.06, 36.68], [-122.0639, 36.68414], [-122.06741, 36.6887], [-122.0705, 36.69369], [-122.07315, 36.6991], [-122.07534, 36.70494], [-122.07711, 36.71113], [-122.07842, 36.71765], [-122.07947, 36.72392], [-122.08025, 36.72991], [-122.08079, 36.73558], [-122.08109, 36.7409], [-122.08119, 36.74584], [-122.08117, 36.75041], [-122.08102, 36.75461], [-122.0807, 36.75844], [-122.08019, 36.76191], [-122.07948, 36.76504], [-122.07854, 36.7678], [-122.07736, 36.77022], [-122.07634, 36.77264], [-122.07548, 36.77507], [-122.07479, 36.77749], [-122.07426, 36.77993], [-122.0739, 36.78238], [-122.07376, 36.78487], [-122.07385, 36.78743], [-122.07415, 36.79003], [-122.07466, 36.79269], [-122.07537, 36.79541], [-122.07627, 36.79817], [-122.07736, 36.801], [-122.07863, 36.80388], [-122.08008, 36.80682], [-122.08169, 36.80982], [-122.08347, 36.81289], [-122.08541, 36.81602], [-122.0875, 36.81922], [-122.08974, 36.82249], [-122.09211, 36.82584], [-122.09462, 36.82929], [-122.09726, 36.83284], [-122.10001, 36.83649], [-122.10287, 36.84025], [-122.10567, 36.844], [-122.10843, 36.84773], [-122.11117, 36.85142], [-122.1139, 36.85506], [-122.11663, 36.85867], [-122.11938, 36.86221], [-122.12212, 36.86568], [-122.12485, 36.86904], [-122.12758, 36.87231], [-122.13032, 36.87549], [-122.13311, 36.87857], [-122.13595, 36.88156], [-122.13885, 36.88446], [-122.14184, 36.88728], [-122.1449, 36.88998], [-122.14805, 36.89256], [-122.15128, 36.89501], [-122.15463, 36.89733], [-122.15811, 36.89954], [-122.16172, 36.90163], [-122.16547, 36.9036], [-122.16934, 36.90547], [-122.17336, 36.90724], [-122.17752, 36.90891], [-122.1818, 36.91062], [-122.18616, 36.91235], [-122.19059, 36.91408], [-122.19511, 36.9158], [-122.19973, 36.91752], [-122.20446, 36.91925], [-122.20932, 36.921], [-122.21434, 36.92277], [-122.21953, 36.92458], [-122.22493, 36.92645], [-122.2304, 36.92832], [-122.23595, 36.9302], [-122.24157, 36.93209], [-122.24727, 36.934], [-122.25306, 36.93592], [-122.25894, 36.93787], [-122.26494, 36.93985], [-122.27102, 36.94182], [-122.27712, 36.9437], [-122.28324, 36.94549], [-122.28938, 36.94719], [-122.29554, 36.9488], [-122.30172, 36.95033], [-122.30789, 36.95178], [-122.31398, 36.95321], [-122.31999, 36.95463], [-122.32595, 36.95605], [-122.33188, 36.95746], [-122.33779, 36.95889], [-122.3437, 36.96033], [-122.34955, 36.96174], [-122.35531, 36.96311], [-122.361, 36.96443], [-122.36663, 36.96571], [-122.37219, 36.96695], [-122.3777, 36.96816], [-122.38316, 36.96933], [-122.38859, 36.97046], [-122.394, 36.97155], [-122.39938, 36.9726], [-122.40473, 36.97363], [-122.41006, 36.97463], [-122.41535, 36.9756], [-122.42062, 36.97655], [-122.42586, 36.97748], [-122.43108, 36.97835], [-122.4363, 36.97918], [-122.44151, 36.97996], [-122.4466, 36.98075], [-122.45155, 36.98152], [-122.45635, 36.98229], [-122.46102, 36.98304], [-122.46553, 36.98378], [-122.46983, 36.98443], [-122.47394, 36.98502], [-122.47785, 36.98553], [-122.48155, 36.98599], [-122.48506, 36.98638], [-122.48836, 36.98671], [-122.49147, 36.98699], [-122.49437, 36.98721], [-122.49708, 36.98739], [-122.49958, 36.98753], [-122.50189, 36.98762], [-122.50399, 36.98772], [-122.50588, 36.98784], [-122.50757, 36.98799], [-122.50906, 36.98816], [-122.51035, 36.98837], [-122.51146, 36.98861], [-122.51239, 36.98889]]}}, {"type": "Feature", "properties": {"hours": 69.0}, "geometry": {"type": "LineString", "coordinates": [[-121.98, 36.68], [-121.98385, 36.68118], [-121.98754, 36.68275], [-121.99106, 36.68473], [-121.99437, 36.68715], [-121.99746, 36.69001], [-122.00028, 36.69332], [-122.0028, 36.69709], [-122.00495, 36.70096], [-122.00675, 36.70489], [-122.00825, 36.70875], [-122.00946, 36.7125], [-122.01042, 36.71609], [-122.01113, 36.71949], [-122.01161, 36.72264], [-122.01188, 36.72553], [-122.01195, 36.72812], [-122.01182, 36.7304], [-122.01152, 36.73235], [-122.01103, 36.73396], [-122.01058, 36.73549], [-122.01016, 36.73697], [-122.00975, 36.73838], [-122.00937, 36.73974], [-122.00901, 36.74106], [-122.00866, 36.74237], [-122.00832, 36.74368], [-122.008, 36.74499], [-122.00769, 36.7463], [-122.00739, 36.74761], [-122.0071, 36.74893], [-122.00683, 36.75025], [-122.00657, 36.75158], [-122.00633, 36.75292], [-122.0061, 36.75426], [-122.00589, 36.75561], [-122.00569, 36.75697], [-122.00552, 36.75835], [-122.00537, 36.75973], [-122.00524, 36.76113], [-122.00513, 36.76255], [-122.00506, 36.76399], [-122.00501, 36.76544], [-122.005, 36.76692], [-122.00493, 36.76837], [-122.0048, 36.76979], [-122.0046, 36.77118], [-122.00433, 36.77254], [-122.00398, 36.77386], [-122.00354, 36.77513], [-122.00302, 36.77635], [-122.0024, 36.77753], [-122.00168, 36.77864], [-122.00086, 36.7797], [-121.99993, 36.78068], [-121.99887, 36.78159], [-121.9977, 36.78241], [-121.9964, 36.78313], [-121.99497, 36.78376], [-121.99343, 36.78429], [-121.99176, 36.78471], [-121.98997, 36.78502], [-121.98805, 36.78522], [-121.98601, 36.78529], [-121.98385, 36.78524], [-121.98156, 36.78506], [-121.97914, 36.78474], [-121.97662, 36.78428], [-121.97422, 36.78364], [-121.97193, 36.78285], [-121.96975, 36.78191], [-121.96768, 36.78081], [-121.96571, 36.77958], [-121.96386, 36.7782], [-121.96212, 36.7767], [-121.9605, 36.77508], [-121.95899, 36.77334], [-121.9576, 36.7715], [-121.95632, 36.76957], [-121.95516, 36.76753], [-121.95411, 36.76542], [-121.95319, 36.76322], [-121.95238, 36.76095], [-121.9517, 36.75861], [-121.95115, 36.75621], [-121.95074, 36.75375], [-121.95046, 36.75124], [-121.95032, 36.74869], [-121.95033, 36.74609], [-121.9505, 36.74346], [-121.95083, 36.74079], [-121.95134, 36.73809], [-121.95191, 36.73548], [-121.95256, 36.73295], [-121.95328, 36.7305], [-121.95406, 36.72814], [-121.95492, 36.72587], [-121.95584, 36.72368], [-121.95684, 36.72158], [-121.9579, 36.71957], [-121.95903, 36.71765], [-121.96024, 36.71582], [-121.96151, 36.71408], [-121.96286, 36.71243], [-121.96428, 36.71087], [-121.96578, 36.7094], [-121.96736, 36.70803], [-121.96902, 36.70675], [-121.97077, 36.70556], [-121.9726, 36.70446], [-121.97452, 36.70346], [-121.97653, 36.70255], [-121.97865, 36.70173], [-121.98086, 36.70102], [-121.98317, 36.70041], [-121.98554, 36.69996], [-121.98789, 36.69965], [-121.99021, 36.69948], [-121.99249, 36.69943], [-121.99472, 36.69951], [-121.9969, 36.6997], [-121.99903, 36.70001], [-122.00109, 36.70044], [-122.0031, 36.70096], [-122.00503, 36.70158], [-122.00689, 36.70229], [-122.00867, 36.70308], [-122.01038, 36.70395], [-122.012, 36.7049], [-122.01355, 36.7059], [-122.01502, 36.70697], [-122.01642, 36.7081], [-122.01773, 36.70927], [-122.01896, 36.7105], [-122.02013, 36.71176], [-122.02121, 36.71307], [-122.02222, 36.7144], [-122.02315, 36.71576], [-122.02401, 36.71713]]}}, {"type": "Feature", "properties": {"hours": 31.5}, "geometry": {"type": "LineString", "coordinates": [[-121.9, 36.68], [-121.90173, 36.68024], [-121.90355, 36.68056], [-121.90547, 36.68099], [-121.90749, 36.68153], [-121.9096, 36.68218], [-121.91181, 36.68297], [-121.91411, 36.6839], [-121.91643, 36.68479], [-121.91875, 36.68564], [-121.92106, 36.68643], [-121.92334, 36.68718], [-121.92555, 36.68786], [-121.92769, 36.68849], [-121.92974, 36.68905], [-121.93167, 36.68953], [-121.93348, 36.68993], [-121.93515, 36.69024], [-121.93667, 36.69046], [-121.93803, 36.69058], [-121.93923, 36.69062], [-121.94027, 36.69057], [-121.94115, 36.69045], [-121.94187, 36.69025], [-121.94244, 36.68999], [-121.94286, 36.68964], [-121.94314, 36.68921], [-121.94328, 36.68869], [-121.9433, 36.68807], [-121.94318, 36.68736], [-121.94295, 36.68653], [-121.94259, 36.6856], [-121.94212, 36.68455], [-121.94153, 36.68338], [-121.94083, 36.68207], [-121.94002, 36.68063], [-121.9391, 36.67904], [-121.93807, 36.67734], [-121.93695, 36.67553], [-121.93572, 36.67361], [-121.9344, 36.6716], [-121.93298, 36.66949], [-121.93146, 36.66728], [-121.92984, 36.665], [-121.92823, 36.66276], [-121.92662, 36.66058], [-121.92501, 36.65846], [-121.92342, 36.65642], [-121.92187, 36.65448], [-121.92034, 36.65262], [-121.91883, 36.65085], [-121.91732, 36.64914], [-121.91582, 36.64751], [-121.91432, 36.64595], [-121.91282, 36.64445], [-121.9113, 36.643], [-121.90977, 36.64161], [-121.90822, 36.64027], [-121.90665, 36.63898], [-121.90506, 36.63774], [-121.90344, 36.63655], [-121.90179, 36.63539], [-121.9001, 36.63428], [-121.89838, 36.6332]]}}, {"type": "Feature", "properties": {"hours": 69.0}, "geometry": {"type": "LineString", "coordinates": [[-122.3, 36.76], [-122.30632, 36.76259], [-122.31211, 36.76557], [-122.31736, 36.76889], [-122.32206, 36.77253], [-122.32622, 36.77649], [-122.32983, 36.78077], [-122.3329, 36.78536], [-122.33572, 36.7895], [-122.3383, 36.79323], [-122.34066, 36.79657], [-122.34281, 36.79956], [-122.34474, 36.80222], [-122.34646, 36.80456], [-122.34798, 36.80658], [-122.34931, 36.8083], [-122.35045, 36.80972], [-122.35141, 36.81085], [-122.35218, 36.8117], [-122.35277, 36.81225], [-122.35351, 36.81289], [-122.3544, 36.81361], [-122.35545, 36.81441], [-122.35665, 36.81528], [-122.35801, 36.81624], [-122.35952, 36.81728], [-122.3612, 36.8184], [-122.36305, 36.8196], [-122.36506, 36.82089], [-122.36724, 36.82226], [-122.36958, 36.82369], [-122.37209, 36.82519], [-122.37476, 36.82676], [-122.37759, 36.82841], [-122.38059, 36.83014], [-122.38374, 36.83195], [-122.38701, 36.8338], [-122.39041, 36.83569], [-122.39393, 36.83764], [-122.39757, 36.83963], [-122.40134, 36.84167], [-122.40523, 36.84376], [-122.40926, 36.84591], [-122.41341, 36.84811], [-122.41756, 36.85005], [-122.42169, 36.85173], [-122.42578, 36.85311], [-122.42979, 36.85419], [-122.4337, 36.85495], [-122.43752, 36.85538], [-122.44123, 36.85549], [-122.44483, 36.85526], [-122.44832, 36.8547], [-122.45169, 36.8538], [-122.45494, 36.85258], [-122.45807, 36.85102], [-122.46107, 36.84914], [-122.46394, 36.84696], [-122.46668, 36.84452], [-122.46927, 36.84181], [-122.4717, 36.83886], [-122.47396, 36.83565], [-122.47604, 36.8322], [-122.47793, 36.82852], [-122.47962, 36.82461], [-122.48111, 36.82049], [-122.48238, 36.81615], [-122.48346, 36.81162], [-122.48433, 36.80713], [-122.48501, 36.80269], [-122.48551, 36.79827], [-122.48584, 36.79389], [-122.48602, 36.78954], [-122.48605, 36.78521], [-122.48593, 36.78089], [-122.48569, 36.77659], [-122.48527, 36.77229], [-122.48467, 36.76798], [-122.4839, 36.76367], [-122.48296, 36.75935], [-122.48188, 36.75501], [-122.48066, 36.75065], [-122.47931, 36.74627], [-122.47783, 36.74185], [-122.47624, 36.73738], [-122.4746, 36.73287], [-122.47296, 36.72832], [-122.47131, 36.72374], [-122.46966, 36.7191], [-122.46801, 36.71442], [-122.46635, 36.70967], [-122.46469, 36.70487], [-122.46304, 36.69997], [-122.46137, 36.69497], [-122.45974, 36.68996], [-122.45813, 36.68492], [-122.45655, 36.67988], [-122.455, 36.67481], [-122.45345, 36.6697], [-122.45192, 36.66454], [-122.45038, 36.65933], [-122.44884, 36.65404], [-122.44739, 36.6487], [-122.44601, 36.64329], [-122.4447, 36.63781], [-122.44345, 36.63227], [-122.44226, 36.62664], [-122.44113, 36.62094], [-122.44005, 36.61514], [-122.43904, 36.60931], [-122.43812, 36.60345], [-122.43727, 36.59755], [-122.43649, 36.5916], [-122.43578, 36.58562], [-122.43513, 36.5796], [-122.43454, 36.57353], [-122.43403, 36.56764], [-122.43357, 36.56193], [-122.43318, 36.55639], [-122.43284, 36.55104], [-122.43255, 36.54588], [-122.43232, 36.54089], [-122.43213, 36.53609], [-122.432, 36.53151], [-122.43191, 36.52715], [-122.43186, 36.52301], [-122.43185, 36.51908], [-122.43187, 36.51537], [-122.43192, 36.51187], [-122.43198, 36.50858], [-122.43205, 36.5055], [-122.43214, 36.50262], [-122.43223, 36.49993], [-122.43232, 36.49744], [-122.43239, 36.49514], [-122.43243, 36.49301], [-122.43243, 36.49107], [-122.4324, 36.48931], [-122.43233, 36.48771]]}}, {"type": "Feature", "properties": {"hours": 69.0}, "geometry": {"type": "LineString", "coordinates": [[-122.22, 36.76], [-122.22562, 36.76382], [-122.2308, 36.76797], [-122.23556, 36.77246], [-122.23989, 36.77729], [-122.2438, 36.78245], [-122.24729, 36.78793], [-122.25037, 36.79371], [-122.25318, 36.79907], [-122.25571, 36.80402], [-122.25796, 36.80858], [-122.25995, 36.81276], [-122.26167, 36.81658], [-122.26314, 36.82004], [-122.26435, 36.82316], [-122.26538, 36.82595], [-122.26622, 36.82844], [-122.26689, 36.83063], [-122.26739, 36.83252], [-122.26772, 36.83411], [-122.26828, 36.83578], [-122.26904, 36.83752], [-122.27002, 36.83934], [-122.27121, 36.84123], [-122.2726, 36.84319], [-122.27418, 36.84523], [-122.27596, 36.84735], [-122.27792, 36.84953], [-122.28007, 36.85179], [-122.28239, 36.85413], [-122.28488, 36.85653], [-122.28755, 36.85901], [-122.29038, 36.86156], [-122.29341, 36.86418], [-122.29666, 36.86686], [-122.30012, 36.8696], [-122.30381, 36.87241], [-122.30772, 36.87532], [-122.31186, 36.87832], [-122.3162, 36.88144], [-122.32075, 36.88468], [-122.3255, 36.88806], [-122.33044, 36.8916], [-122.33557, 36.8953], [-122.34078, 36.89891], [-122.34605, 36.90241], [-122.35136, 36.90576], [-122.35672, 36.90896], [-122.36212, 36.91201], [-122.36756, 36.9149], [-122.37305, 36.91764], [-122.37856, 36.92022], [-122.3841, 36.92262], [-122.38964, 36.92478], [-122.39516, 36.92668], [-122.40067, 36.92831], [-122.40616, 36.92966], [-122.41164, 36.93073], [-122.41711, 36.93151], [-122.42256, 36.932], [-122.42797, 36.93213], [-122.43329, 36.93185], [-122.43853, 36.93114], [-122.44369, 36.92998], [-122.44875, 36.92839], [-122.45372, 36.92633], [-122.4586, 36.92382], [-122.46337, 36.92084], [-122.46793, 36.91772], [-122.47227, 36.9145], [-122.47637, 36.91119], [-122.48025, 36.90779], [-122.48391, 36.90432], [-122.48735, 36.90079], [-122.49057, 36.8972], [-122.49356, 36.89358], [-122.49632, 36.88996], [-122.49889, 36.88633], [-122.50126, 36.88271], [-122.50344, 36.87913], [-122.50541, 36.87561], [-122.50719, 36.87214], [-122.50876, 36.86873], [-122.51014, 36.86538], [-122.51133, 36.86208], [-122.51235, 36.85883], [-122.51317, 36.85564], [-122.51377, 36.85249], [-122.51416, 36.84939], [-122.51436, 36.84633], [-122.51437, 36.84332], [-122.51422, 36.84035], [-122.51398, 36.83735], [-122.51367, 36.83431], [-122.51328, 36.83125], [-122.51281, 36.82815], [-122.51227, 36.82503], [-122.51165, 36.82187], [-122.51097, 36.81869], [-122.51024, 36.81547], [-122.50953, 36.81222], [-122.50882, 36.80894], [-122.50812, 36.80562], [-122.50742, 36.80226], [-122.50673, 36.79886], [-122.50604, 36.79543], [-122.50535, 36.79195], [-122.50466, 36.78844], [-122.50397, 36.7849], [-122.50328, 36.78131], [-122.50259, 36.77768], [-122.50187, 36.77403], [-122.5011, 36.77036], [-122.50028, 36.76667], [-122.49941, 36.76296], [-122.4985, 36.75923], [-122.49738, 36.75559], [-122.49607, 36.75202], [-122.49457, 36.74853], [-122.4929, 36.7451], [-122.49108, 36.74173], [-122.4891, 36.73842], [-122.48701, 36.73514], [-122.48485, 36.73188], [-122.48261, 36.72864], [-122.48031, 36.72542], [-122.47793, 36.72221], [-122.47548, 36.71902], [-122.47296, 36.71584], [-122.47037, 36.71267], [-122.4677, 36.70952], [-122.46496, 36.70637], [-122.46214, 36.70324], [-122.45925, 36.70012], [-122.45631, 36.69701], [-122.45342, 36.69397], [-122.45058, 36.69098], [-122.44777, 36.68806], [-122.44499, 36.6852]]}}, {"type": "Feature", "properties": {"hours": 69.0}, "geometry": {"type": "LineString", "coordinates": [[-122.14, 36.76], [-122.14424, 36.764], [-122.14808, 36.76835], [-122.15151, 36.77304], [-122.15454, 36.77804], [-122.15715, 36.78335], [-122.15942, 36.78888], [-122.16146, 36.7946], [-122.16349, 36.79987], [-122.16546, 36.80473], [-122.16737, 36.80922], [-122.16917, 36.81336], [-122.17085, 36.81717], [-122.1724, 36.82065], [-122.17382, 36.82384], [-122.17517, 36.82674], [-122.17645, 36.82939], [-122.17767, 36.83178], [-122.17883, 36.83392], [-122.17993, 36.83582], [-122.18126, 36.83781], [-122.18281, 36.83991], [-122.18457, 36.84211], [-122.18654, 36.84442], [-122.1887, 36.84683], [-122.19104, 36.84934], [-122.19357, 36.85196], [-122.19626, 36.85468], [-122.19911, 36.8575], [-122.2021, 36.86043], [-122.20524, 36.86345], [-122.2085, 36.86655], [-122.21191, 36.86971], [-122.21544, 36.87293], [-122.21911, 36.87622], [-122.22291, 36.87955], [-122.22682, 36.88292], [-122.23083, 36.88632], [-122.23494, 36.88975], [-122.23915, 36.89319], [-122.24345, 36.89664], [-122.24785, 36.90009], [-122.25234, 36.90353], [-122.25689, 36.90697], [-122.26151, 36.91024], [-122.26621, 36.91336], [-122.27101, 36.91639], [-122.27592, 36.91934], [-122.28096, 36.9222], [-122.28614, 36.92499], [-122.29146, 36.9277], [-122.29694, 36.93036], [-122.30259, 36.93294], [-122.30841, 36.93548], [-122.31435, 36.93796], [-122.32042, 36.94038], [-122.3266, 36.94273], [-122.33286, 36.94498], [-122.33919, 36.94711], [-122.34561, 36.9491], [-122.35202, 36.95091], [-122.35843, 36.95252], [-122.36482, 36.95391], [-122.37119, 36.95508], [-122.37753, 36.95601], [-122.38383, 36.95669], [-122.3901, 36.9571], [-122.39634, 36.95724], [-122.40247, 36.95732], [-122.40849, 36.95733], [-122.41441, 36.95728], [-122.42022, 36.95716], [-122.42593, 36.95699], [-122.4315, 36.95664], [-122.43693, 36.95613], [-122.44223, 36.95545], [-122.4474, 36.95461], [-122.45243, 36.9536], [-122.45734, 36.95243], [-122.46211, 36.95111], [-122.46673, 36.94963], [-122.47117, 36.94801], [-122.47543, 36.94626], [-122.4795, 36.94439], [-122.48339, 36.94241], [-122.4871, 36.94031], [-122.49062, 36.93812], [-122.49398, 36.93588], [-122.49718, 36.93361], [-122.50021, 36.93131], [-122.50308, 36.929], [-122.50577, 36.92673], [-122.50834, 36.92443], [-122.51078, 36.92208], [-122.5131, 36.9197], [-122.51529, 36.91729], [-122.51735, 36.91483], [-122.51929, 36.91233], [-122.5211, 36.90979], [-122.52279, 36.90721], [-122.52435, 36.90458], [-122.5258, 36.90192], [-122.52713, 36.89921], [-122.52834, 36.89647], [-122.52945, 36.8937], [-122.53047, 36.89091], [-122.53139, 36.88809], [-122.53221, 36.88525], [-122.53295, 36.88239], [-122.5336, 36.8795], [-122.53416, 36.8766], [-122.53465, 36.87368], [-122.53506, 36.87074], [-122.53539, 36.86778], [-122.53566, 36.86481], [-122.53586, 36.86181], [-122.53579, 36.85891], [-122.53548, 36.85612], [-122.53494, 36.85344], [-122.53418, 36.85089], [-122.53322, 36.84846], [-122.53208, 36.84613], [-122.53077, 36.84391], [-122.5293, 36.8418], [-122.52767, 36.83978], [-122.5259, 36.83785], [-122.52399, 36.836], [-122.52194, 36.83423], [-122.51976, 36.83254], [-122.51745, 36.83091], [-122.51502, 36.82934], [-122.51246, 36.82782], [-122.50977, 36.82635], [-122.50695, 36.82491], [-122.50401, 36.82352], [-122.50094, 36.82215], [-122.49773, 36.8208], [-122.49445, 36.81949], [-122.49116, 36.81822]]}}, {"type": "Feature", "properties": {"hours": 69.0}, "geometry": {"type": "LineString", "coordinates": [[-122.06, 36.76], [-122.06431, 36.76375], [-122.06823, 36.76781], [-122.07176, 36.77219], [-122.07494, 36.7769], [-122.0778, 36.78195], [-122.0804, 36.78728], [-122.08287, 36.79276], [-122.08533, 36.79773], [-122.08774, 36.80227], [-122.09009, 36.80644], [-122.09236, 36.8103], [-122.09453, 36.8139], [-122.09659, 36.8173], [-122.09853, 36.82052], [-122.10031, 36.8236], [-122.10194, 36.82656], [-122.10342, 36.8294], [-122.10478, 36.83214], [-122.10604, 36.83478], [-122.10752, 36.83746], [-122.10921, 36.84017], [-122.11108, 36.84293], [-122.11314, 36.84572], [-122.11537, 36.84858], [-122.11776, 36.85149], [-122.12031, 36.85446], [-122.123, 36.85751], [-122.12584, 36.86064], [-122.12878, 36.86384], [-122.13175, 36.86709], [-122.13474, 36.87039], [-122.13777, 36.87375], [-122.14086, 36.87717], [-122.14401, 36.88067], [-122.14717, 36.88421], [-122.15036, 36.88781], [-122.15358, 36.89146], [-122.15682, 36.89517], [-122.16009, 36.89894], [-122.16339, 36.90276], [-122.16668, 36.90663], [-122.16994, 36.91055], [-122.1732, 36.91455], [-122.17649, 36.91844], [-122.17983, 36.92226], [-122.18323, 36.92602], [-122.18668, 36.92966], [-122.19018, 36.93316], [-122.19376, 36.93654], [-122.19743, 36.9398], [-122.20122, 36.94294], [-122.20503, 36.94593], [-122.20887, 36.94877], [-122.21273, 36.95147], [-122.21661, 36.95404], [-122.22054, 36.9565], [-122.2245, 36.95884], [-122.2285, 36.96111], [-122.23257, 36.96331], [-122.23674, 36.96544], [-122.24104, 36.96751], [-122.2455, 36.96952], [-122.25016, 36.97149], [-122.25506, 36.97342], [-122.26024, 36.97532], [-122.26574, 36.97719], [-122.27146, 36.97897], [-122.27727, 36.98068], [-122.28314, 36.98228], [-122.289, 36.98375], [-122.29486, 36.98509], [-122.30072, 36.98631], [-122.30659, 36.98741], [-122.31244, 36.98844], [-122.31829, 36.98944], [-122.32415, 36.9904], [-122.33004, 36.99135], [-122.33597, 36.99229], [-122.34196, 36.99325], [-122.34797, 36.99422], [-122.35393, 36.9952], [-122.35985, 36.99621], [-122.36575, 36.99725], [-122.37164, 36.99834], [-122.37754, 36.99951], [-122.38347, 37.00077], [-122.38938, 37.00206], [-122.39523, 37.00334], [-122.40101, 37.00462], [-122.40675, 37.0059], [-122.41245, 37.00719], [-122.41809, 37.00849], [-122.42369, 37.00978], [-122.42925, 37.01106], [-122.43478, 37.0123], [-122.44027, 37.01353], [-122.44573, 37.01475], [-122.45117, 37.01597], [-122.4566, 37.01721], [-122.46202, 37.01848], [-122.46742, 37.01975], [-122.47277, 37.02096], [-122.47806, 37.02211], [-122.4833, 37.0232], [-122.4885, 37.02425], [-122.49365, 37.02528], [-122.49878, 37.02628], [-122.50388, 37.02728], [-122.50893, 37.02826], [-122.51392, 37.02921], [-122.51888, 37.03013], [-122.52379, 37.03102], [-122.52867, 37.03189], [-122.53353, 37.03273], [-122.53838, 37.03356], [-122.54305, 37.03438], [-122.54754, 37.03521], [-122.55184, 37.03607], [-122.55597, 37.03695], [-122.55992, 37.03786], [-122.56368, 37.0388], [-122.56726, 37.03978], [-122.57066, 37.04081], [-122.57389, 37.04189], [-122.57693, 37.04302], [-122.5798, 37.04421], [-122.5825, 37.04547], [-122.58501, 37.04683], [-122.58736, 37.04829], [-122.58955, 37.04986], [-122.59158, 37.05156], [-122.59348, 37.05338], [-122.59524, 37.05534], [-122.59688, 37.05745], [-122.59841, 37.0597], [-122.59984, 37.06212], [-122.60117, 37.06469], [-122.60241, 37.0674]]}}, {"type": "Feature", "properties": {"hours": 69.0}, "geometry": {"type": "LineString", "coordinates": [[-121.98, 36.76], [-121.98319, 36.76138], [-121.98633, 36.76313], [-121.98939, 36.76526], [-121.99235, 36.76774], [-121.99518, 36.77058], [-121.99789, 36.77377], [-122.00046, 36.77732], [-122.00282, 36.78066], [-122.00498, 36.78381], [-122.00688, 36.7867], [-122.00855, 36.78934], [-122.01, 36.79174], [-122.01125, 36.79392], [-122.01229, 36.79589], [-122.01316, 36.79766], [-122.01384, 36.79925], [-122.01435, 36.80067], [-122.01469, 36.80193], [-122.01487, 36.80303], [-122.01507, 36.80415], [-122.0153, 36.80529], [-122.01554, 36.80645], [-122.0158, 36.80762], [-122.01608, 36.8088], [-122.01637, 36.81], [-122.01667, 36.81122], [-122.01697, 36.81245], [-122.01728, 36.8137], [-122.01759, 36.81496], [-122.01789, 36.81624], [-122.01819, 36.81753], [-122.01847, 36.81883], [-122.01874, 36.82014], [-122.01899, 36.82147], [-122.01918, 36.82282], [-122.01934, 36.8242], [-122.01944, 36.8256], [-122.01949, 36.82703], [-122.01949, 36.82848], [-122.01944, 36.82996], [-122.01934, 36.83147], [-122.01918, 36.83301], [-122.01896, 36.83458], [-122.01865, 36.83609], [-122.01825, 36.83753], [-122.01777, 36.83891], [-122.01721, 36.84022], [-122.01658, 36.84146], [-122.01588, 36.84262], [-122.01512, 36.84371], [-122.0143, 36.84472], [-122.01342, 36.84565], [-122.0125, 36.8465], [-122.01152, 36.84726], [-122.0105, 36.84794], [-122.00944, 36.84854], [-122.00835, 36.84904], [-122.00721, 36.84947], [-122.00605, 36.84981], [-122.00485, 36.85006], [-122.00361, 36.85022], [-122.00235, 36.85031], [-122.00106, 36.8503], [-121.99974, 36.85022], [-121.99839, 36.85005], [-121.99701, 36.8498], [-121.9956, 36.84947], [-121.99417, 36.84909], [-121.99272, 36.84864], [-121.99124, 36.84813], [-121.98975, 36.84756], [-121.98823, 36.84693], [-121.98669, 36.84623], [-121.98513, 36.84547], [-121.98355, 36.84465], [-121.98196, 36.84377], [-121.98035, 36.84282], [-121.97873, 36.84181], [-121.9771, 36.84073], [-121.97548, 36.83957], [-121.97386, 36.83833], [-121.97226, 36.83701], [-121.97068, 36.83561], [-121.96912, 36.83413], [-121.96759, 36.83255], [-121.96609, 36.83089], [-121.96464, 36.82913], [-121.96323, 36.82728], [-121.96187, 36.82534], [-121.96057, 36.82329], [-121.95933, 36.82115], [-121.95814, 36.819], [-121.957, 36.81683], [-121.95591, 36.81464], [-121.95486, 36.81245], [-121.95386, 36.81026], [-121.95291, 36.80805], [-121.95201, 36.80585], [-121.95116, 36.80364], [-121.95036, 36.80144], [-121.9496, 36.79924], [-121.94889, 36.79706], [-121.94823, 36.79488], [-121.94761, 36.79271], [-121.94703, 36.79056], [-121.9465, 36.78842], [-121.94601, 36.7863], [-121.94556, 36.78421], [-121.94515, 36.78213], [-121.94477, 36.78009], [-121.94443, 36.77806], [-121.94414, 36.7761], [-121.94389, 36.77419], [-121.94369, 36.77233], [-121.94353, 36.77054], [-121.9434, 36.76875], [-121.94331, 36.76696], [-121.94325, 36.76518], [-121.94322, 36.7634], [-121.94321, 36.76165], [-121.94324, 36.75991], [-121.9433, 36.75819], [-121.94338, 36.7565], [-121.94348, 36.75484], [-121.9436, 36.75321], [-121.94375, 36.75162], [-121.94391, 36.75007], [-121.94409, 36.74856], [-121.94429, 36.7471], [-121.9445, 36.74568], [-121.94472, 36.74431], [-121.94495, 36.74299], [-121.94518, 36.74173], [-121.94542, 36.74052], [-121.94567, 36.73936], [-121.94591, 36.73825], [-121.94616, 36.73717], [-121.9464, 36.73612]]}}, {"type": "Feature", "properties": {"hours": 41.5}, "geometry": {"type": "LineString", "coordinates": [[-121.9, 36.76], [-121.90145, 36.75882], [-121.90299, 36.75798], [-121.90462, 36.75749], [-121.90632, 36.75734], [-121.9081, 36.75753], [-121.90994, 36.75804], [-121.91184, 36.75888], [-121.91364, 36.75964], [-121.91532, 36.76031], [-121.91689, 36.76088], [-121.91833, 36.76136], [-121.91965, 36.76174], [-121.92084, 36.762], [-121.9219, 36.76216], [-121.92283, 36.76221], [-121.92362, 36.76215], [-121.92428, 36.76196], [-121.92481, 36.76166], [-121.92519, 36.76124], [-121.92553, 36.76079], [-121.9258, 36.76031], [-121.92602, 36.75981], [-121.92618, 36.75928], [-121.92628, 36.75871], [-121.92632, 36.75812], [-121.9263, 36.75749], [-121.92622, 36.75683], [-121.92607, 36.75613], [-121.92586, 36.75539], [-121.92558, 36.75461], [-121.92524, 36.75378], [-121.92483, 36.75291], [-121.92436, 36.75198], [-121.92382, 36.751], [-121.92321, 36.74996], [-121.92254, 36.74886], [-121.9218, 36.74769], [-121.92099, 36.74646], [-121.92012, 36.74515], [-121.91918, 36.74375], [-121.91818, 36.74228], [-121.91712, 36.74071], [-121.916, 36.73904], [-121.91488, 36.73729], [-121.91379, 36.73543], [-121.91271, 36.73346], [-121.91166, 36.7314], [-121.91063, 36.72925], [-121.90964, 36.72701], [-121.90869, 36.7247], [-121.90778, 36.7223], [-121.90691, 36.71985], [-121.90608, 36.71733], [-121.9053, 36.71475], [-121.90456, 36.71213], [-121.90388, 36.70947], [-121.90324, 36.70677], [-121.90265, 36.70404], [-121.90211, 36.70129], [-121.90161, 36.69852], [-121.9011, 36.69581], [-121.90052, 36.6932], [-121.89987, 36.69069], [-121.89916, 36.68829], [-121.89839, 36.68602], [-121.89757, 36.68387], [-121.89669, 36.68185], [-121.89583, 36.67991], [-121.895, 36.67807], [-121.89418, 36.6763], [-121.89339, 36.67462], [-121.89261, 36.67301], [-121.89185, 36.67147], [-121.89111, 36.67001], [-121.8904, 36.6686], [-121.8897, 36.66726], [-121.88902, 36.66597], [-121.88835, 36.66474], [-121.88771, 36.66356], [-121.88708, 36.66244], [-121.88647, 36.66136], [-121.88587, 36.66032], [-121.88529, 36.65933]]}}, {"type": "Feature", "properties": {"hours": 69.0}, "geometry": {"type": "LineString", "coordinates": [[-122.3, 36.839999999999996], [-122.30547, 36.84296], [-122.31048, 36.84615], [-122.31503, 36.84955], [-122.31911, 36.85314], [-122.32271, 36.85689], [-122.32582, 36.86078], [-122.32846, 36.86479], [-122.33098, 36.86852], [-122.3334, 36.87199], [-122.33575, 36.87522], [-122.33804, 36.8782], [-122.34028, 36.88095], [-122.34248, 36.88348], [-122.34465, 36.8858], [-122.34679, 36.88792], [-122.34891, 36.88985], [-122.35103, 36.89157], [-122.35314, 36.89311], [-122.35525, 36.89446], [-122.35752, 36.89591], [-122.35995, 36.89746], [-122.36256, 36.89912], [-122.36533, 36.90089], [-122.36828, 36.90277], [-122.37142, 36.90477], [-122.37473, 36.90689], [-122.37822, 36.90912], [-122.38188, 36.91148], [-122.38568, 36.91394], [-122.38962, 36.91649], [-122.39367, 36.91911], [-122.39783, 36.92183], [-122.40208, 36.92462], [-122.40642, 36.92751], [-122.41083, 36.93049], [-122.41529, 36.93356], [-122.4198, 36.93673], [-122.42434, 36.94], [-122.42886, 36.94331], [-122.43338, 36.94666], [-122.43789, 36.95005], [-122.44241, 36.95349], [-122.44692, 36.95697], [-122.4514, 36.96019], [-122.45588, 36.96317], [-122.46033, 36.9659], [-122.46478, 36.96838], [-122.46921, 36.97061], [-122.47361, 36.97258], [-122.47799, 36.97427], [-122.48234, 36.97569], [-122.48666, 36.97681], [-122.49095, 36.97763], [-122.4952, 36.97813], [-122.49941, 36.9783], [-122.50357, 36.97812], [-122.5077, 36.97767], [-122.51177, 36.97694], [-122.5158, 36.97594], [-122.51976, 36.97464], [-122.52365, 36.97304], [-122.52746, 36.97114], [-122.53118, 36.96893], [-122.53481, 36.96639], [-122.53833, 36.96352], [-122.54173, 36.9603], [-122.54502, 36.95673], [-122.54813, 36.9531], [-122.55105, 36.94941], [-122.55378, 36.94567], [-122.55631, 36.9419], [-122.55863, 36.93811], [-122.56073, 36.93434], [-122.56259, 36.93062], [-122.56419, 36.92696], [-122.56556, 36.92337], [-122.56667, 36.91983], [-122.56756, 36.91636], [-122.5682, 36.91295], [-122.56862, 36.9096], [-122.56882, 36.90631], [-122.56881, 36.90307], [-122.56859, 36.89989], [-122.56817, 36.89675], [-122.56762, 36.89368], [-122.56694, 36.89067], [-122.56614, 36.88771], [-122.56522, 36.8848], [-122.56419, 36.88195], [-122.56306, 36.87914], [-122.56183, 36.87638], [-122.56061, 36.87361], [-122.55941, 36.87083], [-122.55822, 36.86803], [-122.55704, 36.86522], [-122.55586, 36.8624], [-122.55468, 36.85956], [-122.5535, 36.8567], [-122.55231, 36.85385], [-122.55111, 36.85101], [-122.5499, 36.84817], [-122.54867, 36.84534], [-122.54743, 36.8425], [-122.54618, 36.83967], [-122.5449, 36.83683], [-122.5436, 36.834], [-122.54228, 36.83116], [-122.54094, 36.82832], [-122.53957, 36.82547], [-122.53819, 36.82262], [-122.53682, 36.81978], [-122.53546, 36.81695], [-122.53417, 36.81409], [-122.53294, 36.81122], [-122.53176, 36.80832], [-122.53046, 36.80551], [-122.52903, 36.80278], [-122.52749, 36.80012], [-122.52583, 36.79753], [-122.52406, 36.79501], [-122.52219, 36.79255], [-122.5202, 36.79014], [-122.51812, 36.78778], [-122.51593, 36.78547], [-122.51364, 36.7832], [-122.51125, 36.78095], [-122.50876, 36.77874], [-122.50616, 36.77657], [-122.50344, 36.77443], [-122.5006, 36.77232], [-122.49764, 36.77024], [-122.4946, 36.76819], [-122.49151, 36.76618], [-122.48837, 36.76418], [-122.48517, 36.7622], [-122.48191, 36.76021], [-122.4786, 36.75823], [-122.47524, 36.75623]]}}, {"type": "Feature", "properties": {"hours": 69.0}, "geometry": {"type": "LineString", "coordinates": [[-122.22, 36.839999999999996], [-122.22513, 36.84416], [-122.22991, 36.84845], [-122.23433, 36.8529], [-122.23837, 36.8575], [-122.24201, 36.86224], [-122.24527, 36.86712], [-122.24813, 36.87212], [-122.25094, 36.87682], [-122.25371, 36.88126], [-122.25647, 36.88544], [-122.25922, 36.88937], [-122.26197, 36.89307], [-122.26478, 36.89653], [-122.26766, 36.89974], [-122.27065, 36.90272], [-122.27374, 36.90548], [-122.27696, 36.90805], [-122.28031, 36.91043], [-122.2838, 36.91265], [-122.28746, 36.91495], [-122.29129, 36.91732], [-122.29529, 36.91977], [-122.29945, 36.9223], [-122.30379, 36.9249], [-122.30824, 36.92756], [-122.31279, 36.93029], [-122.31747, 36.93309], [-122.32226, 36.93598], [-122.32719, 36.93895], [-122.33225, 36.94204], [-122.33741, 36.94525], [-122.34265, 36.94859], [-122.34794, 36.95205], [-122.35326, 36.95564], [-122.35861, 36.95935], [-122.364, 36.9632], [-122.36943, 36.96722], [-122.3749, 36.9714], [-122.38042, 36.97578], [-122.38599, 36.98035], [-122.39152, 36.98504], [-122.39694, 36.98977], [-122.40224, 36.99452], [-122.40747, 36.99903], [-122.41262, 37.00334], [-122.41772, 37.00743], [-122.42275, 37.01133], [-122.42773, 37.01502], [-122.43267, 37.01848], [-122.43758, 37.02173], [-122.44245, 37.02476], [-122.44728, 37.02757], [-122.45209, 37.03018], [-122.45687, 37.0326], [-122.46165, 37.03485], [-122.46641, 37.0369], [-122.47116, 37.03877], [-122.4759, 37.04044], [-122.48064, 37.04193], [-122.48538, 37.04325], [-122.49014, 37.04441], [-122.49492, 37.0454], [-122.49973, 37.04623], [-122.50456, 37.04691], [-122.50939, 37.04741], [-122.51422, 37.04772], [-122.51903, 37.04785], [-122.52381, 37.04796], [-122.52856, 37.04805], [-122.53327, 37.04814], [-122.53794, 37.04823], [-122.54257, 37.04831], [-122.54714, 37.04837], [-122.55165, 37.04842], [-122.55609, 37.04846], [-122.56046, 37.04847], [-122.56475, 37.04847], [-122.56897, 37.04845], [-122.57311, 37.04842], [-122.57718, 37.04838], [-122.58116, 37.04833], [-122.58506, 37.04827], [-122.58885, 37.04823], [-122.59254, 37.0482], [-122.59613, 37.04819], [-122.59961, 37.04821], [-122.60298, 37.04826], [-122.60624, 37.04834], [-122.60939, 37.04847], [-122.61243, 37.04865], [-122.61536, 37.04889], [-122.61828, 37.04912], [-122.62118, 37.04933], [-122.62408, 37.04954], [-122.62701, 37.04972], [-122.62997, 37.04988], [-122.63295, 37.05002], [-122.63597, 37.05014], [-122.63901, 37.05024], [-122.64209, 37.05031], [-122.6452, 37.05036], [-122.64835, 37.05039], [-122.65154, 37.05039], [-122.65476, 37.05037], [-122.65803, 37.05032], [-122.66134, 37.05026], [-122.66472, 37.05018], [-122.66817, 37.05011], [-122.67171, 37.05006], [-122.67534, 37.05002], [-122.67906, 37.05], [-122.68288, 37.04999], [-122.6868, 37.05001], [-122.69082, 37.05005], [-122.69495, 37.05011], [-122.69892, 37.05028], [-122.70274, 37.05055], [-122.70642, 37.05092], [-122.70998, 37.05139], [-122.71342, 37.05197], [-122.71674, 37.05265], [-122.71994, 37.05343], [-122.72302, 37.05432], [-122.726, 37.05532], [-122.72886, 37.05642], [-122.73162, 37.05764], [-122.73429, 37.05896], [-122.73685, 37.0604], [-122.73932, 37.06195], [-122.74169, 37.06363], [-122.74393, 37.06542], [-122.74607, 37.06733], [-122.74809, 37.06935], [-122.75001, 37.07149], [-122.75182, 37.07375], [-122.75354, 37.07614], [-122.75516, 37.07866], [-122.75669, 37.08132]]}}, {"type": "Feature", "properties": {"hours": 69.0}, "geometry": {"type": "LineString", "coordinates": [[-122.14, 36.839999999999996], [-122.14379, 36.84254], [-122.14762, 36.84535], [-122.15146, 36.8484], [-122.1553, 36.85166], [-122.15913, 36.85511], [-122.16293, 36.85872], [-122.16669, 36.86245], [-122.17031, 36.86604], [-122.1738, 36.86947], [-122.17719, 36.87276], [-122.18054, 36.87591], [-122.18389, 36.87892], [-122.18724, 36.88179], [-122.19062, 36.88454], [-122.19404, 36.88716], [-122.19752, 36.88966], [-122.20108, 36.89204], [-122.20471, 36.8943], [-122.20843, 36.89644], [-122.21223, 36.89867], [-122.2161, 36.90099], [-122.22002, 36.90339], [-122.22396, 36.90588], [-122.2279, 36.90844], [-122.23186, 36.91105], [-122.23583, 36.91373], [-122.23984, 36.91646], [-122.2439, 36.91923], [-122.24802, 36.92206], [-122.2522, 36.92492], [-122.25645, 36.92781], [-122.26077, 36.93073], [-122.26518, 36.93368], [-122.26969, 36.93668], [-122.27431, 36.93974], [-122.27904, 36.94284], [-122.28377, 36.94602], [-122.28852, 36.94928], [-122.29326, 36.95262], [-122.29802, 36.95604], [-122.30277, 36.95954], [-122.30755, 36.96316], [-122.31236, 36.96691], [-122.31731, 36.97066], [-122.32243, 36.97442], [-122.32772, 36.97818], [-122.33321, 36.98193], [-122.33881, 36.98563], [-122.34442, 36.98921], [-122.34996, 36.99267], [-122.35543, 36.99598], [-122.36086, 36.99917], [-122.36629, 37.00222], [-122.37175, 37.00516], [-122.37727, 37.00798], [-122.38288, 37.01071], [-122.38851, 37.01329], [-122.39407, 37.01569], [-122.39957, 37.01791], [-122.40501, 37.01997], [-122.41038, 37.02187], [-122.41566, 37.02357], [-122.42086, 37.02508], [-122.42603, 37.02642], [-122.43118, 37.02754], [-122.43635, 37.02845], [-122.44152, 37.02915], [-122.4467, 37.02983], [-122.45189, 37.03048], [-122.45709, 37.0311], [-122.4623, 37.03172], [-122.46749, 37.03232], [-122.47266, 37.03286], [-122.47779, 37.03335], [-122.48289, 37.03381], [-122.48796, 37.03425], [-122.49299, 37.03466], [-122.498, 37.03506], [-122.50297, 37.03546], [-122.50789, 37.03585], [-122.51274, 37.03624], [-122.51752, 37.03662], [-122.52223, 37.037], [-122.52688, 37.0374], [-122.53145, 37.0378], [-122.53597, 37.03821], [-122.54041, 37.03864], [-122.5448, 37.0391], [-122.54911, 37.03958], [-122.55334, 37.04008], [-122.55749, 37.0406], [-122.56161, 37.04111], [-122.56568, 37.04159], [-122.56972, 37.04205], [-122.57373, 37.04249], [-122.5777, 37.04289], [-122.58165, 37.04326], [-122.58556, 37.04361], [-122.58941, 37.04393], [-122.59322, 37.04424], [-122.59698, 37.04453], [-122.60071, 37.04481], [-122.6044, 37.04506], [-122.60807, 37.04529], [-122.61171, 37.04551], [-122.61534, 37.0457], [-122.61895, 37.04587], [-122.62255, 37.04601], [-122.62617, 37.04613], [-122.62984, 37.04625], [-122.63354, 37.04634], [-122.6373, 37.04643], [-122.6411, 37.0465], [-122.64495, 37.04656], [-122.64886, 37.04661], [-122.65258, 37.04673], [-122.65612, 37.04693], [-122.65946, 37.04721], [-122.66262, 37.04758], [-122.66562, 37.04805], [-122.66847, 37.04863], [-122.67116, 37.04932], [-122.67369, 37.05012], [-122.67608, 37.05103], [-122.67832, 37.05205], [-122.68042, 37.05317], [-122.68237, 37.05441], [-122.68418, 37.05577], [-122.68585, 37.05723], [-122.68738, 37.05881], [-122.68878, 37.06051], [-122.69005, 37.06233], [-122.69118, 37.06428], [-122.69217, 37.06637], [-122.69303, 37.06859], [-122.69377, 37.07096], [-122.69438, 37.07347], [-122.69488, 37.07613]]}}, {"type": "Feature", "properties": {"hours": 69.0}, "geometry": {"type": "LineString", "coordinates": [[-122.06, 36.839999999999996], [-122.0633, 36.84094], [-122.06659, 36.8422], [-122.0699, 36.84376], [-122.07323, 36.84558], [-122.07664, 36.84765], [-122.08014, 36.84993], [-122.08378, 36.85241], [-122.08731, 36.85479], [-122.09078, 36.85709], [-122.09421, 36.85935], [-122.09764, 36.86159], [-122.10099, 36.86381], [-122.10421, 36.86602], [-122.10729, 36.86821], [-122.11024, 36.8704], [-122.11308, 36.87257], [-122.11585, 36.87474], [-122.11856, 36.8769], [-122.12125, 36.87906], [-122.12397, 36.88126], [-122.12674, 36.88352], [-122.12957, 36.88584], [-122.13248, 36.88823], [-122.13547, 36.89069], [-122.13856, 36.89323], [-122.14177, 36.89586], [-122.14506, 36.89856], [-122.14839, 36.90133], [-122.15172, 36.90416], [-122.15499, 36.90704], [-122.15821, 36.90998], [-122.16139, 36.91298], [-122.16455, 36.91606], [-122.16768, 36.91922], [-122.17079, 36.92246], [-122.1739, 36.9258], [-122.17701, 36.92925], [-122.18011, 36.93281], [-122.18323, 36.93649], [-122.18634, 36.9402], [-122.18946, 36.94394], [-122.19252, 36.94765], [-122.19551, 36.95133], [-122.19846, 36.95484], [-122.20137, 36.9582], [-122.20422, 36.96141], [-122.20702, 36.96449], [-122.20977, 36.96744], [-122.21248, 36.97028], [-122.21513, 36.97301], [-122.21773, 36.97563], [-122.22029, 36.97816], [-122.22282, 36.9806], [-122.22538, 36.98297], [-122.22803, 36.98524], [-122.23076, 36.98742], [-122.23357, 36.98949], [-122.23646, 36.99147], [-122.23942, 36.99335], [-122.24245, 36.99513], [-122.24554, 36.9968], [-122.24869, 36.99836], [-122.25189, 36.9998], [-122.25514, 37.00113], [-122.25845, 37.00233], [-122.2618, 37.00341], [-122.26521, 37.00436], [-122.26859, 37.00518], [-122.27196, 37.0059], [-122.27533, 37.0065], [-122.2787, 37.00699], [-122.28208, 37.00738], [-122.2855, 37.00768], [-122.28894, 37.00788], [-122.29244, 37.00799], [-122.29598, 37.00801], [-122.2996, 37.00796], [-122.30329, 37.00782], [-122.30709, 37.00767], [-122.31102, 37.00752], [-122.31508, 37.00739], [-122.31928, 37.00727], [-122.32362, 37.00718], [-122.3281, 37.00714], [-122.33275, 37.00714], [-122.33756, 37.0072], [-122.34253, 37.00732], [-122.34763, 37.00753], [-122.35282, 37.00784], [-122.35809, 37.00826], [-122.36345, 37.00881], [-122.3689, 37.00951], [-122.37444, 37.01036], [-122.38008, 37.01136], [-122.38583, 37.01251], [-122.39153, 37.01366], [-122.39717, 37.01482], [-122.40277, 37.016], [-122.40832, 37.0172], [-122.41384, 37.01842], [-122.41933, 37.01968], [-122.4248, 37.02098], [-122.43022, 37.02227], [-122.43559, 37.02355], [-122.44092, 37.02483], [-122.44623, 37.02612], [-122.45151, 37.02742], [-122.45677, 37.02875], [-122.46202, 37.03011], [-122.46725, 37.03149], [-122.47244, 37.03285], [-122.4776, 37.03421], [-122.48275, 37.03559], [-122.48788, 37.03699], [-122.49301, 37.03844], [-122.49803, 37.03996], [-122.50294, 37.04156], [-122.50771, 37.04321], [-122.51235, 37.04488], [-122.51686, 37.0466], [-122.52124, 37.04837], [-122.5255, 37.05021], [-122.52965, 37.05212], [-122.5337, 37.05412], [-122.53766, 37.05622], [-122.54153, 37.05843], [-122.54531, 37.06076], [-122.54895, 37.06314], [-122.5524, 37.06555], [-122.55569, 37.06799], [-122.55883, 37.07048], [-122.56181, 37.07304], [-122.56467, 37.07567], [-122.5674, 37.07839], [-122.57002, 37.0812], [-122.57254, 37.08413], [-122.57499, 37.08719], [-122.57736, 37.09038]]}}, {"type": "Feature", "properties": {"hours": 69.0}, "geometry": {"type": "LineString", "coordinates": [[-121.98, 36.839999999999996], [-121.98058, 36.8388], [-121.98137, 36.83791], [-121.98237, 36.83731], [-121.98356, 36.837], [-121.98493, 36.83698], [-121.98647, 36.83723], [-121.98816, 36.83777], [-121.98966, 36.8383], [-121.99096, 36.83883], [-121.99208, 36.83936], [-121.993, 36.83988], [-121.99372, 36.8404], [-121.99426, 36.84091], [-121.99459, 36.84142], [-121.99472, 36.84192], [-121.99465, 36.84241], [-121.99436, 36.8429], [-121.99384, 36.84337], [-121.99308, 36.84383], [-121.99227, 36.84431], [-121.9914, 36.84479], [-121.99047, 36.84528], [-121.98947, 36.84578], [-121.98842, 36.84628], [-121.98729, 36.84678], [-121.98611, 36.84728], [-121.98486, 36.84778], [-121.98354, 36.84827], [-121.98216, 36.84875], [-121.98072, 36.84922], [-121.97921, 36.84968], [-121.97765, 36.85013], [-121.97604, 36.85056], [-121.97439, 36.85097], [-121.9727, 36.85137], [-121.97098, 36.85175], [-121.96923, 36.8521], [-121.96744, 36.85243], [-121.96563, 36.85274], [-121.9638, 36.85302], [-121.96194, 36.85327], [-121.96007, 36.85348], [-121.95819, 36.85367], [-121.95629, 36.85377], [-121.95436, 36.85379], [-121.9524, 36.85373], [-121.95043, 36.8536], [-121.94844, 36.85338], [-121.94643, 36.85309], [-121.94441, 36.85272], [-121.94237, 36.85226], [-121.94031, 36.85173], [-121.93823, 36.85111], [-121.93617, 36.85045], [-121.93414, 36.84973], [-121.93212, 36.84896], [-121.93013, 36.84815], [-121.92815, 36.84728], [-121.92619, 36.84637], [-121.92424, 36.8454], [-121.92231, 36.84438], [-121.92038, 36.8433], [-121.91848, 36.84217], [-121.91658, 36.84097], [-121.91471, 36.83972], [-121.91285, 36.8384], [-121.91101, 36.83701], [-121.90919, 36.83554], [-121.90741, 36.83398], [-121.90566, 36.83233], [-121.90394, 36.8306], [-121.90226, 36.82877], [-121.90061, 36.82685], [-121.89899, 36.82483], [-121.89739, 36.82273], [-121.89582, 36.82056], [-121.89426, 36.81832], [-121.89273, 36.81604], [-121.89125, 36.81373], [-121.8898, 36.81137], [-121.8884, 36.80898], [-121.88705, 36.80655], [-121.88573, 36.80409], [-121.88447, 36.80159], [-121.88325, 36.79905], [-121.88208, 36.79649], [-121.88095, 36.79389], [-121.87987, 36.79126], [-121.87884, 36.7886], [-121.87786, 36.78592], [-121.87692, 36.78321], [-121.87601, 36.78053], [-121.87512, 36.77788], [-121.87426, 36.77527], [-121.87342, 36.77272], [-121.87261, 36.77022], [-121.87182, 36.76777], [-121.87106, 36.76537], [-121.87032, 36.76302], [-121.86961, 36.76072], [-121.86891, 36.75847], [-121.86824, 36.75628], [-121.86759, 36.75413], [-121.86695, 36.75204], [-121.86634, 36.75], [-121.86574, 36.74802], [-121.86516, 36.74608], [-121.8646, 36.7442], [-121.86405, 36.74237], [-121.86351, 36.7406], [-121.86299, 36.73888], [-121.86249, 36.73724], [-121.86201, 36.73569], [-121.86156, 36.73423], [-121.86112, 36.73287], [-121.86069, 36.73151], [-121.86027, 36.73018], [-121.85985, 36.72885], [-121.85944, 36.72754], [-121.85904, 36.72624], [-121.85865, 36.72495], [-121.85827, 36.72367], [-121.85791, 36.7224], [-121.85755, 36.72114], [-121.85721, 36.71988], [-121.85687, 36.71863], [-121.85655, 36.71738], [-121.85625, 36.71613], [-121.85595, 36.71488], [-121.85567, 36.71363], [-121.8554, 36.71238], [-121.85514, 36.71112], [-121.8549, 36.70987], [-121.85467, 36.7086], [-121.85446, 36.70734], [-121.85426, 36.70606], [-121.85408, 36.70478], [-121.85392, 36.70349]]}}, {"type": "Feature", "properties": {"hours": 47.0}, "geometry": {"type": "LineString", "coordinates": [[-121.9, 36.839999999999996], [-121.90029, 36.83897], [-121.90073, 36.83817], [-121.9013, 36.83761], [-121.902, 36.83731], [-121.90284, 36.83728], [-121.90381, 36.83753], [-121.90493, 36.83806], [-121.90574, 36.83851], [-121.90625, 36.83889], [-121.90645, 36.83921], [-121.90634, 36.83947], [-121.90592, 36.83965], [-121.90517, 36.83978], [-121.90411, 36.83984], [-121.90272, 36.83984], [-121.90101, 36.83977], [-121.89897, 36.83963], [-121.89661, 36.83943], [-121.89394, 36.83915], [-121.8913, 36.83886], [-121.88869, 36.83855], [-121.88612, 36.83822], [-121.88358, 36.83788], [-121.88107, 36.83751], [-121.87861, 36.83712], [-121.87617, 36.83671], [-121.87378, 36.83628], [-121.87143, 36.83584], [-121.86911, 36.83537], [-121.86683, 36.83488], [-121.86459, 36.83437], [-121.86239, 36.83383], [-121.86023, 36.83328], [-121.85811, 36.8327], [-121.85607, 36.8321], [-121.8541, 36.83147], [-121.8522, 36.83082], [-121.85036, 36.83015], [-121.84859, 36.82945], [-121.84688, 36.82873], [-121.84523, 36.82798], [-121.84364, 36.8272], [-121.84209, 36.82639], [-121.84056, 36.82557], [-121.83904, 36.82472], [-121.83753, 36.82386], [-121.83603, 36.82298], [-121.83454, 36.8221], [-121.83305, 36.8212], [-121.83158, 36.82029], [-121.8301, 36.81938], [-121.82864, 36.81845], [-121.82719, 36.81751], [-121.82575, 36.81655], [-121.82432, 36.81559], [-121.8229, 36.81462], [-121.82149, 36.81365], [-121.82008, 36.81268], [-121.81867, 36.81171], [-121.81728, 36.81075], [-121.81591, 36.80981], [-121.81457, 36.80888], [-121.81324, 36.80797], [-121.81193, 36.80707], [-121.81064, 36.80619], [-121.80936, 36.80534], [-121.80811, 36.8045], [-121.80689, 36.80368], [-121.80568, 36.80286], [-121.8045, 36.80206], [-121.80334, 36.80127], [-121.8022, 36.80048], [-121.80107, 36.79971], [-121.79996, 36.79895], [-121.79886, 36.7982], [-121.79777, 36.79747], [-121.79669, 36.79674], [-121.79562, 36.79603], [-121.79456, 36.79534], [-121.79351, 36.79466], [-121.79246, 36.79399], [-121.79142, 36.79334], [-121.79038, 36.79271], [-121.78934, 36.79209], [-121.7883, 36.79149], [-121.78727, 36.79091], [-121.78623, 36.79035], [-121.7852, 36.7898], [-121.78416, 36.78928], [-121.78312, 36.78877], [-121.78208, 36.78829], [-121.78106, 36.78786], [-121.78008, 36.78747], [-121.77913, 36.78713]]}}, {"type": "Feature", "properties": {"hours": 69.0}, "geometry": {"type": "LineString", "coordinates": [[-122.3, 36.919999999999995], [-122.30661, 36.92348], [-122.31278, 36.92702], [-122.3185, 36.93066], [-122.32377, 36.9344], [-122.32859, 36.93827], [-122.33295, 36.9423], [-122.33681, 36.94643], [-122.34081, 36.95038], [-122.34496, 36.95414], [-122.34921, 36.95771], [-122.35356, 36.96111], [-122.35802, 36.96434], [-122.36258, 36.96743], [-122.36724, 36.97039], [-122.372, 36.9732], [-122.37686, 36.97588], [-122.38182, 36.97843], [-122.38688, 36.98083], [-122.39198, 36.98312], [-122.39702, 36.98554], [-122.40202, 36.98809], [-122.40698, 36.99076], [-122.41188, 36.99355], [-122.41675, 36.99646], [-122.42157, 36.99948], [-122.42634, 37.0026], [-122.43105, 37.00576], [-122.43569, 37.00897], [-122.44028, 37.01222], [-122.44482, 37.0155], [-122.44933, 37.01882], [-122.45381, 37.02217], [-122.45825, 37.02556], [-122.46263, 37.02899], [-122.46695, 37.03244], [-122.4712, 37.03592], [-122.47542, 37.03942], [-122.47961, 37.04294], [-122.48379, 37.04649], [-122.48798, 37.05007], [-122.49219, 37.05369], [-122.49645, 37.05735], [-122.50078, 37.06105], [-122.50514, 37.06465], [-122.50946, 37.0681], [-122.51374, 37.0714], [-122.51801, 37.07456], [-122.52228, 37.0776], [-122.52656, 37.08051], [-122.53085, 37.08331], [-122.53518, 37.086], [-122.53954, 37.08859], [-122.54395, 37.09109], [-122.54836, 37.09346], [-122.55275, 37.09571], [-122.55714, 37.09784], [-122.56151, 37.09985], [-122.56589, 37.10174], [-122.57021, 37.10349], [-122.57448, 37.10511], [-122.57872, 37.1066], [-122.58293, 37.10795], [-122.58708, 37.10915], [-122.59118, 37.1102], [-122.59522, 37.11108], [-122.5992, 37.11181], [-122.60312, 37.11237], [-122.60699, 37.11297], [-122.61079, 37.11361], [-122.61454, 37.11429], [-122.61824, 37.11503], [-122.62189, 37.11582], [-122.62551, 37.11664], [-122.62913, 37.11748], [-122.63275, 37.11835], [-122.63638, 37.11924], [-122.64001, 37.12016], [-122.64364, 37.12113], [-122.64728, 37.12214], [-122.65092, 37.1232], [-122.65456, 37.12432], [-122.65821, 37.12551], [-122.66187, 37.12677], [-122.66555, 37.1281], [-122.66924, 37.12951], [-122.67296, 37.13099], [-122.6767, 37.13255], [-122.68047, 37.1342], [-122.68427, 37.13595], [-122.6881, 37.1378], [-122.69196, 37.13977], [-122.69591, 37.14169], [-122.6999, 37.14356], [-122.70396, 37.1454], [-122.70812, 37.14721], [-122.71238, 37.14901], [-122.71675, 37.15077], [-122.72124, 37.15251], [-122.72586, 37.15421], [-122.73061, 37.15587], [-122.73549, 37.15749], [-122.74052, 37.15905], [-122.74571, 37.16055], [-122.75103, 37.16199], [-122.75649, 37.16336], [-122.76211, 37.16465], [-122.76792, 37.16586], [-122.77391, 37.16698], [-122.78012, 37.16801], [-122.78655, 37.16894], [-122.7932, 37.16976], [-122.80008, 37.17047], [-122.80719, 37.17107], [-122.81457, 37.17155], [-122.82223, 37.17193], [-122.82989, 37.17236], [-122.83745, 37.17284], [-122.8449, 37.17338], [-122.85222, 37.17396], [-122.8594, 37.17457], [-122.86643, 37.17521], [-122.87319, 37.17582], [-122.87968, 37.17639], [-122.88588, 37.17692], [-122.89178, 37.1774], [-122.89737, 37.17783], [-122.90266, 37.17822], [-122.90766, 37.17861], [-122.91239, 37.17902], [-122.91685, 37.17946], [-122.92103, 37.17993], [-122.92494, 37.18042], [-122.92858, 37.18095], [-122.93194, 37.18152], [-122.93502, 37.18212], [-122.93782, 37.18274], [-122.94034, 37.18341], [-122.94259, 37.18411]]}}, {"type": "Feature", "properties": {"hours": 69.0}, "geometry": {"type": "LineString", "coordinates": [[-122.22, 36.919999999999995], [-122.22505, 36.92312], [-122.22986, 36.92634], [-122.23442, 36.92965], [-122.23871, 36.93306], [-122.24273, 36.93657], [-122.24648, 36.94019], [-122.24996, 36.9439], [-122.25351, 36.94739], [-122.25715, 36.9507], [-122.2609, 36.95391], [-122.26477, 36.95704], [-122.26877, 36.9601], [-122.2729, 36.96312], [-122.27716, 36.96614], [-122.28155, 36.96919], [-122.28609, 36.97228], [-122.29077, 36.97547], [-122.2956, 36.97877], [-122.30058, 36.98221], [-122.30548, 36.98574], [-122.31024, 36.98925], [-122.31486, 36.99277], [-122.31937, 36.99631], [-122.32377, 36.99989], [-122.32809, 37.00353], [-122.33233, 37.00723], [-122.3365, 37.011], [-122.34061, 37.01485], [-122.34467, 37.01877], [-122.34864, 37.02272], [-122.3525, 37.02664], [-122.35623, 37.03051], [-122.35982, 37.03433], [-122.36324, 37.03811], [-122.3665, 37.04184], [-122.36957, 37.04553], [-122.37245, 37.04917], [-122.37512, 37.05275], [-122.37758, 37.05626], [-122.37982, 37.05969], [-122.38183, 37.06303], [-122.38365, 37.06624], [-122.3853, 37.06932], [-122.38684, 37.07216], [-122.38828, 37.07477], [-122.38965, 37.07716], [-122.39095, 37.07934], [-122.39219, 37.08132], [-122.39339, 37.08311], [-122.39455, 37.08472], [-122.3957, 37.08616], [-122.39683, 37.08743], [-122.39796, 37.08854], [-122.3991, 37.08949], [-122.40027, 37.0903], [-122.40147, 37.09096], [-122.40271, 37.09149], [-122.40401, 37.09189], [-122.40537, 37.09216], [-122.40681, 37.09232], [-122.40833, 37.09237], [-122.40995, 37.09231], [-122.41167, 37.09215], [-122.4135, 37.0919], [-122.41546, 37.09156], [-122.41755, 37.09113], [-122.41978, 37.09064], [-122.42214, 37.09019], [-122.42462, 37.08979], [-122.42722, 37.08944], [-122.42993, 37.08914], [-122.43277, 37.08891], [-122.43571, 37.08874], [-122.43878, 37.08863], [-122.44197, 37.0886], [-122.44527, 37.08865], [-122.44869, 37.08877], [-122.45223, 37.08899], [-122.45589, 37.0893], [-122.45968, 37.08971], [-122.46359, 37.09024], [-122.46754, 37.09084], [-122.47152, 37.09152], [-122.47552, 37.0923], [-122.47955, 37.09318], [-122.48359, 37.09416], [-122.48766, 37.09526], [-122.49174, 37.09647], [-122.49583, 37.09782], [-122.49993, 37.09931], [-122.50405, 37.10095], [-122.50814, 37.10265], [-122.51221, 37.1044], [-122.51625, 37.1062], [-122.52027, 37.10805], [-122.52428, 37.10995], [-122.5283, 37.11191], [-122.53231, 37.11394], [-122.53634, 37.11604], [-122.54039, 37.11822], [-122.54446, 37.12048], [-122.54848, 37.12274], [-122.55246, 37.12501], [-122.55642, 37.12731], [-122.56037, 37.12964], [-122.56431, 37.13202], [-122.56825, 37.13446], [-122.5722, 37.13697], [-122.57617, 37.13958], [-122.58017, 37.14229], [-122.58419, 37.14506], [-122.58812, 37.14777], [-122.59197, 37.15044], [-122.59574, 37.15305], [-122.59943, 37.15562], [-122.603, 37.15821], [-122.60644, 37.16083], [-122.60977, 37.16349], [-122.613, 37.16621], [-122.61612, 37.16901], [-122.61914, 37.17189], [-122.62206, 37.17488], [-122.6249, 37.17794], [-122.62766, 37.18107], [-122.63031, 37.18424], [-122.63286, 37.18742], [-122.63529, 37.19062], [-122.63762, 37.19384], [-122.63984, 37.19709], [-122.64196, 37.2004], [-122.64398, 37.20376], [-122.6459, 37.20718], [-122.64772, 37.21068], [-122.64945, 37.21426], [-122.65109, 37.21793], [-122.65263, 37.2217], [-122.65407, 37.22558], [-122.65539, 37.22957]]}}, {"type": "Feature", "properties": {"hours": 24.0}, "geometry": {"type": "LineString", "coordinates": [[-122.14, 36.919999999999995], [-122.14136, 36.92026], [-122.1429, 36.92067], [-122.14458, 36.92122], [-122.1464, 36.92192], [-122.14833, 36.92276], [-122.15035, 36.92373], [-122.15243, 36.92482], [-122.15455, 36.92599], [-122.15671, 36.92723], [-122.15891, 36.92855], [-122.16117, 36.92992], [-122.16349, 36.93137], [-122.16588, 36.93288], [-122.16834, 36.93447], [-122.17088, 36.93613], [-122.17352, 36.93787], [-122.17626, 36.9397], [-122.17912, 36.94164], [-122.1821, 36.94365], [-122.18507, 36.94576], [-122.18804, 36.94793], [-122.19101, 36.95018], [-122.19398, 36.95248], [-122.19693, 36.95484], [-122.19986, 36.95726], [-122.20276, 36.95973], [-122.20564, 36.96224], [-122.20847, 36.9648], [-122.21126, 36.9674], [-122.21398, 36.97004], [-122.21663, 36.97271], [-122.21919, 36.97541], [-122.22166, 36.97815], [-122.22404, 36.98092], [-122.22637, 36.98374], [-122.22866, 36.98659], [-122.2309, 36.98948], [-122.23308, 36.99239], [-122.23517, 36.99532], [-122.23717, 36.99826], [-122.23904, 37.00121], [-122.24079, 37.00417], [-122.2424, 37.00713], [-122.24395, 37.00998], [-122.24542, 37.01273], [-122.24682, 37.01536], [-122.24814, 37.01788], [-122.24936, 37.02027]]}}, {"type": "Feature", "properties": {"hours": 69.0}, "geometry": {"type": "LineString", "coordinates": [[-122.06, 36.919999999999995], [-122.05889, 36.91903], [-122.05806, 36.91811], [-122.05752, 36.91724], [-122.05725, 36.91644], [-122.05727, 36.9157], [-122.05757, 36.91505], [-122.05814, 36.91447], [-122.05861, 36.91399], [-122.05897, 36.91364], [-122.05924, 36.9134], [-122.05939, 36.91327], [-122.05943, 36.91327], [-122.05937, 36.91339], [-122.05918, 36.91364], [-122.05887, 36.914], [-122.05844, 36.91449], [-122.05787, 36.91509], [-122.05716, 36.91581], [-122.0563, 36.91665], [-122.0554, 36.91753], [-122.05447, 36.91844], [-122.0535, 36.91939], [-122.05249, 36.92035], [-122.05145, 36.92134], [-122.05037, 36.92233], [-122.04927, 36.92332], [-122.04813, 36.92432], [-122.04696, 36.9253], [-122.04577, 36.92628], [-122.04455, 36.92723], [-122.04331, 36.92815], [-122.04205, 36.92905], [-122.04078, 36.92992], [-122.03948, 36.93074], [-122.03818, 36.93153], [-122.03686, 36.93227], [-122.03554, 36.93296], [-122.0342, 36.9336], [-122.03287, 36.93419], [-122.03152, 36.93473], [-122.03018, 36.93522], [-122.02884, 36.93565], [-122.02749, 36.93602], [-122.02616, 36.93632], [-122.02484, 36.93655], [-122.02353, 36.93671], [-122.02223, 36.93682], [-122.02094, 36.93687], [-122.01965, 36.93686], [-122.01837, 36.9368], [-122.01711, 36.93673], [-122.01587, 36.93664], [-122.01465, 36.93653], [-122.01345, 36.9364], [-122.01226, 36.93626], [-122.01109, 36.93611], [-122.00994, 36.93594], [-122.0088, 36.93576], [-122.00768, 36.93558], [-122.00657, 36.93538], [-122.00548, 36.93518], [-122.0044, 36.93496], [-122.00333, 36.93475], [-122.00228, 36.93452], [-122.00124, 36.93429], [-122.00021, 36.93406], [-121.99919, 36.93382], [-121.9981, 36.93359], [-121.99693, 36.93336], [-121.99569, 36.93312], [-121.99437, 36.93289], [-121.99297, 36.93267], [-121.9915, 36.93244], [-121.98996, 36.93222], [-121.98834, 36.932], [-121.98664, 36.93179], [-121.98487, 36.93158], [-121.98302, 36.93137], [-121.9811, 36.93116], [-121.9791, 36.93096], [-121.97704, 36.93075], [-121.97493, 36.93054], [-121.97278, 36.93031], [-121.9706, 36.93008], [-121.96837, 36.92984], [-121.96612, 36.92958], [-121.96383, 36.92932], [-121.9615, 36.92905], [-121.95915, 36.92876], [-121.95677, 36.92847], [-121.95437, 36.92816], [-121.95204, 36.92785], [-121.9498, 36.92756], [-121.94762, 36.92726], [-121.94553, 36.92698], [-121.94352, 36.92669], [-121.94158, 36.92641], [-121.93973, 36.92613], [-121.93795, 36.92585], [-121.93625, 36.92555], [-121.93462, 36.92523], [-121.93305, 36.92489], [-121.93155, 36.92454], [-121.93012, 36.92417], [-121.92874, 36.92379], [-121.92742, 36.92341], [-121.92616, 36.92302], [-121.92496, 36.92263], [-121.9238, 36.92223], [-121.9227, 36.92184], [-121.92165, 36.92145], [-121.92065, 36.92107], [-121.91969, 36.9207], [-121.91878, 36.92033], [-121.91791, 36.91998], [-121.917, 36.91961], [-121.91604, 36.91924], [-121.91502, 36.91886], [-121.91397, 36.91846], [-121.91287, 36.91806], [-121.91172, 36.91764], [-121.91054, 36.91722], [-121.90932, 36.91678], [-121.90806, 36.91632], [-121.90676, 36.91586], [-121.90543, 36.91538], [-121.90407, 36.91489], [-121.90268, 36.91438], [-121.90126, 36.91386], [-121.89982, 36.91332], [-121.89834, 36.91276], [-121.89683, 36.91221], [-121.89529, 36.91165], [-121.89372, 36.9111], [-121.89212, 36.91054], [-121.89049, 36.91], [-121.88883, 36.90946], [-121.88716, 36.90893]]}}, {"type": "Feature", "properties": {"hours": 69.0}, "geometry": {"type": "LineString", "coordinates": [[-121.98, 36.919999999999995], [-121.98037, 36.91943], [-121.98091, 36.91892], [-121.98161, 36.91847], [-121.98248, 36.91809], [-121.98352, 36.91778], [-121.98473, 36.91754], [-121.98612, 36.91738], [-121.98722, 36.91727], [-121.98804, 36.91723], [-121.98858, 36.91724], [-121.98886, 36.91733], [-121.98887, 36.91748], [-121.98863, 36.91771], [-121.98813, 36.91801], [-121.98737, 36.91838], [-121.98637, 36.91882], [-121.98512, 36.91932], [-121.98362, 36.91988], [-121.98189, 36.9205], [-121.98019, 36.92109], [-121.97853, 36.92165], [-121.97693, 36.92218], [-121.9754, 36.92268], [-121.97393, 36.92316], [-121.97252, 36.92361], [-121.97115, 36.92403], [-121.96983, 36.92443], [-121.96854, 36.9248], [-121.96728, 36.92515], [-121.96606, 36.92548], [-121.96485, 36.92579], [-121.96367, 36.92607], [-121.9625, 36.92633], [-121.96134, 36.92657], [-121.96019, 36.9268], [-121.95904, 36.927], [-121.95789, 36.92718], [-121.95674, 36.92735], [-121.95559, 36.9275], [-121.95442, 36.92763], [-121.95325, 36.92774], [-121.95205, 36.92784], [-121.95085, 36.92792], [-121.94966, 36.92801], [-121.9485, 36.92809], [-121.94735, 36.92817], [-121.94623, 36.92826], [-121.94513, 36.92834], [-121.94406, 36.92843], [-121.94301, 36.92851], [-121.94198, 36.9286], [-121.94097, 36.92869], [-121.93999, 36.92878], [-121.93903, 36.92887], [-121.9381, 36.92895], [-121.93719, 36.92904], [-121.93631, 36.92912], [-121.93545, 36.92919], [-121.93461, 36.92926], [-121.9338, 36.92933], [-121.93301, 36.92939], [-121.93224, 36.92945], [-121.9315, 36.9295], [-121.93077, 36.92954], [-121.93007, 36.92958], [-121.92939, 36.92961], [-121.92873, 36.92963], [-121.92802, 36.92963], [-121.92726, 36.92961], [-121.92646, 36.92957], [-121.92562, 36.9295], [-121.92473, 36.9294], [-121.92379, 36.92928], [-121.92282, 36.92913], [-121.92181, 36.92895], [-121.92076, 36.92873], [-121.91967, 36.92848], [-121.91854, 36.92818], [-121.91738, 36.92785], [-121.91619, 36.92748], [-121.91497, 36.92706], [-121.91371, 36.92659], [-121.91244, 36.92607], [-121.91113, 36.92549], [-121.90981, 36.92486], [-121.90846, 36.92416], [-121.90709, 36.92339], [-121.90571, 36.92255], [-121.90432, 36.92164], [-121.90291, 36.92065], [-121.9015, 36.91957], [-121.90015, 36.91847], [-121.89885, 36.91735], [-121.89759, 36.91623], [-121.89637, 36.91512], [-121.89518, 36.914], [-121.89403, 36.9129], [-121.89291, 36.9118], [-121.89182, 36.91071], [-121.89077, 36.90964], [-121.88974, 36.90858], [-121.88875, 36.90754], [-121.88778, 36.90652], [-121.88684, 36.90552], [-121.88593, 36.90454], [-121.88505, 36.90359], [-121.88419, 36.90266], [-121.88335, 36.90177], [-121.88254, 36.9009], [-121.88175, 36.90007], [-121.88099, 36.89927], [-121.88024, 36.89852], [-121.87952, 36.89781], [-121.87883, 36.89714], [-121.87815, 36.89652], [-121.87744, 36.89589], [-121.87669, 36.89527], [-121.87591, 36.89465], [-121.87509, 36.89402], [-121.87424, 36.89339], [-121.87336, 36.89277], [-121.87245, 36.89214], [-121.8715, 36.8915], [-121.87053, 36.89087], [-121.86953, 36.89023], [-121.86851, 36.8896], [-121.86746, 36.88896], [-121.86638, 36.88831], [-121.86528, 36.88767], [-121.86416, 36.88702], [-121.86301, 36.88637], [-121.86185, 36.88572], [-121.86066, 36.88507], [-121.85945, 36.88441], [-121.85822, 36.88375], [-121.85698, 36.88309], [-121.85572, 36.88243], [-121.85445, 36.88176]]}}, {"type": "Feature", "properties": {"hours": 44.5}, "geometry": {"type": "LineString", "coordinates": [[-121.9, 36.919999999999995], [-121.89991, 36.9201], [-121.89995, 36.92021], [-121.90013, 36.92034], [-121.90045, 36.92049], [-121.90091, 36.92064], [-121.90151, 36.92082], [-121.90225, 36.921], [-121.90288, 36.92121], [-121.90337, 36.92146], [-121.90374, 36.92173], [-121.90398, 36.92204], [-121.9041, 36.92238], [-121.9041, 36.92275], [-121.90398, 36.92315], [-121.90374, 36.92358], [-121.90339, 36.92404], [-121.90293, 36.92453], [-121.90236, 36.92505], [-121.9017, 36.92559], [-121.90105, 36.92611], [-121.90042, 36.92661], [-121.8998, 36.92709], [-121.89919, 36.92754], [-121.89859, 36.92797], [-121.89801, 36.92839], [-121.89743, 36.92878], [-121.89685, 36.92915], [-121.89628, 36.9295], [-121.89571, 36.92984], [-121.89514, 36.93016], [-121.89457, 36.93046], [-121.89399, 36.93075], [-121.8934, 36.93102], [-121.89281, 36.93128], [-121.89221, 36.93153], [-121.89161, 36.93176], [-121.89099, 36.93198], [-121.89035, 36.93219], [-121.88971, 36.93238], [-121.88905, 36.93257], [-121.88838, 36.93274], [-121.88769, 36.93291], [-121.88699, 36.93306], [-121.88631, 36.9332], [-121.88564, 36.93334], [-121.88498, 36.93346], [-121.88434, 36.93356], [-121.88372, 36.93366], [-121.88312, 36.93374], [-121.88253, 36.93381], [-121.88195, 36.93387], [-121.8814, 36.93392], [-121.88086, 36.93395], [-121.88033, 36.93397], [-121.87982, 36.93398], [-121.87933, 36.93397], [-121.87885, 36.93395], [-121.87838, 36.93392], [-121.87794, 36.93387], [-121.8775, 36.93381], [-121.87708, 36.93374], [-121.87668, 36.93365], [-121.87629, 36.93355], [-121.87591, 36.93343], [-121.87555, 36.9333], [-121.87519, 36.93315], [-121.87486, 36.93299], [-121.87448, 36.9328], [-121.87407, 36.93256], [-121.87362, 36.93229], [-121.87314, 36.93198], [-121.87263, 36.93164], [-121.87207, 36.93125], [-121.87149, 36.93082], [-121.87087, 36.93035], [-121.87021, 36.92983], [-121.86952, 36.92927], [-121.86881, 36.92866], [-121.86805, 36.928], [-121.86727, 36.9273], [-121.86646, 36.92654], [-121.86563, 36.92572], [-121.86476, 36.92485], [-121.86388, 36.92393], [-121.86297, 36.92294], [-121.86204, 36.92189], [-121.86109, 36.92077], [-121.86012, 36.91959], [-121.85914, 36.91833]]}}]}