{"type":"FeatureCollection","features":[{"type":"Feature","properties":{"depth_m":200,"label":"200 m"},"geometry":{"type":"LineString","coordinates":[[-124.7084,42.7021],[-124.698,42.6312],[-124.7083,42.5521],[-124.6716,42.5354],[-124.7091,42.5229],[-124.7148,42.5062],[-124.772,42.4854],[-124.7848,42.4729],[-124.7845,42.4646],[-124.7354,42.4208],[-124.6938,42.3593],[-124.6354,42.3213],[-124.6081,42.2812],[-124.5934,42.2396],[-124.5811,42.0563],[-124.5646,42.0401],[-124.4956,42.0021],[-124.4642,41.9479],[-124.4549,41.9104],[-124.4528,41.8646],[-124.4709,41.7437],[-124.4667,41.7062],[-124.4707,41.5812],[-124.4906,41.5188],[-124.4814,41.4104],[-124.4688,41.3721],[-124.4467,41.3604],[-124.4475,41.3312],[-124.3791,41.2312],[-124.3652,41.1896],[-124.3575,41.1354],[-124.363,41.0729],[-124.4055,40.9229],[-124.4156,40.8479],[-124.4938,40.7466],[-124.5198,40.6812],[-124.5138,40.6688],[-124.4854,40.6598],[-124.4706,40.6479],[-124.4769,40.6271],[-124.4684,40.6104],[-124.4704,40.6021],[-124.5024,40.5812],[-124.5188,40.5782],[-124.5438,40.5893],[-124.5604,40.6055],[-124.6104,40.612],[-124.6366,40.6062],[-124.645,40.5979],[-124.643,40.5729],[-124.6502,40.5521],[-124.6675,40.5396],[-124.6077,40.4938],[-124.6104,40.4614],[-124.5838,40.4146],[-124.5312,40.3909],[-124.4729,40.3922],[-124.4147,40.3688],[-124.4396,40.358],[-124.4716,40.3604],[-124.4807,40.3479],[-124.4771,40.33],[-124.4604,40.3144],[-124.4229,40.2958],[-124.3979,40.3003],[-124.4188,40.2734],[-124.4438,40.2641],[-124.4771,40.2617],[-124.5562,40.2787],[-124.5697,40.2771],[-124.574,40.2688],[-124.5312,40.2393],[-124.4938,40.2346],[-124.4729,40.2157],[-124.4229,40.1905],[-124.3812,40.1781],[-124.3146,40.1313],[-124.2812,40.1337],[-124.2847,40.0979],[-124.2489,40.0562],[-124.2146,40.0374],[-124.1771,40.049],[-124.1646,40.0755],[-124.1482,40.0771],[-124.1472,40.0271],[-124.1646,40.0123],[-124.1915,39.9688],[-124.1812,39.9562],[-124.1438,39.9382],[-124.1252,39.9146],[-124.1305,39.8854],[-124.1271,39.8716],[-124.1021,39.8388],[-124.0667,39.8146],[-124.0596,39.7854],[-123.9966,39.6979],[-123.9521,39.6114],[-123.9483,39.5812],[-123.9333,39.5479],[-123.9313,39.5188],[-123.9396,39.5155],[-123.9562,39.5248],[-123.9646,39.5155],[-123.9671,39.4562],[-123.9553,39.3271],[-123.9513,39.1062],[-123.9438,39.0296],[-123.9325,38.9979],[-123.9387,38.9729],[-123.9271,38.9109],[-123.9021,38.8636],[-123.8354,38.7813],[-123.702,38.6396],[-123.6393,38.5396],[-123.5721,38.4812],[-123.5667,38.4646],[-123.59,38.4604],[-123.5771,38.429],[-123.5396,38.41],[-123.5021,38.3749],[-123.4312,38.2945],[-123.3962,38.2354],[-123.3765,38.1812],[-123.3688,38.084],[-123.4146,38.11],[-123.4521,38.1125],[-123.4979,38.098],[-123.5146,38.0805],[-123.5189,38.0646],[-123.5123,38.0396],[-123.4979,38.0194],[-123.4448,37.9729],[-123.4383,37.9562],[-123.4451,37.9229],[-123.4166,37.8938],[-123.4034,37.8604],[-123.368,37.8354],[-123.2656,37.7812],[-123.1938,37.7561],[-123.1292,37.7021],[-123.1229,37.6812],[-123.0938,37.6739],[-123.0618,37.6396],[-123.0406,37.6271],[-122.9995,37.5688],[-122.9938,37.5414],[-122.972,37.5312],[-122.982,37.5146],[-122.9755,37.5021],[-122.9582,37.4896],[-122.9312,37.4513],[-122.8943,37.4479],[-122.8994,37.4229],[-122.8729,37.4274],[-122.8657,37.4229],[-122.8674,37.4062],[-122.8841,37.3771],[-122.8418,37.2979],[-122.8021,37.2426],[-122.7479,37.1941],[-122.6762,37.0896],[-122.6188,37.0385],[-122.5521,37.0019],[-122.4604,36.9776],[-122.4479,36.9805],[-122.4062,37.0185],[-122.3997,37.0062],[-122.4113,36.9812],[-122.4064,36.9688],[-122.3896,36.9653],[-122.3604,36.9769],[-122.3515,36.9438],[-122.3104,36.9273],[-122.2854,36.9257],[-122.2354,36.8885],[-122.2104,36.8824],[-122.1688,36.8538],[-122.1471,36.8229],[-122.1188,36.8033],[-122.0812,36.8083],[-122.0562,36.7933],[-121.9646,36.8433],[-121.9644,36.8312],[-121.9777,36.8104],[-121.9729,36.7969],[-121.9188,36.8007],[-121.9021,36.8084],[-121.8479,36.8041],[-121.8421,36.7938],[-121.8812,36.7813],[-121.8938,36.7627],[-121.9438,36.7606],[-121.9579,36.7521],[-121.9691,36.7396],[-121.9798,36.7062],[-122.0052,36.6771],[-122.0194,36.6396],[-122.0135,36.5979],[-121.9862,36.5604],[-121.9834,36.5479],[-121.9604,36.5448],[-121.951,36.5354],[-121.9727,36.5229],[-121.9771,36.5077],[-121.9938,36.5104],[-122.003,36.4979],[-121.9982,36.4688],[-121.9721,36.4354],[-121.9964,36.3729],[-122.0146,36.3523],[-122.0604,36.3312],[-122.0722,36.3188],[-122.0727,36.3062],[-122.0149,36.2604],[-121.9854,36.2514],[-121.9646,36.2346],[-121.9438,36.2314],[-121.9146,36.247],[-121.8979,36.232],[-121.8748,36.2229],[-121.7812,36.1928],[-121.7271,36.1848],[-121.6843,36.1313],[-121.6562,36.1081],[-121.6187,36.0562],[-121.6062,36.0127],[-121.5521,35.9672],[-121.5222,35.9604],[-121.5242,35.9354],[-121.5123,35.8812],[-121.4869,35.8562],[-121.4735,35.7854],[-121.4604,35.7672],[-121.422,35.7438],[-121.4388,35.7229],[-121.4293,35.7021],[-121.3664,35.6521],[-121.284,35.5729],[-121.2521,35.5541],[-121.2271,35.5501],[-121.1604,35.5063],[-121.0562,35.4062],[-121.039,35.3729],[-121.0205,35.2979],[-120.9361,35.1479],[-120.9077,35.0771],[-120.8742,34.9312],[-120.868,34.8062],[-120.8731,34.7479],[-120.8664,34.7062],[-120.8432,34.6396],[-120.814,34.6312],[-120.8242,34.6062],[-120.7938,34.6045],[-120.8061,34.5854],[-120.8069,34.5729],[-120.7979,34.5646],[-120.7781,34.5646],[-120.7761,34.5396],[-120.7562,34.5301],[-120.7437,34.5312],[-120.7375,34.5062],[-120.6104,34.4287],[-120.5896,34.4285],[-120.5812,34.4178],[-120.5604,34.4193],[-120.5595,34.4104],[-120.5479,34.4023],[-120.5271,34.4011],[-120.5146,34.3925],[-120.4438,34.3736],[-120.4146,34.3712],[-120.3688,34.3804],[-120.3271,34.3906],[-120.2938,34.407],[-120.2646,34.411],[-119.9438,34.3791],[-119.7492,34.3062],[-119.6891,34.2562],[-119.7396,34.2518],[-119.7729,34.2623],[-119.7792,34.2562],[-119.7146,34.2153],[-119.4766,34.1604],[-119.3587,34.1229],[-119.2562,34.08],[-119.2455,34.0854],[-119.2312,34.1117],[-119.2285,34.0646],[-119.2146,34.0559],[-119.1979,34.0598],[-119.1854,34.0488],[-119.1521,34.0473],[-119.1354,34.0573],[-119.1188,34.0474],[-119.1075,34.0479],[-119.1003,34.0562],[-119.1001,34.0729],[-119.0896,34.0748],[-119.0646,34.0486],[-119.0438,34.0413],[-119.0269,34.0271],[-119.0536,34.0062],[-119.0515,33.9938],[-118.9979,33.9895],[-118.9146,33.9967],[-118.8021,33.9852],[-118.7812,33.9777],[-118.7104,33.981],[-118.652,33.9688],[-118.6021,33.943],[-118.582,33.9229],[-118.5901,33.9146],[-118.6271,33.9075],[-118.6368,33.8979],[-118.6354,33.8775],[-118.6175,33.8562],[-118.5871,33.8354],[-118.5332,33.8146],[-118.4393,33.8271],[-118.4369,33.8229],[-118.453,33.8104],[-118.504,33.7896],[-118.4211,33.7271],[-118.3521,33.6999],[-118.2812,33.6534],[-118.2684,33.6354],[-118.2874,33.6229],[-118.2894,33.6146],[-118.2726,33.5896],[-118.1896,33.5529],[-118.1562,33.55],[-118.1312,33.5535],[-118.1058,33.5771],[-118.0812,33.5844],[-118.0562,33.5697],[-117.9979,33.5566],[-117.9688,33.5598],[-117.9312,33.5756],[-117.9062,33.5761],[-117.8312,33.537],[-117.7555,33.4562],[-117.7079,33.4229],[-117.5923,33.2771],[-117.5363,33.2438],[-117.4938,33.2005],[-117.3954,33.1396],[-117.3729,33.1168],[-117.3631,33.0562],[-117.321,32.9896],[-117.3153,32.9562],[-117.3241,32.9271],[-117.293,32.9062],[-117.2851,32.8896],[-117.2896,32.8821],[-117.3229,32.8797],[-117.3396,32.8688],[-117.3656,32.8312],[-117.3813,32.7896],[-117.3771,32.7613],[-117.3506,32.7104],[-117.3606,32.6354],[-117.3592,32.6062],[-117.3518,32.5896],[-117.3812,32.5938],[-117.4312,32.6613],[-117.4544,32.6521],[-117.3729,32.5308],[-117.3271,32.5303],[-117.3146,32.5362],[-117.2901,32.5188],[-117.2938,32.5083],[-117.3354,32.5088],[-117.3409,32.5021],[-117.3441,32.4854],[-117.3312,32.443],[-117.3271,32.439],[-117.3021,32.4456],[-117.2908,32.4396],[-117.2978,32.4562],[-117.2881,32.4896],[-117.282,32.4896],[-117.2812,32.4621],[-117.266,32.4479],[-117.2737,32.4271],[-117.2343,32.3271],[-117.2307,32.2979],[-117.2101,32.2646],[-117.1812,32.235],[-117.1521,32.2174],[-117.1354,32.2167],[-117.1229,32.2007],[-117.1062,32.1305],[-117.0896,32.0927],[-117.0729,32.0805],[-117.0604,32.0975],[-117.0646,32.1796],[-117.0521,32.1913],[-117.0438,32.2112],[-116.9938,32.2243],[-116.9646,32.1704],[-116.9146,32.0145],[-116.8688,31.9687],[-116.8578,31.9438],[-116.859,31.9229],[-116.8312,31.9408],[-116.815,31.9354],[-116.821,31.8979]]}},{"type":"Feature","properties":{"depth_m":500,"label":"500 m"},"geometry":{"type":"LineString","coordinates":[[-124.7607,42.7021],[-124.7574,42.6812],[-124.7364,42.6479],[-124.7356,42.6354],[-124.8073,42.5562],[-124.8163,42.5354],[-124.8045,42.5229],[-124.761,42.5146],[-124.7979,42.4917],[-124.8356,42.4854],[-124.8498,42.4688],[-124.8188,42.4425],[-124.7826,42.4229],[-124.7604,42.3587],[-124.7291,42.3229],[-124.7287,42.2771],[-124.6938,42.2332],[-124.6688,42.1569],[-124.6425,41.9938],[-124.5559,41.8188],[-124.5455,41.7229],[-124.5336,41.6812],[-124.529,41.6021],[-124.5332,41.5521],[-124.5463,41.5312],[-124.5477,41.5146],[-124.5291,41.4729],[-124.5153,41.4146],[-124.5124,41.3646],[-124.4965,41.3229],[-124.4524,41.2646],[-124.4265,41.2188],[-124.4165,41.1812],[-124.4154,41.1438],[-124.4233,41.1021],[-124.4538,41.0396],[-124.4987,40.9771],[-124.5229,40.9682],[-124.5159,40.9479],[-124.5249,40.8271],[-124.5426,40.7604],[-124.5457,40.7188],[-124.5544,40.6854],[-124.5822,40.6688],[-124.5688,40.665],[-124.5438,40.6702],[-124.5287,40.6646],[-124.4968,40.6396],[-124.4974,40.6104],[-124.5229,40.6106],[-124.5312,40.6249],[-124.5438,40.6312],[-124.5812,40.6227],[-124.6477,40.6229],[-124.6688,40.6086],[-124.7067,40.5562],[-124.6938,40.5245],[-124.6429,40.4979],[-124.6285,40.4771],[-124.6312,40.4521],[-124.624,40.4354],[-124.5938,40.4031],[-124.5521,40.3796],[-124.4854,40.3839],[-124.4641,40.3771],[-124.5021,40.361],[-124.5135,40.3396],[-124.4932,40.3104],[-124.4729,40.2949],[-124.4479,40.2939],[-124.4416,40.2854],[-124.4562,40.2737],[-124.4771,40.2717],[-124.5646,40.2911],[-124.6646,40.2825],[-124.8021,40.3117],[-124.8271,40.3093],[-124.8335,40.3021],[-124.8104,40.2859],[-124.7604,40.2722],[-124.6938,40.262],[-124.6729,40.267],[-124.6479,40.2485],[-124.6188,40.2549],[-124.6062,40.2305],[-124.5562,40.2158],[-124.5438,40.2037],[-124.4315,40.1479],[-124.3521,40.095],[-124.3094,40.0979],[-124.3157,40.0729],[-124.3128,40.0604],[-124.3006,40.0396],[-124.2866,40.0312],[-124.2396,40.0322],[-124.2146,40.0166],[-124.1938,40.0317],[-124.1646,40.0381],[-124.2021,39.9831],[-124.2188,39.9776],[-124.2438,39.9841],[-124.2502,39.9812],[-124.2494,39.9729],[-124.2193,39.9438],[-124.1511,39.9188],[-124.1501,39.8938],[-124.1679,39.8729],[-124.1633,39.8438],[-124.1479,39.8235],[-124.1229,39.8232],[-124.1,39.8062],[-124.1107,39.7812],[-124.1081,39.7729],[-124.0688,39.7165],[-124.0467,39.6979],[-124.0491,39.6771],[-124.0415,39.6562],[-124.0062,39.6174],[-124.0176,39.5938],[-124.0146,39.5729],[-123.9646,39.5661],[-123.9536,39.5562],[-123.9871,39.5438],[-124.0097,39.5146],[-124.0233,39.2104],[-124.0179,39.1104],[-123.9844,39.0646],[-123.9905,39.0188],[-123.9641,39.0021],[-123.9713,38.9896],[-123.9729,38.9654],[-124.0146,38.9729],[-124.0293,38.9604],[-124.0281,38.9479],[-123.9404,38.8438],[-123.8812,38.7975],[-123.867,38.7771],[-123.8658,38.7521],[-123.8562,38.7325],[-123.8156,38.6979],[-123.7925,38.6563],[-123.7312,38.605],[-123.7022,38.5521],[-123.658,38.4979],[-123.659,38.4771],[-123.6314,38.4271],[-123.6034,38.3312],[-123.5938,38.3171],[-123.5786,38.3104],[-123.5761,38.2938],[-123.5527,38.2688],[-123.5481,38.2438],[-123.4539,38.2312],[-123.525,38.2021],[-123.5239,38.1854],[-123.5007,38.1438],[-123.505,38.1271],[-123.5342,38.1021],[-123.5364,38.0729],[-123.5247,38.0354],[-123.51,38.0146],[-123.4581,37.9688],[-123.464,37.9188],[-123.4571,37.9062],[-123.4322,37.8896],[-123.4321,37.8729],[-123.4229,37.8542],[-123.3771,37.8238],[-123.3271,37.8049],[-123.3146,37.7916],[-123.2938,37.7882],[-123.2687,37.7652],[-123.2021,37.7474],[-123.1898,37.7312],[-123.14,37.6938],[-123.1354,37.6658],[-123.1021,37.6642],[-123.0962,37.6479],[-123.056,37.6188],[-123.0553,37.6062],[-123.0447,37.5938],[-123.0492,37.5771],[-123.031,37.5479],[-123.0298,37.5312],[-123.0411,37.5188],[-123.023,37.5146],[-123.0324,37.4896],[-123.0211,37.4521],[-122.9965,37.4188],[-122.9642,37.4104],[-122.9615,37.3979],[-122.9438,37.3819],[-122.9221,37.3812],[-122.9289,37.3604],[-122.9653,37.3271],[-122.9591,37.3104],[-122.9712,37.2938],[-122.974,37.2688],[-122.965,37.2229],[-122.9015,37.1562],[-122.8646,37.1355],[-122.8146,37.1177],[-122.7771,37.1176],[-122.7646,37.1285],[-122.7498,37.1229],[-122.7271,37.1027],[-122.7182,37.0646],[-122.7012,37.0354],[-122.6354,36.9887],[-122.4896,36.9423],[-122.4546,36.9562],[-122.4312,36.9754],[-122.4313,36.9312],[-122.3771,36.9527],[-122.3777,36.9188],[-122.3688,36.9116],[-122.3229,36.8979],[-122.2938,36.9112],[-122.2604,36.8922],[-122.2431,36.8729],[-122.2188,36.8719],[-122.198,36.8562],[-122.1972,36.8354],[-122.1806,36.8271],[-122.1854,36.8121],[-122.2054,36.7979],[-122.1979,36.7869],[-122.1896,36.786],[-122.1604,36.8061],[-122.1188,36.7842],[-122.0771,36.7961],[-122.0562,36.7766],[-122.0354,36.7959],[-121.9938,36.8079],[-121.9812,36.7851],[-121.9229,36.7881],[-121.9068,36.7812],[-121.9062,36.7769],[-121.9479,36.7722],[-121.9795,36.7479],[-121.9919,36.7104],[-122.0223,36.6771],[-122.0329,36.6562],[-122.0345,36.6354],[-122.0229,36.5772],[-121.9979,36.5559],[-121.9862,36.5312],[-122.029,36.5396],[-122.02,36.5146],[-122.0329,36.4896],[-122.0208,36.4604],[-121.9932,36.4271],[-122.0329,36.3729],[-122.0979,36.361],[-122.1147,36.3521],[-122.1201,36.3312],[-122.1104,36.3038],[-122.0646,36.2511],[-122.0438,36.2499],[-122.0271,36.2395],[-121.9979,36.2351],[-121.9771,36.2215],[-121.9396,36.2121],[-121.9146,36.2241],[-121.8896,36.1982],[-121.8729,36.1973],[-121.8479,36.1852],[-121.8312,36.1871],[-121.8104,36.1679],[-121.7896,36.1657],[-121.7646,36.1532],[-121.7521,36.1553],[-121.7386,36.1688],[-121.7336,36.1354],[-121.7188,36.1306],[-121.7146,36.1157],[-121.6926,36.1104],[-121.6771,36.0829],[-121.6555,36.0812],[-121.652,36.0646],[-121.6323,36.0479],[-121.6438,36.0205],[-121.6396,35.9996],[-121.6157,35.9812],[-121.605,35.9604],[-121.5745,35.9479],[-121.5878,35.9271],[-121.5636,35.9188],[-121.5741,35.9021],[-121.5732,35.8812],[-121.5483,35.8521],[-121.5492,35.8188],[-121.5275,35.7979],[-121.5296,35.7771],[-121.5188,35.7521],[-121.4675,35.6896],[-121.4459,35.6396],[-121.4242,35.6104],[-121.3229,35.5001],[-121.3036,35.4146],[-121.2771,35.3678],[-121.1229,35.2191],[-121.0826,35.1562],[-121.0706,35.1146],[-121.0753,35.0771],[-121.0593,34.9938],[-121.0567,34.9438],[-121.0604,34.9396],[-121.0854,34.9543],[-121.0934,34.9521],[-121.0945,34.9438],[-121.0672,34.8812],[-121.075,34.8104],[-121.0517,34.7479],[-120.9312,34.595],[-120.9229,34.5899],[-120.8996,34.5938],[-120.9063,34.5688],[-120.8994,34.5562],[-120.8812,34.5491],[-120.8772,34.5354],[-120.8604,34.523],[-120.8434,34.5271],[-120.8363,34.5062],[-120.8021,34.4823],[-120.7816,34.4771],[-120.7188,34.4272],[-120.6312,34.3061],[-120.6062,34.2885],[-120.5521,34.2682],[-120.5013,34.2729],[-120.5211,34.2438],[-120.5646,34.2278],[-120.5812,34.2085],[-120.6192,34.2104],[-120.6274,34.1979],[-120.6252,34.1854],[-120.6468,34.1646],[-120.6427,34.1354],[-120.6153,34.0896],[-120.6102,34.0604],[-120.5979,34.0354],[-120.5896,34.0269],[-120.5687,34.0242],[-120.513,33.9938],[-120.5211,33.9729],[-120.5163,33.9604],[-120.4479,33.9159],[-120.3854,33.8998],[-120.3812,33.9189],[-120.3729,33.9209],[-120.324,33.8812],[-120.2729,33.8594],[-120.2396,33.8587],[-120.2354,33.8374],[-120.2104,33.8246],[-120.1688,33.7871],[-120.1604,33.7895],[-120.1562,33.8039],[-120.1479,33.804],[-120.0688,33.7216],[-120.0561,33.6896],[-119.9809,33.5938],[-119.9656,33.5896],[-119.9479,33.6168],[-119.9275,33.6021],[-119.8994,33.5604],[-119.9271,33.5506],[-119.9324,33.5312],[-119.9104,33.5147],[-119.907,33.4812],[-119.8663,33.4146],[-119.8609,33.3979],[-119.8618,33.3479],[-119.8365,33.3104],[-119.8812,33.3176],[-119.9033,33.3146],[-119.8849,33.2688],[-119.9094,33.2479],[-119.91,33.2188],[-119.8812,33.1933],[-119.8646,33.199],[-119.8271,33.1929],[-119.8062,33.2047],[-119.7729,33.2112],[-119.7679,33.2229],[-119.7703,33.2438],[-119.7604,33.2439],[-119.7312,33.194],[-119.6979,33.1574],[-119.6803,33.1479],[-119.6804,33.1354],[-119.6944,33.1146],[-119.6938,33.0933],[-119.6476,33.0562],[-119.6205,33.0188],[-119.5927,32.9938],[-119.5997,32.9771],[-119.5957,32.9688],[-119.5146,32.9151],[-119.4657,32.8521],[-119.415,32.8146],[-119.3771,32.7971],[-119.324,32.7896],[-119.3081,32.7646],[-119.3104,32.7515],[-119.263,32.7146],[-119.2611,32.7104],[-119.2729,32.7057],[-119.3229,32.706],[-119.3521,32.6973],[-119.3741,32.6688],[-119.3872,32.6104],[-119.3796,32.5396],[-119.3717,32.5229],[-119.3479,32.502],[-119.3104,32.4936],[-119.2733,32.4729],[-119.274,32.4521],[-119.2649,32.4229],[-119.2729,32.4157],[-119.286,32.4188],[-119.2513,32.3812],[-119.2104,32.3596],[-119.1688,32.3784],[-119.1271,32.3666],[-119.1021,32.369],[-119.0771,32.3556],[-119.0396,32.3467],[-119.0188,32.3502],[-119.0104,32.3684],[-119.0021,32.3681],[-118.9271,32.3348],[-118.9104,32.305],[-118.8828,32.3062],[-118.8823,32.3354],[-118.8938,32.3498],[-118.9104,32.3581],[-118.9168,32.4021],[-118.9373,32.4229],[-119.0363,32.4938],[-119.067,32.5479],[-119.0522,32.5854],[-119.0246,32.6188],[-119.031,32.6604],[-119.0062,32.6683],[-119.0035,32.6771],[-119.0396,32.7092],[-119.1691,32.7812],[-119.1938,32.8013],[-119.2271,32.8052],[-119.2646,32.7881],[-119.2894,32.7938],[-119.2729,32.8018],[-119.255,32.8271],[-119.2702,32.8479],[-119.3104,32.8746],[-119.3217,32.8896],[-119.3019,32.9646],[-119.3062,32.9809],[-119.3354,32.9914],[-119.4146,32.9725],[-119.4562,32.974],[-119.4771,32.9818],[-119.5147,33.0187],[-119.5304,33.0604],[-119.5789,33.1229],[-119.6414,33.1562],[-119.6572,33.1812],[-119.6271,33.1912],[-119.6104,33.1806],[-119.5979,33.184],[-119.5771,33.1685],[-119.5604,33.1839],[-119.5396,33.19],[-119.4146,33.172],[-119.3729,33.1917],[-119.3271,33.1855],[-119.2562,33.1984],[-119.2261,33.2146],[-119.2204,33.2312],[-119.2521,33.2631],[-119.2729,33.2599],[-119.2943,33.2688],[-119.3021,33.2894],[-119.3188,33.2993],[-119.3438,33.2998],[-119.3562,33.3111],[-119.3688,33.3088],[-119.4729,33.382],[-119.5312,33.3992],[-119.5396,33.4144],[-119.6771,33.5138],[-119.7948,33.5896],[-119.8042,33.6354],[-119.7895,33.6604],[-119.7854,33.6965],[-119.7942,33.7229],[-119.8115,33.7438],[-119.8303,33.8021],[-119.8737,33.8562],[-119.8784,33.8812],[-119.8729,33.9028],[-119.8646,33.9089],[-119.8146,33.905],[-119.8021,33.918],[-119.7021,33.9137],[-119.586,33.9479],[-119.5229,33.9559],[-119.4521,33.9431],[-119.4167,33.9229],[-119.4146,33.935],[-119.4342,33.9604],[-119.4312,33.9675],[-119.3479,33.9859],[-119.2771,34.0221],[-119.2396,34.0267],[-119.2312,34.0338],[-119.1896,34.0109],[-119.1688,34.0182],[-119.1521,34.0148],[-119.1438,34.022],[-119.1188,34.0128],[-119.0812,34.0388],[-119.0685,34.0312],[-119.0704,33.9979],[-119.0562,33.9851],[-118.9562,33.9692],[-118.8521,33.9719],[-118.745,33.9562],[-118.7022,33.9021],[-118.6812,33.8889],[-118.6323,33.8396],[-118.5562,33.7979],[-118.5264,33.7979],[-118.5225,33.7812],[-118.4808,33.7604],[-118.3854,33.6943],[-118.352,33.6854],[-118.295,33.6438],[-118.2979,33.6367],[-118.3212,33.6271],[-118.3033,33.5854],[-118.2229,33.5294],[-118.187,33.5146],[-118.1479,33.4755],[-118.1063,33.465],[-118.0964,33.4688],[-118.0771,33.4953],[-118.0512,33.4854],[-118.0428,33.4729],[-118.0504,33.4479],[-118.0229,33.3975],[-117.9396,33.3523],[-117.9312,33.3524],[-117.9267,33.3604],[-117.9362,33.4021],[-117.9729,33.4351],[-118.0012,33.4479],[-118.0134,33.4729],[-117.9972,33.4812],[-117.9604,33.4802],[-117.9479,33.4912],[-117.9354,33.4909],[-117.903,33.5104],[-117.8854,33.5141],[-117.8396,33.515],[-117.8104,33.4997],[-117.7604,33.4412],[-117.7104,33.4004],[-117.6905,33.3438],[-117.6411,33.2979],[-117.6271,33.2701],[-117.5993,33.2438],[-117.56,33.2271],[-117.5308,33.1688],[-117.4854,33.1155],[-117.4542,33.0896],[-117.4511,33.0646],[-117.4354,33.0374],[-117.4229,33.0232],[-117.3937,33.0068],[-117.3633,32.9688],[-117.3688,32.9354],[-117.3569,32.9104],[-117.3771,32.8999],[-117.3976,32.8771],[-117.4151,32.7979],[-117.438,32.7562],[-117.4212,32.7062],[-117.4521,32.6889],[-117.4938,32.7266],[-117.4982,32.7021],[-117.4839,32.6646],[-117.455,32.6312],[-117.3851,32.5229],[-117.3771,32.5177],[-117.3479,32.5182],[-117.3581,32.4896],[-117.3354,32.4271],[-117.3271,32.4229],[-117.3062,32.4366],[-117.2771,32.4176],[-117.2396,32.3104],[-117.2435,32.2812],[-117.1854,32.2199],[-117.1562,32.1979],[-117.0854,32.0635],[-117.026,32.0312],[-117.0021,32.0273],[-116.9947,32.0396],[-116.9968,32.0729],[-116.9854,32.0725],[-116.9354,32.0149],[-116.9319,31.9896],[-116.914,31.9604],[-116.8772,31.9396],[-116.9021,31.9386],[-116.9137,31.9312],[-116.9125,31.9146],[-116.8961,31.8979]]}},{"type":"Feature","properties":{"depth_m":1000,"label":"1,000 m"},"geometry":{"type":"LineString","coordinates":[[-118.7368,31.8979],[-118.7452,31.9104],[-118.7456,31.9479],[-118.7979,31.9828],[-118.8816,31.9938],[-118.89,31.9729],[-118.8688,31.9579],[-118.8644,31.9438],[-118.9062,31.9374],[-118.9312,31.9465],[-118.9812,31.9821],[-119.0188,31.9875],[-119.0346,32.0021],[-119.0688,32.0171],[-119.1303,32.1104],[-119.1562,32.1287],[-119.1729,32.1319],[-119.1917,32.1229],[-119.1866,32.1021],[-119.1332,32.0396],[-119.0784,32.0021],[-119.0642,31.9729],[-119.0062,31.9163],[-118.9711,31.9104],[-118.9438,31.9235],[-118.9021,31.9097],[-118.8729,31.9221],[-118.8461,31.9104],[-118.8372,31.8979]]}},{"type":"Feature","properties":{"depth_m":1000,"label":"1,000 m"},"geometry":{"type":"LineString","coordinates":[[-118.3815,31.8979],[-118.3562,31.9166],[-118.333,31.9521],[-118.342,31.9896],[-118.3646,32.0103],[-118.3728,32.0354],[-118.3604,32.0817],[-118.3671,32.1271],[-118.3938,32.147],[-118.4604,32.1587],[-118.5021,32.1564],[-118.5396,32.1663],[-118.5997,32.1604],[-118.6189,32.1479],[-118.6443,32.0812],[-118.6382,32.0188],[-118.6076,31.9854],[-118.5688,31.9263],[-118.5604,31.9294],[-118.5062,32.0022],[-118.4979,31.9829],[-118.4854,31.9754],[-118.4604,31.9867],[-118.435,31.9604],[-118.4104,31.949],[-118.4294,31.9187],[-118.4286,31.8979]]}},{"type":"Feature","properties":{"depth_m":1000,"label":"1,000 m"},"geometry":{"type":"LineString","coordinates":[[-124.9442,42.7021],[-124.9419,42.6479],[-124.9334,42.6229],[-124.9229,42.6152],[-124.8899,42.6104],[-124.8938,42.5919],[-124.8573,42.5771],[-124.8781,42.5479],[-124.8794,42.5313],[-124.8654,42.5104],[-124.8833,42.4938],[-124.8873,42.4729],[-124.8688,42.4438],[-124.8637,42.4188],[-124.8389,42.3979],[-124.8871,42.3354],[-124.8847,42.3188],[-124.9021,42.271],[-124.9104,42.2691],[-124.9312,42.2821],[-124.944,42.2729],[-124.9127,42.2479],[-124.9159,42.2104],[-124.8868,42.0562],[-124.8961,42.0188],[-124.9104,41.9982],[-124.9312,41.9928],[-124.9562,42.0281],[-124.9578,42.0062],[-124.9729,41.9726],[-125.0188,41.9964],[-125.0234,41.9562],[-125.0423,41.9354],[-125.0437,41.9021],[-125.0271,41.8585],[-125.0188,41.8568],[-125.0021,41.8693],[-124.9729,41.8681],[-124.8896,41.798],[-124.8604,41.7933],[-124.852,41.7854],[-124.8729,41.7719],[-124.9271,41.8081],[-124.9421,41.8062],[-124.9131,41.7729],[-124.9128,41.7646],[-124.9354,41.7191],[-124.9646,41.7488],[-124.9854,41.7467],[-124.9952,41.7396],[-125.0104,41.695],[-124.9805,41.6646],[-124.9866,41.6479],[-125.0031,41.6354],[-124.9979,41.6269],[-124.9812,41.6389],[-124.9354,41.6304],[-124.9264,41.6188],[-124.926,41.5938],[-124.8674,41.5604],[-124.8633,41.5438],[-124.8729,41.5363],[-124.8938,41.5575],[-124.9312,41.5694],[-124.9521,41.5676],[-124.9597,41.5188],[-124.9396,41.4427],[-124.9104,41.3995],[-124.8812,41.3859],[-124.8688,41.3569],[-124.855,41.3562],[-124.8312,41.3706],[-124.8188,41.3894],[-124.8021,41.3948],[-124.7799,41.4146],[-124.7641,41.4396],[-124.7624,41.4688],[-124.7438,41.4794],[-124.7146,41.4787],[-124.6562,41.4465],[-124.5979,41.4556],[-124.5729,41.443],[-124.5604,41.4188],[-124.5555,41.3979],[-124.5582,41.3812],[-124.57,41.3646],[-124.5711,41.3396],[-124.5593,41.3188],[-124.56,41.2979],[-124.5511,41.2854],[-124.5557,41.2688],[-124.5452,41.2229],[-124.5342,41.2062],[-124.5524,41.1896],[-124.5468,41.1771],[-124.5284,41.1646],[-124.5306,41.1604],[-124.5586,41.1312],[-124.6438,41.106],[-124.6812,41.0888],[-124.6937,41.0729],[-124.7521,41.0791],[-124.7816,41.0938],[-124.7881,41.0812],[-124.776,41.0562],[-124.7979,41.058],[-124.8035,41.0479],[-124.7911,41.0229],[-124.7924,40.9896],[-124.7612,40.9062],[-124.7395,40.8729],[-124.707,40.8479],[-124.713,40.8312],[-124.7002,40.8146],[-124.7028,40.8021],[-124.7229,40.7923],[-124.7291,40.7812],[-124.7214,40.7604],[-124.6975,40.7479],[-124.7167,40.7062],[-124.7019,40.6771],[-124.7354,40.6772],[-124.7409,40.6729],[-124.7396,40.6625],[-124.7188,40.6337],[-124.6938,40.6622],[-124.6812,40.6675],[-124.6012,40.6479],[-124.681,40.6396],[-124.7012,40.5938],[-124.7353,40.5604],[-124.7284,40.5312],[-124.7188,40.5169],[-124.6854,40.506],[-124.6725,40.4938],[-124.6666,40.4562],[-124.6725,40.4312],[-124.649,40.3979],[-124.6312,40.3876],[-124.6021,40.3846],[-124.5646,40.3578],[-124.5438,40.3586],[-124.5397,40.3438],[-124.5536,40.3312],[-124.5237,40.3188],[-124.5078,40.2979],[-124.7146,40.3089],[-124.8396,40.3337],[-124.9521,40.3364],[-124.9627,40.3312],[-124.9646,40.3157],[-124.933,40.2979],[-124.9846,40.2771],[-124.975,40.2229],[-124.9646,40.2081],[-124.8979,40.1629],[-124.8187,40.1453],[-124.8062,40.122],[-124.7854,40.1115],[-124.7646,40.1106],[-124.6812,40.0322],[-124.6479,40.0146],[-124.5896,40.0084],[-124.5396,40.0179],[-124.5062,40.0134],[-124.4188,39.9838],[-124.386,39.9854],[-124.3864,39.9729],[-124.3646,39.9628],[-124.3479,39.9725],[-124.3481,39.9979],[-124.3354,40.0039],[-124.3062,39.9646],[-124.3067,39.9146],[-124.2854,39.908],[-124.2556,39.9146],[-124.2543,39.8938],[-124.276,39.8729],[-124.2778,39.8604],[-124.2543,39.8396],[-124.2161,39.7854],[-124.1768,39.7771],[-124.1847,39.7562],[-124.1741,39.7438],[-124.1748,39.7271],[-124.1523,39.7146],[-124.1601,39.6896],[-124.1301,39.6479],[-124.1474,39.6229],[-124.1461,39.6146],[-124.1312,39.6054],[-124.0927,39.6021],[-124.0958,39.5771],[-124.0737,39.5521],[-124.1188,39.5607],[-124.141,39.5521],[-124.1576,39.5229],[-124.1833,39.4188],[-124.1854,39.3103],[-124.1809,39.2979],[-124.161,39.2812],[-124.1739,39.2729],[-124.1678,39.2521],[-124.1754,39.2271],[-124.1521,39.1896],[-124.1682,39.1688],[-124.1654,39.1396],[-124.1522,39.1229],[-124.1104,39.1062],[-124.0894,39.0896],[-124.1231,39.0812],[-124.1484,39.0438],[-124.1557,39.0104],[-124.1438,39.0031],[-124.1188,39.0083],[-124.1013,39.0021],[-124.1065,38.9771],[-124.1001,38.9646],[-123.9104,38.7869],[-123.8941,38.7312],[-123.8688,38.6975],[-123.8464,38.6812],[-123.826,38.6438],[-123.7771,38.5921],[-123.768,38.5688],[-123.7569,38.5604],[-123.7367,38.5146],[-123.7344,38.4854],[-123.716,38.4729],[-123.7142,38.4396],[-123.7033,38.4021],[-123.6784,38.3646],[-123.6188,38.2442],[-123.5885,38.2271],[-123.6007,38.2104],[-123.5971,38.1771],[-123.5751,38.1438],[-123.5575,38.0521],[-123.5271,37.998],[-123.493,37.9771],[-123.4883,37.9646],[-123.494,37.9521],[-123.4917,37.9188],[-123.4771,37.8918],[-123.462,37.8812],[-123.4612,37.8688],[-123.4476,37.8479],[-123.4062,37.8134],[-123.383,37.8062],[-123.3729,37.7912],[-123.3438,37.7833],[-123.3312,37.7714],[-123.3146,37.7712],[-123.3084,37.7479],[-123.2896,37.731],[-123.2646,37.738],[-123.2312,37.7268],[-123.2301,37.7188],[-123.2429,37.7062],[-123.2396,37.6979],[-123.2229,37.6955],[-123.2062,37.7034],[-123.1724,37.6812],[-123.1734,37.6688],[-123.1633,37.6562],[-123.1765,37.6396],[-123.1729,37.6317],[-123.1438,37.6381],[-123.1281,37.6188],[-123.1307,37.6062],[-123.0901,37.5938],[-123.1318,37.5688],[-123.1264,37.5521],[-123.1044,37.5396],[-123.1508,37.5188],[-123.1248,37.5021],[-123.1621,37.4896],[-123.1647,37.4771],[-123.1564,37.4688],[-123.1938,37.4521],[-123.1929,37.4438],[-123.1763,37.4271],[-123.1967,37.4146],[-123.1716,37.4021],[-123.1845,37.3812],[-123.1777,37.3604],[-123.1691,37.3562],[-123.1188,37.3566],[-123.0646,37.348],[-123.035,37.3521],[-123.0435,37.3396],[-123.0688,37.3264],[-123.1188,37.3187],[-123.1521,37.3041],[-123.1589,37.2938],[-123.1515,37.2688],[-123.1196,37.2521],[-123.1177,37.2229],[-123.076,37.2062],[-123.1077,37.1646],[-123.1018,37.1354],[-123.0729,37.1158],[-123.0229,37.1047],[-122.9812,37.0731],[-122.8938,37.0647],[-122.8354,37.0365],[-122.8104,37.0421],[-122.7979,37.0365],[-122.7729,37.0439],[-122.7749,37.0146],[-122.7513,36.9854],[-122.7021,36.9727],[-122.6271,36.9419],[-122.6021,36.9363],[-122.5688,36.941],[-122.5521,36.9261],[-122.5104,36.9105],[-122.4896,36.9105],[-122.4779,36.9271],[-122.4646,36.9341],[-122.4479,36.901],[-122.4396,36.8958],[-122.4229,36.8985],[-122.4062,36.917],[-122.3671,36.8896],[-122.3633,36.8479],[-122.3562,36.8381],[-122.342,36.8396],[-122.3188,36.8735],[-122.3021,36.8796],[-122.2886,36.8688],[-122.2941,36.8562],[-122.2896,36.8501],[-122.2729,36.8547],[-122.2604,36.8465],[-122.2312,36.8493],[-122.2313,36.8252],[-122.2827,36.7979],[-122.2853,36.7604],[-122.2688,36.7402],[-122.2271,36.7303],[-122.2104,36.7085],[-122.1729,36.6923],[-122.1549,36.6979],[-122.1598,36.7188],[-122.1522,36.7438],[-122.1594,36.7646],[-122.1479,36.7732],[-122.1104,36.7642],[-122.0854,36.7704],[-122.0733,36.7438],[-122.0438,36.717],[-122.0268,36.7229],[-122.0396,36.7588],[-122.0354,36.7729],[-122.0083,36.7438],[-122.0011,36.7229],[-122.0062,36.7055],[-122.0188,36.6926],[-122.053,36.6771],[-122.0527,36.6354],[-122.0428,36.6188],[-122.0438,36.585],[-122.0479,36.5818],[-122.0688,36.6057],[-122.0783,36.5771],[-122.0589,36.5354],[-122.0638,36.5104],[-122.0771,36.5026],[-122.1171,36.5021],[-122.1187,36.4896],[-122.1052,36.4729],[-122.1144,36.4604],[-122.1135,36.4479],[-122.1521,36.4454],[-122.1988,36.4229],[-122.2064,36.4104],[-122.2188,36.3511],[-122.2771,36.3217],[-122.282,36.3021],[-122.2688,36.2733],[-122.2271,36.2383],[-122.1604,36.2201],[-122.0688,36.1749],[-121.9729,36.1616],[-121.9479,36.1618],[-121.9312,36.1729],[-121.9294,36.1479],[-121.9005,36.1396],[-121.8979,36.1142],[-121.8896,36.1106],[-121.8771,36.1172],[-121.8396,36.0928],[-121.8217,36.0938],[-121.8462,36.0646],[-121.8319,36.0479],[-121.8058,36.0312],[-121.7771,36.0267],[-121.7687,36.0039],[-121.7354,36.0079],[-121.7275,36.0021],[-121.7441,35.9854],[-121.7572,35.9521],[-121.7558,35.9312],[-121.7785,35.9229],[-121.7906,35.8979],[-121.7914,35.8646],[-121.7707,35.8021],[-121.7729,35.7613],[-121.7904,35.7354],[-121.8021,35.6941],[-121.8216,35.6646],[-121.8316,35.6188],[-121.8571,35.5854],[-121.8459,35.5729],[-121.8146,35.5584],[-121.7729,35.5421],[-121.7562,35.5434],[-121.7242,35.5229],[-121.6979,35.5208],[-121.6396,35.4942],[-121.5628,35.4354],[-121.5659,35.4188],[-121.5596,35.3896],[-121.5646,35.3646],[-121.5979,35.3518],[-121.6312,35.3482],[-121.6563,35.334],[-121.6867,35.3104],[-121.6864,35.2812],[-121.6562,35.2492],[-121.6522,35.2229],[-121.6298,35.1688],[-121.6104,35.1444],[-121.5968,35.1062],[-121.5751,35.0854],[-121.5792,35.0438],[-121.5604,35.0281],[-121.5487,34.9979],[-121.5575,34.9812],[-121.5613,34.9521],[-121.5588,34.8938],[-121.5265,34.8312],[-121.5959,34.8271],[-121.6049,34.7812],[-121.6104,34.7768],[-121.6604,34.7964],[-121.6927,34.7896],[-121.7021,34.772],[-121.7017,34.7479],[-121.6854,34.717],[-121.6562,34.6831],[-121.6104,34.6749],[-121.5688,34.6787],[-121.5524,34.7104],[-121.5188,34.7107],[-121.4679,34.6771],[-121.4507,34.6438],[-121.4104,34.6132],[-121.3188,34.5879],[-121.2854,34.585],[-121.2688,34.5671],[-121.2271,34.5448],[-121.1021,34.5192],[-121.0492,34.5021],[-121.0312,34.4842],[-121.0021,34.4996],[-120.996,34.4854],[-120.9824,34.4771],[-120.9874,34.4646],[-120.9586,34.4479],[-120.9708,34.4396],[-120.972,34.4312],[-120.9496,34.3979],[-120.9296,34.3812],[-120.9264,34.3646],[-120.9349,34.3562],[-120.9315,34.3396],[-120.9518,34.2979],[-120.9729,34.267],[-121.0124,34.2438],[-121.016,34.2229],[-120.9856,34.1646],[-120.9708,34.1562],[-120.9627,34.1396],[-120.9354,34.1273],[-120.9271,34.1088],[-120.9104,34.1076],[-120.8938,34.1407],[-120.8893,34.1146],[-120.8633,34.1021],[-120.8635,34.0854],[-120.8553,34.0688],[-120.8698,34.0396],[-120.8605,34.0062],[-120.8312,34.018],[-120.7938,34.0169],[-120.7729,34.0288],[-120.7021,34.0277],[-120.6646,34.0414],[-120.6312,34.0419],[-120.5812,33.9864],[-120.5604,33.9738],[-120.5546,33.9562],[-120.5286,33.9229],[-120.4938,33.8915],[-120.4449,33.8604],[-120.4177,33.8562],[-120.4238,33.8396],[-120.4195,33.8271],[-120.3909,33.7854],[-120.3286,33.7271],[-120.323,33.7146],[-120.2648,33.6896],[-120.2774,33.6771],[-120.317,33.6646],[-120.333,33.6354],[-120.3201,33.6188],[-120.2354,33.56],[-120.1812,33.5533],[-120.1771,33.5898],[-120.1521,33.5681],[-120.0896,33.5536],[-120.0635,33.5229],[-120.0519,33.4312],[-120.0404,33.3896],[-120.0479,33.3826],[-120.0896,33.4108],[-120.0992,33.4021],[-120.0815,33.3729],[-120.0678,33.3646],[-120.0628,33.3438],[-120.0312,33.3326],[-120.0271,33.317],[-119.9982,33.2938],[-120.0312,33.2909],[-120.0313,33.2812],[-120.0562,33.2551],[-120.058,33.2271],[-120.0438,33.2196],[-120.0146,33.2249],[-119.9688,33.2046],[-119.9354,33.1726],[-119.9018,33.1521],[-119.8604,33.0966],[-119.8479,33.0898],[-119.8146,33.0993],[-119.8033,33.1188],[-119.8021,33.1483],[-119.7729,33.1612],[-119.7263,33.1188],[-119.7157,33.0688],[-119.6848,33.0271],[-119.6643,32.9729],[-119.6212,32.8979],[-119.6104,32.8925],[-119.5979,32.905],[-119.5521,32.8865],[-119.4938,32.8425],[-119.4562,32.8223],[-119.4179,32.7854],[-119.369,32.7604],[-119.3671,32.7521],[-119.3896,32.7354],[-119.4112,32.7062],[-119.4234,32.6688],[-119.4202,32.6562],[-119.4302,32.6396],[-119.4145,32.5938],[-119.4265,32.5729],[-119.4193,32.5312],[-119.4065,32.5104],[-119.4038,32.4896],[-119.2722,32.3688],[-119.2229,32.3429],[-119.1688,32.3381],[-119.1188,32.3071],[-119.0604,32.3079],[-119.0549,32.2979],[-119.0604,32.2749],[-119.0521,32.2687],[-118.9979,32.2688],[-118.9771,32.2833],[-118.9396,32.2763],[-118.8483,32.2896],[-118.8386,32.3188],[-118.8447,32.3771],[-118.8646,32.4055],[-118.9532,32.4812],[-118.9854,32.5176],[-118.9927,32.5354],[-118.9854,32.5688],[-118.9521,32.5988],[-118.9021,32.5918],[-118.8438,32.5702],[-118.7846,32.5146],[-118.7146,32.4751],[-118.6562,32.4744],[-118.6229,32.4853],[-118.5854,32.4746],[-118.5709,32.4854],[-118.5771,32.498],[-118.6063,32.5229],[-118.6562,32.5966],[-118.7104,32.6174],[-118.7646,32.6265],[-118.8354,32.6506],[-118.9271,32.7095],[-119.008,32.7396],[-119.1146,32.7983],[-119.1923,32.8604],[-119.2451,32.9312],[-119.2505,32.9604],[-119.2678,32.9854],[-119.2711,33.0104],[-119.2812,33.024],[-119.3146,33.0371],[-119.3771,33.0373],[-119.4104,33.0223],[-119.4229,33.0512],[-119.4687,33.1021],[-119.4979,33.1075],[-119.5157,33.1188],[-119.4604,33.1481],[-119.4062,33.1554],[-119.3688,33.1714],[-119.1931,33.1896],[-119.1729,33.1993],[-119.1577,33.2229],[-119.172,33.2604],[-119.2062,33.3014],[-119.2271,33.3004],[-119.2395,33.3146],[-119.2562,33.317],[-119.2604,33.3291],[-119.2938,33.352],[-119.3146,33.3535],[-119.3181,33.3646],[-119.3771,33.4043],[-119.4479,33.4325],[-119.4938,33.4379],[-119.5479,33.4816],[-119.6062,33.5134],[-119.6673,33.5562],[-119.7414,33.6354],[-119.744,33.6771],[-119.7568,33.7188],[-119.8037,33.8104],[-119.8322,33.8396],[-119.8396,33.8855],[-119.7771,33.8985],[-119.6938,33.8957],[-119.5979,33.9061],[-119.5812,33.8984],[-119.5396,33.8988],[-119.5188,33.9044],[-119.4354,33.8697],[-119.3509,33.8021],[-119.3353,33.7521],[-119.3111,33.7146],[-119.311,33.7021],[-119.3219,33.6896],[-119.3027,33.6604],[-119.3062,33.6512],[-119.3357,33.6354],[-119.2981,33.6021],[-119.3053,33.5771],[-119.2632,33.5188],[-119.2628,33.4854],[-119.2275,33.4312],[-119.2484,33.4104],[-119.2368,33.3938],[-119.2271,33.3607],[-119.1021,33.3085],[-119.0229,33.2965],[-118.9771,33.2996],[-118.9438,33.2752],[-118.8479,33.1778],[-118.7967,33.0979],[-118.7308,33.0396],[-118.7113,32.9979],[-118.6743,32.9646],[-118.6684,32.9271],[-118.6771,32.8689],[-118.6072,32.7812],[-118.5885,32.7146],[-118.6854,32.6941],[-118.6884,32.6854],[-118.6521,32.6805],[-118.5854,32.6384],[-118.5688,32.6484],[-118.5389,32.6521],[-118.5229,32.6731],[-118.5175,32.6521],[-118.4854,32.628],[-118.4479,32.6241],[-118.4048,32.6062],[-118.3938,32.5959],[-118.3479,32.5859],[-118.3267,32.6021],[-118.3391,32.6396],[-118.3271,32.6863],[-118.2972,32.7354],[-118.2656,32.7521],[-118.2755,32.7812],[-118.2261,32.7771],[-118.2796,32.8146],[-118.2771,32.8258],[-118.2521,32.8234],[-118.2141,32.7896],[-118.1775,32.7688],[-118.1649,32.7396],[-118.1749,32.7312],[-118.1701,32.7229],[-118.1179,32.6812],[-118.0379,32.6312],[-118.0273,32.6021],[-118.0364,32.5854],[-118.0188,32.5658],[-117.9229,32.5373],[-117.8604,32.5371],[-117.8059,32.5562],[-117.7812,32.5839],[-117.7688,32.5854],[-117.7354,32.5623],[-117.6771,32.536],[-117.6865,32.5104],[-117.6717,32.4812],[-117.6524,32.4604],[-117.656,32.4438],[-117.6438,32.4254],[-117.6146,32.4096],[-117.5646,32.4043],[-117.5556,32.4146],[-117.5713,32.4604],[-117.5851,32.4812],[-117.638,32.5229],[-117.6392,32.5396],[-117.6521,32.5482],[-117.6736,32.5896],[-117.6718,32.6146],[-117.6852,32.6646],[-117.7195,32.7396],[-117.8131,32.8521],[-117.8435,32.8729],[-117.8497,32.9062],[-117.8812,32.9344],[-117.8812,32.9449],[-117.867,32.9521],[-117.8659,32.9688],[-117.8604,32.9699],[-117.8188,32.9517],[-117.7979,32.933],[-117.7854,32.9397],[-117.7479,32.92],[-117.7188,32.9235],[-117.6938,32.9124],[-117.682,32.8812],[-117.6529,32.8562],[-117.6327,32.7979],[-117.6188,32.7987],[-117.6158,32.7896],[-117.5896,32.7716],[-117.5646,32.7711],[-117.5562,32.7645],[-117.5256,32.6896],[-117.4313,32.5604],[-117.4216,32.5146],[-117.4251,32.4896],[-117.439,32.4688],[-117.4243,32.4312],[-117.4146,32.4253],[-117.3938,32.4338],[-117.3916,32.4396],[-117.4079,32.4521],[-117.4021,32.4595],[-117.3729,32.4546],[-117.3562,32.4284],[-117.3296,32.3604],[-117.2812,32.3],[-117.2739,32.3021],[-117.2813,32.3688],[-117.2771,32.3712],[-117.2457,32.3021],[-117.2603,32.2771],[-117.2104,32.2278],[-117.1368,32.1229],[-117.1406,32.1021],[-117.1677,32.0896],[-117.1631,32.0688],[-117.1174,32.0271],[-117.1062,32.0058],[-117.0896,32.0076],[-117.0576,31.9562],[-117.0073,31.8979]]}},{"type":"Feature","properties":{"depth_m":2000,"label":"2,000 m"},"geometry":{"type":"LineString","coordinates":[[-125.1068,42.7021],[-125.089,42.6854],[-125.1147,42.6438],[-125.1252,42.5979],[-125.1178,42.5271],[-125.0562,42.4442],[-125.0396,42.4395],[-125.0229,42.4562],[-125.0174,42.4312],[-125.0003,42.4188],[-125.0053,42.3896],[-125.0294,42.3646],[-125.0342,42.3396],[-125.0604,42.3169],[-125.0897,42.3104],[-125.1119,42.2812],[-125.1154,42.2562],[-125.1032,42.2396],[-125.1021,42.2143],[-125.109,42.1896],[-125.1271,42.1807],[-125.1397,42.1646],[-125.1363,42.1396],[-125.1577,42.0771],[-125.158,42.0438],[-125.172,41.9979],[-125.1723,41.9729],[-125.1521,41.9104],[-125.1495,41.8604],[-125.1331,41.8188],[-125.1319,41.7354],[-125.1181,41.6979],[-125.1179,41.6438],[-125.0922,41.5812],[-125.0871,41.5062],[-125.0513,41.4688],[-125.0489,41.4312],[-125.0154,41.3521],[-125.0054,41.2938],[-125.0071,41.2646],[-124.9993,41.2521],[-124.9894,41.2021],[-124.998,41.1854],[-124.9968,41.1688],[-124.9729,41.1388],[-124.9284,41.1396],[-124.9334,41.1229],[-124.9481,41.1062],[-124.9312,41.0691],[-124.8873,41.0312],[-124.883,41.0062],[-124.8478,40.9271],[-124.8368,40.9146],[-124.8379,40.8938],[-124.8187,40.8354],[-124.826,40.7312],[-124.8406,40.7021],[-124.838,40.6729],[-124.8188,40.655],[-124.7727,40.6437],[-124.7827,40.6312],[-124.8312,40.6096],[-124.8332,40.5979],[-124.8271,40.585],[-124.8055,40.5688],[-124.8081,40.5521],[-124.7922,40.5188],[-124.7313,40.4688],[-124.8062,40.4124],[-124.8458,40.3979],[-124.8104,40.3863],[-124.7438,40.3885],[-124.7066,40.3729],[-124.9938,40.3658],[-125.1312,40.3791],[-125.3896,40.3804],[-125.5688,40.3907],[-125.6146,40.3856],[-125.6354,40.3893],[-125.6729,40.3808],[-125.7612,40.3812],[-125.7062,40.3598],[-125.6604,40.3243],[-125.4938,40.2891],[-125.4354,40.2629],[-125.3876,40.2229],[-125.3735,40.1979],[-125.3671,40.1729],[-125.3753,40.1396],[-125.3733,40.0646],[-125.3354,40.0388],[-125.3062,40.0323],[-125.2229,39.9897],[-125.201,39.9938],[-125.1939,39.9688],[-125.1677,39.9604],[-125.1396,39.9293],[-125.0938,39.9088],[-125.0312,39.9103],[-125.0044,39.9188],[-125.0312,39.8771],[-125.0277,39.8646],[-125.0372,39.8396],[-125.0591,39.8229],[-125.0479,39.8114],[-125.0271,39.8049],[-125.0169,39.7688],[-125.0062,39.7564],[-124.9182,39.7021],[-124.8604,39.6878],[-124.8104,39.6661],[-124.7688,39.6805],[-124.7104,39.6802],[-124.6729,39.6991],[-124.6562,39.6848],[-124.6062,39.6815],[-124.5729,39.6941],[-124.5229,39.6774],[-124.4729,39.693],[-124.4688,39.7077],[-124.4396,39.7025],[-124.4126,39.7188],[-124.4081,39.7396],[-124.3854,39.7425],[-124.3714,39.7313],[-124.3669,39.7063],[-124.3921,39.6729],[-124.4064,39.6646],[-124.4062,39.6391],[-124.4771,39.653],[-124.5695,39.6229],[-124.5896,39.6082],[-124.5911,39.5812],[-124.6062,39.5614],[-124.61,39.5312],[-124.5938,39.5122],[-124.5562,39.4976],[-124.5021,39.5078],[-124.4854,39.5052],[-124.4604,39.5212],[-124.3938,39.5346],[-124.3771,39.5307],[-124.3554,39.5146],[-124.3293,39.5104],[-124.3604,39.4827],[-124.3979,39.4806],[-124.4158,39.4729],[-124.4416,39.4479],[-124.4706,39.4062],[-124.4735,39.3938],[-124.4637,39.3812],[-124.4697,39.3646],[-124.4402,39.3479],[-124.4507,39.3354],[-124.4423,39.3104],[-124.4289,39.2979],[-124.423,39.2812],[-124.3956,39.2729],[-124.3767,39.2354],[-124.3487,39.2188],[-124.3146,39.1573],[-124.2953,39.1479],[-124.2759,39.1146],[-124.2718,39.0688],[-124.2507,39.0479],[-124.2271,39.0005],[-124.1927,38.9812],[-124.2023,38.9646],[-124.1979,38.9482],[-124.1688,38.9321],[-124.1479,38.9037],[-124.104,38.8646],[-124.1097,38.8479],[-124.0807,38.8146],[-124.0866,38.7979],[-124.0825,38.7812],[-124.0509,38.7646],[-124.0271,38.7303],[-123.9896,38.7324],[-124.0049,38.7062],[-123.9941,38.6771],[-123.9711,38.6646],[-123.9587,38.6271],[-123.9271,38.5845],[-123.8938,38.5834],[-123.8729,38.5666],[-123.8514,38.5604],[-123.8666,38.5354],[-123.858,38.5188],[-123.8735,38.5062],[-123.8793,38.4146],[-123.8725,38.3896],[-123.8479,38.3402],[-123.8188,38.324],[-123.7938,38.3182],[-123.7936,38.3104],[-123.8097,38.2938],[-123.7729,38.2869],[-123.7508,38.2729],[-123.7352,38.2312],[-123.7207,38.2188],[-123.7027,38.2146],[-123.6979,38.2062],[-123.6891,38.1854],[-123.6975,38.1688],[-123.6758,38.1271],[-123.6438,38.1152],[-123.6336,38.1021],[-123.6312,38.0915],[-123.6436,38.0771],[-123.6374,38.0646],[-123.6415,38.0562],[-123.6271,38.0354],[-123.6391,38.0229],[-123.6188,38.0111],[-123.6021,37.9877],[-123.6014,37.9646],[-123.5781,37.9562],[-123.5785,37.9354],[-123.5602,37.9271],[-123.563,37.9062],[-123.5426,37.8896],[-123.5534,37.8646],[-123.5384,37.8562],[-123.5353,37.8396],[-123.5201,37.8271],[-123.5104,37.7871],[-123.4938,37.7812],[-123.4802,37.7646],[-123.4354,37.7326],[-123.3812,37.7081],[-123.3641,37.6771],[-123.3479,37.6697],[-123.3104,37.6674],[-123.2959,37.6479],[-123.32,37.6312],[-123.3255,37.6188],[-123.3521,37.6063],[-123.3896,37.6157],[-123.3989,37.6104],[-123.3812,37.5865],[-123.3537,37.5729],[-123.3521,37.5497],[-123.3062,37.5523],[-123.292,37.5229],[-123.3675,37.4854],[-123.3771,37.4729],[-123.3771,37.4505],[-123.4312,37.4502],[-123.4364,37.4604],[-123.4323,37.4729],[-123.4646,37.4919],[-123.4927,37.4729],[-123.5106,37.4479],[-123.5104,37.4249],[-123.5021,37.4293],[-123.4771,37.4188],[-123.4396,37.4188],[-123.4687,37.3646],[-123.4688,37.3255],[-123.4438,37.3188],[-123.4114,37.3271],[-123.3604,37.3504],[-123.3479,37.3736],[-123.3271,37.3716],[-123.3216,37.3646],[-123.3257,37.3312],[-123.3206,37.3188],[-123.3355,37.3021],[-123.3413,37.2729],[-123.3354,37.2617],[-123.3062,37.2558],[-123.2771,37.2801],[-123.2602,37.2812],[-123.2808,37.2229],[-123.3035,37.2021],[-123.2854,37.1731],[-123.1771,37.1321],[-123.1729,37.1181],[-123.1499,37.1062],[-123.1457,37.0854],[-123.0854,37.0352],[-123.0646,37.0304],[-123.0312,37.0366],[-123.0178,37.0312],[-123.0114,37.0229],[-123.0131,37.0104],[-122.9938,36.9856],[-122.9438,36.9766],[-122.9336,36.9479],[-122.9062,36.933],[-122.8812,36.9277],[-122.8521,36.9322],[-122.8438,36.9128],[-122.8187,36.9022],[-122.7729,36.8999],[-122.7479,36.9059],[-122.7354,36.8945],[-122.7188,36.8969],[-122.6979,36.8778],[-122.6771,36.8788],[-122.6646,36.8647],[-122.6437,36.8573],[-122.6354,36.8402],[-122.618,36.8396],[-122.6116,36.8146],[-122.5716,36.8104],[-122.5698,36.7896],[-122.5646,36.7873],[-122.5229,36.7916],[-122.4938,36.8333],[-122.4729,36.8091],[-122.4539,36.8062],[-122.4584,36.7854],[-122.4354,36.7425],[-122.4229,36.7378],[-122.3816,36.7521],[-122.3898,36.7188],[-122.4223,36.6896],[-122.4527,36.6729],[-122.4146,36.6627],[-122.3896,36.6422],[-122.3229,36.6382],[-122.2604,36.6088],[-122.2188,36.5774],[-122.1938,36.5861],[-122.1555,36.6312],[-122.1078,36.6646],[-122.1124,36.6438],[-122.1316,36.6271],[-122.1406,36.5938],[-122.1593,36.5729],[-122.1614,36.5604],[-122.2062,36.5343],[-122.2562,36.538],[-122.3312,36.5775],[-122.3928,36.5646],[-122.4363,36.4604],[-122.4259,36.4354],[-122.4435,36.4021],[-122.4438,36.3726],[-122.4562,36.3605],[-122.4854,36.3601],[-122.4974,36.3521],[-122.5149,36.3104],[-122.5152,36.2771],[-122.5012,36.2396],[-122.4554,36.1771],[-122.4006,36.1146],[-122.3604,36.0982],[-122.3577,36.0771],[-122.2979,36.0906],[-122.2354,36.0723],[-122.2188,36.0597],[-122.1824,36.0562],[-122.1896,36.0492],[-122.2229,36.0468],[-122.2438,36.0535],[-122.2646,36.0505],[-122.2985,36.0229],[-122.2911,35.9979],[-122.2983,35.9771],[-122.2781,35.9646],[-122.2336,35.9562],[-122.2273,35.9062],[-122.1668,35.9021],[-122.2146,35.8661],[-122.2396,35.8634],[-122.2631,35.8438],[-122.2717,35.8312],[-122.2715,35.8146],[-122.2577,35.7938],[-122.2521,35.77],[-122.2104,35.7253],[-122.1854,35.6616],[-122.1336,35.5979],[-122.1358,35.5729],[-122.1044,35.5104],[-122.0786,35.5021],[-122.0604,35.4613],[-121.9729,35.3802],[-121.9521,35.3766],[-121.9396,35.3909],[-121.9044,35.3729],[-121.9083,35.3354],[-121.8992,35.2979],[-121.9095,35.2812],[-121.9144,35.2521],[-121.9078,35.2229],[-121.8873,35.1979],[-121.8706,35.1562],[-121.8411,35.1146],[-121.7527,35.0396],[-121.7518,35.0146],[-121.7735,34.9979],[-121.7896,34.9462],[-121.8498,34.9646],[-121.8688,34.9538],[-121.883,34.9312],[-121.8804,34.9021],[-121.8502,34.8688],[-121.8391,34.8271],[-121.8205,34.8021],[-121.7912,34.7812],[-121.7729,34.7475],[-121.7146,34.7051],[-121.6794,34.6521],[-121.6145,34.5896],[-121.5812,34.5438],[-121.5409,34.5062],[-121.4104,34.4983],[-121.3854,34.4715],[-121.2896,34.4195],[-121.2646,34.3854],[-121.252,34.3521],[-121.2188,34.3263],[-121.1812,34.3412],[-121.1595,34.3396],[-121.164,34.3271],[-121.1577,34.3021],[-121.138,34.2646],[-121.1101,34.1604],[-121.0938,34.1467],[-121.0839,34.1604],[-121.0688,34.1646],[-121.0514,34.1271],[-121.0562,34.117],[-121.0938,34.101],[-121.1293,34.0646],[-121.1497,34.0104],[-121.1402,33.9688],[-121.1467,33.9562],[-121.0938,33.9637],[-121.0521,33.9585],[-121.0146,33.9823],[-120.9938,34.0095],[-120.9646,34.0177],[-120.9354,33.9955],[-120.9229,34.0097],[-120.897,33.9604],[-120.8806,33.9562],[-120.8757,33.9396],[-120.8597,33.9229],[-120.8188,33.912],[-120.7896,33.9191],[-120.7688,33.8925],[-120.7229,33.8791],[-120.6747,33.8438],[-120.6532,33.8062],[-120.6979,33.8078],[-120.7521,33.7582],[-120.8021,33.761],[-120.9062,33.8089],[-120.9166,33.7979],[-120.9112,33.7646],[-120.8911,33.7146],[-120.861,33.6812],[-120.8284,33.6104],[-120.7839,33.5562],[-120.739,33.5229],[-120.7144,33.4938],[-120.7092,33.4479],[-120.6889,33.4021],[-120.6605,33.3604],[-120.6242,33.2771],[-120.5973,33.2562],[-120.5732,33.1646],[-120.5179,33.0854],[-120.4784,33.0062],[-120.4757,32.9896],[-120.454,32.9646],[-120.4411,32.9188],[-120.4104,32.8626],[-120.3279,32.8062],[-120.2896,32.7537],[-120.2672,32.7354],[-120.2625,32.7062],[-120.2146,32.6511],[-120.1102,32.5979],[-120.1146,32.5908],[-120.1839,32.5812],[-120.2064,32.5521],[-120.1955,32.5229],[-120.1977,32.5021],[-120.1534,32.4062],[-120.1229,32.3774],[-120.0271,32.3441],[-119.9812,32.3432],[-119.9479,32.3232],[-119.9115,32.3146],[-119.8812,32.2979],[-119.8764,32.2854],[-119.8812,32.2806],[-119.9062,32.2927],[-119.9354,32.282],[-119.9483,32.2646],[-119.9413,32.2396],[-119.8979,32.1947],[-119.7845,32.1229],[-119.7562,32.092],[-119.7328,32.0771],[-119.7116,32.0229],[-119.6312,31.9562],[-119.6104,31.9317],[-119.5938,31.9308],[-119.5438,31.9508],[-119.4851,31.9271],[-119.4413,31.8979]]}},{"type":"Feature","properties":{"depth_m":3000,"label":"3,000 m"},"geometry":{"type":"LineString","coordinates":[[-120.0162,31.8979],[-119.9941,31.9271],[-119.9944,31.9521],[-119.9769,31.9562],[-119.9938,31.9838],[-120.0062,31.9828],[-120.0188,31.9917],[-120.0254,31.9812],[-120.0188,31.9767],[-120.0104,31.9809],[-120.0074,31.9646],[-120.0188,31.959],[-120.0521,31.9628],[-120.0756,31.8979]]}},{"type":"Feature","properties":{"depth_m":3000,"label":"3,000 m"},"geometry":{"type":"LineString","coordinates":[[-126.7979,40.3395],[-126.7312,40.3496],[-126.6479,40.3469],[-126.5854,40.3564],[-126.4854,40.3546],[-126.4646,40.3628],[-126.4229,40.3536],[-126.3104,40.364],[-126.2771,40.358],[-126.2438,40.3436],[-126.1646,40.3632],[-126.1188,40.3576],[-126.0438,40.3649],[-125.9521,40.3638],[-125.8729,40.3278],[-125.8479,40.3027],[-125.8303,40.3021],[-125.8245,40.2812],[-125.8003,40.2521],[-125.7823,40.1938],[-125.7646,40.1769],[-125.7271,40.1742],[-125.6896,40.1925],[-125.6188,40.1984],[-125.6021,40.1919],[-125.5688,40.1914],[-125.5795,40.1312],[-125.5705,40.1104],[-125.5186,40.0604],[-125.5027,40.0021],[-125.4655,39.9771],[-125.4498,39.9479],[-125.4025,39.8896],[-125.3729,39.8739],[-125.3521,39.8707],[-125.3354,39.8753],[-125.3229,39.8893],[-125.3104,39.8608],[-125.2738,39.8562],[-125.2705,39.8396],[-125.2562,39.8286],[-125.2146,39.8253],[-125.2166,39.8062],[-125.2065,39.7896],[-125.1854,39.787],[-125.1627,39.7688],[-125.158,39.7521],[-125.1456,39.7438],[-125.1529,39.7229],[-125.127,39.6812],[-125.1521,39.6541],[-125.1771,39.6604],[-125.1819,39.6438],[-125.1521,39.6456],[-125.1259,39.6229],[-125.1261,39.6062],[-125.0771,39.5943],[-125.0646,39.5849],[-125.0271,39.5822],[-125.0146,39.5584],[-124.9833,39.5521],[-124.9838,39.5396],[-125.0029,39.5146],[-125.0602,39.4896],[-125.0654,39.4771],[-125.1066,39.4438],[-125.1104,39.4296],[-125.1504,39.4021],[-125.1636,39.3604],[-125.1592,39.3396],[-125.1438,39.3365],[-125.1279,39.3896],[-125.0729,39.4304],[-125.0188,39.4393],[-124.9784,39.4312],[-124.9635,39.4229],[-124.9531,39.4062],[-124.9896,39.3974],[-125.0054,39.3854],[-125.0015,39.3604],[-124.9867,39.3438],[-124.9741,39.2979],[-124.8854,39.2764],[-124.8753,39.2562],[-124.8735,39.2188],[-124.8688,39.2161],[-124.7312,39.218],[-124.711,39.2479],[-124.7184,39.2604],[-124.7174,39.2771],[-124.7396,39.3052],[-124.7403,39.3146],[-124.7271,39.3299],[-124.7062,39.3405],[-124.6979,39.3575],[-124.6771,39.3582],[-124.6646,39.3778],[-124.6354,39.3678],[-124.626,39.3354],[-124.582,39.3062],[-124.5758,39.2854],[-124.5511,39.2646],[-124.5312,39.2367],[-124.4938,39.2317],[-124.475,39.2188],[-124.4682,39.2021],[-124.4452,39.1854],[-124.4424,39.1688],[-124.427,39.1604],[-124.4269,39.1479],[-124.4062,39.138],[-124.4021,39.1225],[-124.3854,39.1163],[-124.3834,39.0979],[-124.3604,39.0869],[-124.3636,39.0438],[-124.3383,39.0229],[-124.3573,39.0062],[-124.3588,38.9979],[-124.3396,38.9752],[-124.3086,38.9604],[-124.3229,38.9316],[-124.2879,38.8854],[-124.268,38.8771],[-124.2688,38.8616],[-124.2447,38.8479],[-124.2429,38.8354],[-124.2322,38.8271],[-124.2314,38.8021],[-124.245,38.7854],[-124.2443,38.7771],[-124.1988,38.7646],[-124.2062,38.7479],[-124.2006,38.7271],[-124.1729,38.7204],[-124.1698,38.7104],[-124.156,38.7021],[-124.1608,38.6812],[-124.1481,38.6729],[-124.1574,38.6438],[-124.1813,38.6345],[-124.1979,38.608],[-124.2276,38.5854],[-124.2265,38.5771],[-124.2108,38.5604],[-124.1812,38.5437],[-124.0979,38.5133],[-124.0021,38.5118],[-123.9886,38.5062],[-123.9966,38.4729],[-124.0271,38.4475],[-124.0251,38.4354],[-124.0382,38.4188],[-124.0312,38.3997],[-124.0021,38.3689],[-123.9696,38.3562],[-123.9484,38.3312],[-123.9479,38.3181],[-123.9312,38.3119],[-123.9021,38.314],[-123.8982,38.3062],[-123.9104,38.2837],[-123.8734,38.2854],[-123.8774,38.2646],[-123.8563,38.2496],[-123.8254,38.2396],[-123.8178,38.2021],[-123.7959,38.1729],[-123.8108,38.1521],[-123.8041,38.1396],[-123.8109,38.1229],[-123.8003,38.0979],[-123.7854,38.0871],[-123.7646,38.0881],[-123.722,38.0729],[-123.7469,38.0562],[-123.7633,38.0312],[-123.7354,38.0038],[-123.6963,37.9854],[-123.7082,37.9729],[-123.6878,37.9354],[-123.7105,37.9104],[-123.6945,37.8979],[-123.6643,37.8979],[-123.6718,37.8646],[-123.6392,37.8521],[-123.6568,37.8188],[-123.6194,37.8104],[-123.6227,37.7854],[-123.6382,37.7646],[-123.6315,37.7521],[-123.6438,37.7339],[-123.5765,37.7271],[-123.5831,37.7104],[-123.6043,37.6896],[-123.5812,37.6879],[-123.5729,37.6717],[-123.5438,37.6712],[-123.5188,37.6551],[-123.4979,37.6517],[-123.4973,37.6188],[-123.5107,37.5938],[-123.4776,37.5646],[-123.471,37.5479],[-123.4854,37.5352],[-123.5479,37.5196],[-123.5897,37.4938],[-123.5919,37.4562],[-123.5604,37.4305],[-123.5612,37.4104],[-123.5464,37.3812],[-123.5493,37.3646],[-123.5357,37.3604],[-123.5372,37.3354],[-123.5242,37.3104],[-123.5274,37.2938],[-123.5492,37.2771],[-123.5655,37.2271],[-123.5909,37.2062],[-123.5925,37.1521],[-123.5729,37.1403],[-123.5646,37.142],[-123.4883,37.2188],[-123.4021,37.2284],[-123.3912,37.2146],[-123.4084,37.1896],[-123.4083,37.1729],[-123.3792,37.1479],[-123.3611,37.1229],[-123.3242,37.1021],[-123.3365,37.0812],[-123.3885,37.0479],[-123.4229,37.0173],[-123.4421,36.9729],[-123.4354,36.9234],[-123.4271,36.9213],[-123.4104,36.9329],[-123.3729,36.8985],[-123.3354,36.9027],[-123.3021,36.8967],[-123.2896,36.8854],[-123.2562,36.9077],[-123.2509,36.8812],[-123.2396,36.877],[-123.2312,36.881],[-123.2062,36.9266],[-123.1812,36.9385],[-123.1604,36.9298],[-123.1396,36.8801],[-123.1146,36.8789],[-123.0896,36.8955],[-123.0396,36.8757],[-123.0188,36.8735],[-123.0247,36.8104],[-122.9863,36.8062],[-123.0036,36.7771],[-123.0007,36.7604],[-122.9817,36.7521],[-122.9688,36.7354],[-122.9271,36.7254],[-122.9179,36.7146],[-122.9871,36.6312],[-122.9998,36.6104],[-123.0064,36.5812],[-122.987,36.5562],[-122.9622,36.4938],[-122.9354,36.4635],[-122.8646,36.4853],[-122.8229,36.5379],[-122.8146,36.5374],[-122.7909,36.4896],[-122.7944,36.4438],[-122.8195,36.3938],[-122.8169,36.3646],[-122.7995,36.3771],[-122.7854,36.3985],[-122.7479,36.4039],[-122.6812,36.4264],[-122.6154,36.5271],[-122.5806,36.5688],[-122.5438,36.5865],[-122.5048,36.5812],[-122.5523,36.5479],[-122.5497,36.5271],[-122.564,36.4896],[-122.5371,36.4479],[-122.5374,36.4354],[-122.5896,36.4184],[-122.6144,36.3729],[-122.6146,36.3479],[-122.6258,36.3146],[-122.6053,36.2521],[-122.6083,36.2396],[-122.601,36.2229],[-122.5563,36.1729],[-122.5395,36.1312],[-122.5312,36.0829],[-122.5166,36.0521],[-122.4928,36.0229],[-122.4812,36.0168],[-122.4688,36.0331],[-122.4521,36.034],[-122.4308,36.0188],[-122.4231,35.9938],[-122.4104,35.9838],[-122.3563,35.9942],[-122.3602,35.9771],[-122.4062,35.9472],[-122.4312,35.9527],[-122.4438,35.9486],[-122.4459,35.9312],[-122.4396,35.9275],[-122.4188,35.9354],[-122.3938,35.9283],[-122.3816,35.9062],[-122.3604,35.895],[-122.3566,35.8854],[-122.3651,35.8562],[-122.3519,35.8438],[-122.3438,35.8226],[-122.2933,35.7771],[-122.2657,35.7188],[-122.245,35.6938],[-122.2212,35.5438],[-122.1885,35.4604],[-122.1688,35.4391],[-122.1354,35.4305],[-122.1039,35.3771],[-122.0885,35.3312],[-122.0729,35.3256],[-122.0604,35.3085],[-122.0227,35.3021],[-122.0447,35.2729],[-122.043,35.2146],[-122.0256,35.1896],[-121.989,35.1646],[-121.9604,35.0963],[-121.928,35.0521],[-121.9641,34.9854],[-122.0253,34.9688],[-122.0336,34.9562],[-122.0296,34.9396],[-122.0062,34.9192],[-121.9312,34.8843],[-121.9065,34.8646],[-121.8271,34.7591],[-121.7538,34.6812],[-121.7312,34.6695],[-121.7229,34.6394],[-121.6382,34.5562],[-121.5854,34.4635],[-121.4993,34.3854],[-121.4824,34.3354],[-121.4855,34.3146],[-121.4746,34.2729],[-121.435,34.2146],[-121.3854,34.1836],[-121.3729,34.1678],[-121.3188,34.1576],[-121.3062,34.1402],[-121.2562,34.2007],[-121.2405,34.2062],[-121.275,34.1229],[-121.2432,34.0854],[-121.2213,34.0479],[-121.2149,34.0229],[-121.2604,33.9688],[-121.2679,33.9312],[-121.2577,33.8896],[-121.2675,33.8688],[-121.2572,33.8312],[-121.2611,33.8021],[-121.2507,33.7688],[-121.2104,33.7371],[-121.1604,33.7573],[-121.1438,33.7726],[-121.1146,33.7723],[-121.1021,33.779],[-121.0771,33.7759],[-121.0438,33.7935],[-121.0312,33.7891],[-121.0104,33.793],[-121.0206,33.7646],[-121.0104,33.75],[-120.9729,33.7599],[-120.9604,33.7705],[-120.9479,33.763],[-120.9188,33.6939],[-120.8896,33.6652],[-120.8769,33.6188],[-120.8629,33.5938],[-120.804,33.5146],[-120.7873,33.4729],[-120.7792,33.4188],[-120.7176,33.3396],[-120.708,33.3021],[-120.6692,33.2521],[-120.6545,33.2188],[-120.6528,33.1729],[-120.6438,33.157],[-120.5979,33.1343],[-120.5604,33.0872],[-120.4348,32.8438],[-120.3812,32.7955],[-120.3521,32.7814],[-120.3438,32.7658],[-120.2967,32.7188],[-120.2692,32.6771],[-120.2518,32.5729],[-120.2607,32.5312],[-120.2321,32.5021],[-120.2268,32.4521],[-120.2107,32.4229],[-120.2163,32.4062],[-120.1771,32.3623],[-120.1729,32.3396],[-120.1604,32.3276],[-120.1525,32.3062],[-120.1312,32.3001],[-120.0562,32.3178],[-120.0229,32.3008],[-120.0027,32.2688],[-119.9977,32.2396],[-119.9687,32.203],[-119.9176,32.1729],[-119.9021,32.1551],[-119.8646,32.1371],[-119.835,32.1104],[-119.8312,32.085],[-119.8062,32.0743],[-119.7896,32.0761],[-119.7644,32.0562],[-119.7497,32.0104],[-119.7379,31.9938],[-119.7406,31.9729],[-119.7312,31.9395],[-119.6979,31.9295],[-119.6688,31.9314],[-119.6287,31.8979]]}},{"type":"Feature","properties":{"depth_m":3000,"label":"3,000 m"},"geometry":{"type":"LineString","coordinates":[[-126.7979,41.0682],[-126.7771,41.0792],[-126.7604,41.0775],[-126.7623,41.0604],[-126.7479,41.0553],[-126.7067,41.0812],[-126.7198,41.1062],[-126.7062,41.126],[-126.6479,41.1591],[-126.6371,41.1521],[-126.6438,41.13],[-126.5843,41.1562],[-126.5188,41.2182],[-126.5061,41.2354],[-126.5097,41.2438],[-126.4812,41.2448],[-126.4576,41.2771],[-126.436,41.2729],[-126.4062,41.2953],[-126.4031,41.3021],[-126.4147,41.3188],[-126.4101,41.3271],[-126.3396,41.3379],[-126.3062,41.3585],[-126.2732,41.3688],[-126.2562,41.3875],[-126.2021,41.3936],[-126.1479,41.4185],[-126.0854,41.42],[-126.0604,41.4092],[-126.0232,41.4146],[-126.0021,41.4038],[-125.9812,41.4145],[-125.9479,41.4186],[-125.9271,41.4363],[-125.8729,41.4513],[-125.8396,41.4497],[-125.7979,41.4743],[-125.7729,41.4764],[-125.7771,41.4817],[-125.8229,41.4824],[-125.8414,41.4938],[-125.8477,41.5104],[-125.8604,41.5222],[-125.8479,41.5521],[-125.8254,41.5688],[-125.8159,41.5979],[-125.8188,41.6081],[-125.8854,41.5945],[-125.889,41.5979],[-125.881,41.6104],[-125.8548,41.6354],[-125.8604,41.6408],[-125.9021,41.6162],[-125.9225,41.6188],[-125.9121,41.6396],[-125.9216,41.6562],[-125.9021,41.6677],[-125.8947,41.6812],[-125.8979,41.6863],[-125.9152,41.6854],[-125.8986,41.6979],[-125.8479,41.7086],[-125.8188,41.6913],[-125.8173,41.6729],[-125.7271,41.6552],[-125.72,41.6438],[-125.7209,41.6229],[-125.7062,41.6076],[-125.6479,41.6217],[-125.6062,41.6522],[-125.5886,41.6812],[-125.5881,41.7104],[-125.6032,41.7271],[-125.6009,41.8146],[-125.6062,41.8206],[-125.6396,41.8065],[-125.6521,41.812],[-125.6562,41.8271],[-125.6521,41.8435],[-125.6193,41.8688],[-125.6229,41.8821],[-125.6438,41.8854],[-125.5691,41.9771],[-125.554,41.9854],[-125.552,42.0021],[-125.5622,42.0229],[-125.5479,42.0699],[-125.5171,42.0979],[-125.4896,42.1109],[-125.4792,42.1271],[-125.4832,42.1438],[-125.4979,42.1543],[-125.5521,42.1556],[-125.5805,42.1479],[-125.5854,42.134],[-125.6456,42.1271],[-125.6246,42.1604],[-125.6216,42.2354],[-125.6271,42.2437],[-125.6509,42.2521],[-125.6543,42.2729],[-125.6252,42.3604],[-125.6205,42.4146],[-125.6271,42.4233],[-125.6354,42.4184],[-125.6688,42.3459],[-125.6873,42.3646],[-125.6868,42.3854],[-125.6977,42.4146],[-125.6952,42.4438],[-125.7021,42.4469],[-125.7229,42.4337],[-125.7353,42.4438],[-125.7295,42.5229],[-125.7212,42.5562],[-125.7344,42.6271],[-125.7313,42.6399],[-125.7021,42.629],[-125.6604,42.5872],[-125.6312,42.6039],[-125.6244,42.5438],[-125.5938,42.5128],[-125.579,42.5146],[-125.5618,42.5312],[-125.5553,42.5646],[-125.5669,42.6479],[-125.5812,42.6685],[-125.5979,42.6538],[-125.6047,42.6562],[-125.6197,42.7021]]}},{"type":"Feature","properties":{"depth_m":3000,"label":"3,000 m"},"geometry":{"type":"LineString","coordinates":[[-126.7979,41.442],[-126.6479,41.5066],[-126.6351,41.4562],[-126.6438,41.4399],[-126.6408,41.4271],[-126.6479,41.4058],[-126.5771,41.4186],[-126.5438,41.4332],[-126.5146,41.4349],[-126.504,41.4271],[-126.5195,41.4062],[-126.5146,41.3938],[-126.5328,41.3771],[-126.5318,41.3604],[-126.5146,41.352],[-126.4854,41.3647],[-126.4729,41.3641],[-126.4559,41.3312],[-126.4604,41.3176],[-126.483,41.3062],[-126.4735,41.2896],[-126.4786,41.2771],[-126.5562,41.2353],[-126.563,41.2396],[-126.5369,41.2688],[-126.5688,41.2604],[-126.6137,41.2271],[-126.6163,41.2188],[-126.6057,41.2146],[-126.6103,41.2104],[-126.6229,41.2126],[-126.6479,41.2046],[-126.6621,41.1938],[-126.6688,41.1741],[-126.6786,41.1688],[-126.6771,41.1842],[-126.6854,41.182],[-126.7062,41.1588],[-126.7354,41.1427],[-126.7416,41.1438],[-126.7396,41.1737],[-126.7882,41.1562],[-126.7924,41.1812],[-126.7979,41.1827]]}},{"type":"Feature","properties":{"depth_m":3000,"label":"3,000 m"},"geometry":{"type":"LineString","coordinates":[[-126.7979,41.9683],[-126.7673,42.0062],[-126.7688,42.0118],[-126.7946,42.0104],[-126.796,42.0312],[-126.7755,42.0479],[-126.7632,42.0688],[-126.7646,42.073],[-126.7979,42.0729]]}},{"type":"Feature","properties":{"depth_m":3000,"label":"3,000 m"},"geometry":{"type":"LineString","coordinates":[[-126.7979,42.1004],[-126.6979,42.1416],[-126.6932,42.1396],[-126.703,42.1229],[-126.6979,42.1191],[-126.6604,42.1416],[-126.6354,42.1367],[-126.6229,42.1222],[-126.5938,42.1282],[-126.5479,42.127],[-126.5106,42.1146],[-126.4813,42.0938],[-126.4245,42.0896],[-126.4283,42.0729],[-126.4229,42.0668],[-126.3806,42.0646],[-126.3812,42.02],[-126.3354,42.025],[-126.2938,42.0195],[-126.2928,42.0062],[-126.3104,41.9838],[-126.2847,41.9854],[-126.3062,41.9668],[-126.2396,41.984],[-126.1646,42.0212],[-126.1479,42.0209],[-126.1298,42.0062],[-126.1479,41.9638],[-126.1312,41.9699],[-126.1021,41.9949],[-126.0896,41.9965],[-126.0792,41.9854],[-126.0826,41.9688],[-126.1094,41.9396],[-126.1085,41.9188],[-126.1021,41.9158],[-126.0541,41.9396],[-126.0219,41.9729],[-126.0021,41.982],[-125.9639,41.9646],[-125.9521,41.9656],[-125.8729,42.0306],[-125.8438,42.0261],[-125.8229,42.0323],[-125.7687,42.0249],[-125.7396,42.0361],[-125.7146,42.0245],[-125.6729,42.0337],[-125.6696,42.0104],[-125.7104,41.981],[-125.7336,41.9979],[-125.7646,42.0067],[-125.8104,42.004],[-125.8218,41.9729],[-125.8188,41.9489],[-125.8472,41.9229],[-125.8771,41.8709],[-125.8854,41.8647],[-125.889,41.8688],[-125.8854,41.9083],[-125.9062,41.9056],[-125.9239,41.8812],[-125.9479,41.8664],[-125.9784,41.8146],[-125.9789,41.7896],[-125.9872,41.7688],[-126.0229,41.7379],[-126.0364,41.7104],[-126.0024,41.6979],[-125.9938,41.6729],[-126.0688,41.6305],[-126.1729,41.6048],[-126.1938,41.6079],[-126.2021,41.6233],[-126.2812,41.6259],[-126.3212,41.6396],[-126.3233,41.6604],[-126.3439,41.6771],[-126.3275,41.6979],[-126.3368,41.7146],[-126.3197,41.7396],[-126.3499,41.7646],[-126.3481,41.7938],[-126.3729,41.7925],[-126.3896,41.7985],[-126.4354,41.7878],[-126.5188,41.7511],[-126.5396,41.7564],[-126.5771,41.7534],[-126.5885,41.7729],[-126.6095,41.7771],[-126.6249,41.7938],[-126.6688,41.8096],[-126.6896,41.8033],[-126.7043,41.8146],[-126.6521,41.8541],[-126.6354,41.8425],[-126.6229,41.8229],[-126.5979,41.8285],[-126.5592,41.8521],[-126.5905,41.8562],[-126.5614,41.8812],[-126.5604,41.8895],[-126.6229,41.8775],[-126.6354,41.8879],[-126.6521,41.8879],[-126.6896,41.8839],[-126.7188,41.8721],[-126.7521,41.8712],[-126.7703,41.8812],[-126.7979,41.9253]]}},{"type":"Feature","properties":{"depth_m":3000,"label":"3,000 m"},"geometry":{"type":"LineString","coordinates":[[-126.7558,42.7021],[-126.7646,42.6031],[-126.7955,42.5396],[-126.7979,42.5191]]}},{"type":"Feature","properties":{"depth_m":3000,"label":"3,000 m"},"geometry":{"type":"LineString","coordinates":[[-125.1747,42.7021],[-125.188,42.6771],[-125.2021,42.6241],[-125.2188,42.6249],[-125.2312,42.6104],[-125.2342,42.5604],[-125.2149,42.5104],[-125.1442,42.4354],[-125.1402,42.4104],[-125.1083,42.3604],[-125.1354,42.3463],[-125.1521,42.3283],[-125.1729,42.328],[-125.1938,42.3175],[-125.2079,42.2979],[-125.2103,42.2688],[-125.2479,42.2531],[-125.2727,42.2229],[-125.2857,42.1979],[-125.2884,42.0938],[-125.2787,42.0646],[-125.2786,42.0312],[-125.2521,42.0257],[-125.2461,42.0188],[-125.2486,41.9854],[-125.2344,41.9313],[-125.1819,41.7771],[-125.1854,41.7399],[-125.1984,41.7146],[-125.2028,41.6812],[-125.1966,41.6188],[-125.1813,41.5979],[-125.1615,41.5396],[-125.1285,41.4771],[-125.1058,41.3979],[-125.0821,41.3771],[-125.0773,41.3271],[-125.0551,41.2896],[-125.0526,41.1979],[-125.0396,41.1247],[-125.0479,41.1151],[-125.0771,41.1036],[-125.1104,41.0763],[-125.1122,41.0688],[-125.0938,41.0435],[-125.0438,41.0253],[-125.0201,41.0104],[-125.0073,40.9938],[-124.9923,40.9521],[-125.0072,40.9062],[-125.0271,40.8938],[-125.1104,40.8928],[-125.1354,40.8995],[-125.1729,40.8876],[-125.2479,40.9079],[-125.2938,40.9067],[-125.3146,40.9172],[-125.3832,40.8896],[-125.4312,40.8492],[-125.4646,40.8455],[-125.509,40.8104],[-125.5218,40.7812],[-125.5143,40.7604],[-125.5188,40.7544],[-125.5354,40.7531],[-125.5437,40.7396],[-125.6104,40.7168],[-125.6411,40.6896],[-125.6396,40.6771],[-125.5942,40.6688],[-125.6126,40.6396],[-125.6604,40.6297],[-125.7312,40.5987],[-125.7655,40.5812],[-125.7813,40.559],[-125.8146,40.5508],[-125.8354,40.5552],[-125.8646,40.5417],[-125.863,40.5146],[-125.8774,40.4896],[-125.8515,40.4729],[-125.8379,40.4521],[-125.8426,40.4312],[-125.8574,40.4229],[-125.9896,40.417],[-126.0228,40.4229],[-125.9707,40.4312],[-125.9644,40.4354],[-125.9688,40.4417],[-126.0271,40.4476],[-126.1062,40.4399],[-126.1521,40.4482],[-126.1854,40.4655],[-126.2854,40.4892],[-126.4354,40.4828],[-126.463,40.4771],[-126.5327,40.4438],[-126.5854,40.4339],[-126.7271,40.4197],[-126.7979,40.4257]]}}]}